{
"type": "FeatureCollection",
"name": "coastline_jepara_kontrol",
"crs": { "type": "name", "properties": { "name": "urn:ogc:def:crs:OGC:1.3:CRS84" } },
"features": [
{ "type": "Feature", "properties": { "FID": 319049 }, "geometry": { "type": "LineString", "coordinates": [ [ 110.6254057, -6.5757567 ], [ 110.6253995, -6.5757498 ], [ 110.625325, -6.5756744 ], [ 110.6252184, -6.5755825 ], [ 110.6251252, -6.5754932 ], [ 110.62504, -6.5753766 ], [ 110.6249656, -6.5752074 ], [ 110.6249213, -6.5750289 ], [ 110.6249113, -6.5749623 ], [ 110.6249086, -6.5749117 ], [ 110.6249133, -6.5748624 ], [ 110.6249374, -6.5748104 ], [ 110.624987, -6.5747705 ], [ 110.6250367, -6.5747478 ], [ 110.6250997, -6.5747185 ], [ 110.6251413, -6.5746972 ], [ 110.6251882, -6.5746639 ], [ 110.6253505, -6.574508 ], [ 110.6255168, -6.5743295 ], [ 110.625675, -6.5741243 ], [ 110.6257769, -6.5739684 ], [ 110.6257984, -6.5738792 ], [ 110.6257997, -6.5738152 ], [ 110.6257863, -6.5737513 ], [ 110.6257904, -6.5736687 ], [ 110.6258212, -6.5735781 ], [ 110.6258802, -6.5735114 ], [ 110.625962, -6.5734928 ], [ 110.626025, -6.5735048 ], [ 110.6260546, -6.5735301 ], [ 110.6260686, -6.5735541 ], [ 110.62608, -6.5735887 ], [ 110.6260733, -6.5736187 ], [ 110.6260666, -6.5736447 ], [ 110.6260666, -6.57367 ], [ 110.6260934, -6.573702 ], [ 110.626131, -6.5737233 ], [ 110.6262182, -6.5737419 ], [ 110.6263228, -6.5737299 ], [ 110.6264649, -6.5737179 ], [ 110.6265923, -6.5737113 ], [ 110.6267305, -6.5737046 ], [ 110.6268404, -6.5737086 ], [ 110.6269732, -6.5736993 ], [ 110.6271274, -6.5736713 ], [ 110.6272924, -6.5736353 ], [ 110.6274573, -6.5736074 ], [ 110.6277081, -6.5735967 ], [ 110.6278691, -6.57361 ], [ 110.6281534, -6.5736713 ], [ 110.6284001, -6.5737433 ], [ 110.6286308, -6.5737699 ], [ 110.6288373, -6.5737912 ], [ 110.6290761, -6.5738232 ], [ 110.6292571, -6.5738725 ], [ 110.6294274, -6.5738965 ], [ 110.6295924, -6.5739205 ], [ 110.6297265, -6.5739338 ], [ 110.6298432, -6.5739604 ], [ 110.6299035, -6.5739884 ], [ 110.629921, -6.5740297 ], [ 110.6299223, -6.574091 ], [ 110.6299075, -6.5741549 ], [ 110.6298874, -6.5742322 ], [ 110.6298821, -6.5743415 ], [ 110.6298807, -6.57444 ], [ 110.6299008, -6.5745426 ], [ 110.6299478, -6.5746732 ], [ 110.6299853, -6.5747385 ], [ 110.6300135, -6.5748411 ], [ 110.6300202, -6.5749197 ], [ 110.630039, -6.5750009 ], [ 110.6300805, -6.5750782 ], [ 110.6301409, -6.5751595 ], [ 110.6302723, -6.5753074 ], [ 110.6304722, -6.5755192 ], [ 110.6306049, -6.5756817 ], [ 110.6306948, -6.5758043 ], [ 110.630727, -6.5758896 ], [ 110.630739, -6.5760188 ], [ 110.6307457, -6.5761427 ], [ 110.6307404, -6.5762466 ], [ 110.6307457, -6.5763385 ], [ 110.6307404, -6.5764611 ], [ 110.6307538, -6.5766197 ], [ 110.6307712, -6.5767529 ], [ 110.630798, -6.5769021 ], [ 110.6308047, -6.5769714 ], [ 110.6308121, -6.577026 ], [ 110.6308275, -6.577071 ], [ 110.6308398, -6.577093 ], [ 110.6308517, -6.5771059 ], [ 110.6308614, -6.5771133 ], [ 110.6311975, -6.5769015 ], [ 110.6312245, -6.5769437 ], [ 110.6312041, -6.5769566 ], [ 110.6311903, -6.5769351 ], [ 110.6308785, -6.5771323 ], [ 110.6309013, -6.5771452 ], [ 110.6309471, -6.5771766 ], [ 110.6309885, -6.5772092 ], [ 110.6310254, -6.5772418 ], [ 110.6310656, -6.5772851 ], [ 110.6310958, -6.5773298 ], [ 110.6311259, -6.5773837 ], [ 110.6311508, -6.5774457 ], [ 110.6311668, -6.5774896 ], [ 110.6311702, -6.5775296 ], [ 110.6311655, -6.5775769 ], [ 110.6311541, -6.5776155 ], [ 110.631134, -6.5776455 ], [ 110.6311206, -6.5776668 ], [ 110.6310984, -6.5776835 ], [ 110.6310783, -6.5776881 ], [ 110.6310596, -6.5776835 ], [ 110.6310502, -6.5776748 ], [ 110.6310368, -6.5776628 ], [ 110.6310113, -6.5776495 ], [ 110.6309731, -6.5776402 ], [ 110.6309395, -6.577633 ], [ 110.6309204, -6.5776365 ], [ 110.6309023, -6.5776415 ], [ 110.6308731, -6.5776462 ], [ 110.6308068, -6.5776648 ], [ 110.630676, -6.5776948 ], [ 110.6305285, -6.5777388 ], [ 110.6303139, -6.5778467 ], [ 110.63022, -6.577892 ], [ 110.6301235, -6.5779479 ], [ 110.6300752, -6.5780066 ], [ 110.6300403, -6.5780572 ], [ 110.6299813, -6.5780918 ], [ 110.6298834, -6.5781012 ], [ 110.629752, -6.5780838 ], [ 110.6295374, -6.5780012 ], [ 110.629296, -6.577892 ], [ 110.6291163, -6.57782 ], [ 110.62895, -6.5777667 ], [ 110.6288159, -6.5777215 ], [ 110.6287059, -6.5776655 ], [ 110.6285718, -6.5775802 ], [ 110.628435, -6.577455 ], [ 110.6283036, -6.5773031 ], [ 110.6281963, -6.5771352 ], [ 110.6281346, -6.5770473 ], [ 110.6280206, -6.5768808 ], [ 110.6278999, -6.5767582 ], [ 110.6277819, -6.576641 ], [ 110.6275869, -6.5765028 ], [ 110.6273755, -6.5763692 ], [ 110.6271851, -6.5762986 ], [ 110.6270161, -6.5762386 ], [ 110.6268699, -6.576176 ], [ 110.626709, -6.5760921 ], [ 110.6266084, -6.5760348 ], [ 110.6265186, -6.5759842 ], [ 110.6264488, -6.5759642 ], [ 110.6263858, -6.5759655 ], [ 110.6263134, -6.5759802 ], [ 110.6262584, -6.5759775 ], [ 110.6261793, -6.5759389 ], [ 110.6261243, -6.5759016 ], [ 110.6260827, -6.5758603 ], [ 110.6260559, -6.575815 ], [ 110.6260378, -6.575781 ], [ 110.626015, -6.575765 ], [ 110.6259895, -6.5757617 ], [ 110.6259499, -6.575767 ], [ 110.6259044, -6.5757837 ], [ 110.6258601, -6.575811 ], [ 110.6257233, -6.5758603 ], [ 110.6256562, -6.5758789 ], [ 110.6255738, -6.5758703 ], [ 110.6255074, -6.5758416 ], [ 110.6254132, -6.5757651 ], [ 110.6254057, -6.5757567 ] ] } },
{ "type": "Feature", "properties": { "FID": 704893 }, "geometry": { "type": "LineString", "coordinates": [ [ 110.6298861, -6.685672 ], [ 110.629921, -6.6854403 ], [ 110.6299746, -6.6853071 ], [ 110.6300443, -6.6851765 ], [ 110.6304064, -6.6846464 ], [ 110.6308544, -6.6839777 ], [ 110.631997, -6.6821609 ], [ 110.6325334, -6.6812658 ], [ 110.6337136, -6.6794143 ], [ 110.6337833, -6.6792412 ], [ 110.6339711, -6.6788522 ], [ 110.6340784, -6.6786444 ], [ 110.6341065, -6.6785765 ], [ 110.634132, -6.6784939 ], [ 110.6341454, -6.6783567 ], [ 110.6341414, -6.6782661 ], [ 110.6341521, -6.6781249 ], [ 110.6341548, -6.6778878 ], [ 110.6340449, -6.6778013 ], [ 110.6337069, -6.6775122 ], [ 110.6338651, -6.6773204 ], [ 110.6341347, -6.6769235 ], [ 110.6343627, -6.6765505 ], [ 110.6351808, -6.6751679 ], [ 110.6357065, -6.6743713 ], [ 110.6362161, -6.6735428 ], [ 110.6370583, -6.6721975 ], [ 110.6377396, -6.6711452 ], [ 110.6383297, -6.6702154 ], [ 110.6388956, -6.6693869 ], [ 110.6394562, -6.6685451 ], [ 110.6399095, -6.6678204 ], [ 110.6401241, -6.6674341 ], [ 110.6402528, -6.6671731 ], [ 110.6403038, -6.6670132 ], [ 110.6403118, -6.6669386 ], [ 110.6403145, -6.6668374 ], [ 110.6402636, -6.6666589 ], [ 110.6402354, -6.666595 ], [ 110.64023, -6.6665617 ], [ 110.6402421, -6.6665284 ], [ 110.6403172, -6.6664631 ], [ 110.6403346, -6.6664338 ], [ 110.6403695, -6.6662859 ], [ 110.6404138, -6.6661647 ], [ 110.6408161, -6.6654201 ], [ 110.6409743, -6.665171 ], [ 110.6410092, -6.665135 ], [ 110.6410521, -6.6651097 ], [ 110.6411085, -6.6651031 ], [ 110.641197, -6.6651057 ], [ 110.6412452, -6.6650991 ], [ 110.6412908, -6.6650791 ], [ 110.6413405, -6.6650365 ], [ 110.6413968, -6.6649579 ], [ 110.6416717, -6.664461 ], [ 110.6420231, -6.6636192 ], [ 110.6420901, -6.6633501 ], [ 110.6421277, -6.6631237 ], [ 110.6421626, -6.6629878 ], [ 110.6422833, -6.6627267 ], [ 110.6425059, -6.6620554 ], [ 110.6427044, -6.6615705 ], [ 110.643037, -6.6607233 ], [ 110.6431738, -6.6605555 ], [ 110.6432113, -6.6603104 ], [ 110.6432408, -6.6599853 ], [ 110.6434232, -6.6595618 ], [ 110.6436271, -6.6590769 ], [ 110.6434232, -6.6588291 ], [ 110.6436002, -6.6583922 ], [ 110.6438846, -6.6583496 ], [ 110.6440428, -6.657958 ], [ 110.6438791, -6.6578833 ], [ 110.6442118, -6.6570202 ], [ 110.6443941, -6.6565407 ], [ 110.6447643, -6.6557308 ], [ 110.6450701, -6.6547237 ], [ 110.6454831, -6.6533597 ], [ 110.6456253, -6.6527975 ], [ 110.6458613, -6.6521581 ], [ 110.6461134, -6.6514202 ], [ 110.6463361, -6.6505677 ], [ 110.6466097, -6.6497604 ], [ 110.6467652, -6.6489318 ], [ 110.6471997, -6.647701 ], [ 110.6471247, -6.6470562 ], [ 110.6470415, -6.6464409 ], [ 110.6468483, -6.6460252 ], [ 110.6466955, -6.6456096 ], [ 110.646556, -6.64525 ], [ 110.6463629, -6.6450262 ], [ 110.6463173, -6.6446105 ], [ 110.6462583, -6.644512 ], [ 110.6461993, -6.6444374 ], [ 110.6461188, -6.6443654 ], [ 110.6460437, -6.6443308 ], [ 110.6458063, -6.6442923 ], [ 110.645462, -6.6443141 ], [ 110.6447321, -6.6444454 ], [ 110.6445309, -6.643441 ], [ 110.6445309, -6.6429827 ], [ 110.6445122, -6.642719 ], [ 110.6444746, -6.6425218 ], [ 110.6444424, -6.6424046 ], [ 110.6444022, -6.6423326 ], [ 110.6441876, -6.6421648 ], [ 110.6441367, -6.6420929 ], [ 110.6441125, -6.6420316 ], [ 110.6441152, -6.6419437 ], [ 110.6441501, -6.6418105 ], [ 110.6441501, -6.6416986 ], [ 110.6441206, -6.641552 ], [ 110.644075, -6.6414215 ], [ 110.6439006, -6.6410645 ], [ 110.6435975, -6.6405689 ], [ 110.6434688, -6.6403851 ], [ 110.6433776, -6.6402919 ], [ 110.6432623, -6.6402173 ], [ 110.6431483, -6.640188 ], [ 110.6430759, -6.6401893 ], [ 110.6429967, -6.6402026 ], [ 110.6429136, -6.6402039 ], [ 110.6428412, -6.6402026 ], [ 110.6427674, -6.640188 ], [ 110.642695, -6.6401547 ], [ 110.6424817, -6.6400081 ], [ 110.6423382, -6.6399189 ], [ 110.6422591, -6.6398536 ], [ 110.6422202, -6.639811 ], [ 110.6421666, -6.6397297 ], [ 110.6420888, -6.6395779 ], [ 110.6419788, -6.639398 ], [ 110.6415711, -6.6390157 ], [ 110.6414182, -6.6391289 ], [ 110.6413069, -6.639061 ], [ 110.6411795, -6.6391995 ], [ 110.6411594, -6.6391569 ], [ 110.6411071, -6.639017 ], [ 110.6410468, -6.6388066 ], [ 110.6409878, -6.6386321 ], [ 110.6409113, -6.6384682 ], [ 110.6408603, -6.6384229 ], [ 110.6407973, -6.6383976 ], [ 110.6407115, -6.6383736 ], [ 110.6406632, -6.6383496 ], [ 110.6406176, -6.638311 ], [ 110.6405425, -6.6382191 ], [ 110.6404352, -6.637942 ], [ 110.6403977, -6.6377955 ], [ 110.6403896, -6.6376063 ], [ 110.6403963, -6.6374665 ], [ 110.6404111, -6.6373519 ], [ 110.6404567, -6.6371281 ], [ 110.6405237, -6.6368923 ], [ 110.6405345, -6.6368177 ], [ 110.6405237, -6.6365659 ], [ 110.6404553, -6.6360398 ], [ 110.6404379, -6.6359838 ], [ 110.6403977, -6.6359265 ], [ 110.640344, -6.6358932 ], [ 110.6402864, -6.6358679 ], [ 110.6400812, -6.6358013 ], [ 110.6401206, -6.6356427 ], [ 110.6401429, -6.6354789 ], [ 110.6401509, -6.635363 ], [ 110.6401402, -6.6349714 ], [ 110.6401388, -6.6343799 ], [ 110.640061, -6.6343773 ], [ 110.6400463, -6.6341561 ], [ 110.6400503, -6.6338351 ], [ 110.6396627, -6.6337378 ], [ 110.6396306, -6.6334048 ], [ 110.6395662, -6.6331144 ], [ 110.6394643, -6.6328213 ], [ 110.6392618, -6.632459 ], [ 110.6392014, -6.6323618 ], [ 110.6390378, -6.6321393 ], [ 110.6389117, -6.6319381 ], [ 110.6388675, -6.6318862 ], [ 110.6388018, -6.6318262 ], [ 110.6387293, -6.6317796 ], [ 110.6382586, -6.6315398 ], [ 110.6380762, -6.6315705 ], [ 110.6379595, -6.6314679 ], [ 110.6378818, -6.631388 ], [ 110.6377155, -6.6311642 ], [ 110.6376564, -6.6310363 ], [ 110.6376243, -6.6309217 ], [ 110.6376135, -6.6307885 ], [ 110.637635, -6.630594 ], [ 110.637635, -6.6304288 ], [ 110.6376484, -6.6302716 ], [ 110.6376404, -6.6301837 ], [ 110.6376833, -6.6296988 ], [ 110.6377476, -6.6292725 ], [ 110.6377611, -6.62915 ], [ 110.6377611, -6.6289981 ], [ 110.637753, -6.6288276 ], [ 110.6377691, -6.6284626 ], [ 110.6377986, -6.6282015 ], [ 110.6378308, -6.6280177 ], [ 110.6378764, -6.6275408 ], [ 110.6378898, -6.6272344 ], [ 110.6379059, -6.6270985 ], [ 110.6380239, -6.6266536 ], [ 110.6382009, -6.6260994 ], [ 110.6382894, -6.6258543 ], [ 110.6383538, -6.6256225 ], [ 110.6384718, -6.6251562 ], [ 110.6386623, -6.6244342 ], [ 110.638724, -6.6239946 ], [ 110.6387374, -6.6238374 ], [ 110.6387025, -6.6233818 ], [ 110.6386328, -6.6226038 ], [ 110.6385255, -6.6218285 ], [ 110.6383592, -6.6210479 ], [ 110.6383377, -6.6208534 ], [ 110.6383216, -6.6199182 ], [ 110.638268, -6.6194066 ], [ 110.6382894, -6.6187219 ], [ 110.6383163, -6.6185807 ], [ 110.6383753, -6.6184341 ], [ 110.6384718, -6.6183222 ], [ 110.6386247, -6.6181517 ], [ 110.639247, -6.6175256 ], [ 110.6393704, -6.6174297 ], [ 110.6394428, -6.6173924 ], [ 110.639534, -6.6173631 ], [ 110.6398424, -6.6173311 ], [ 110.6407544, -6.6180984 ], [ 110.6410749, -6.6181517 ], [ 110.6411822, -6.6181797 ], [ 110.6413297, -6.6182716 ], [ 110.6414209, -6.6183023 ], [ 110.6415497, -6.6183382 ], [ 110.6416704, -6.6183462 ], [ 110.6424388, -6.6183542 ], [ 110.6427821, -6.6183942 ], [ 110.6430155, -6.6184341 ], [ 110.6433588, -6.6185034 ], [ 110.6436083, -6.6185434 ], [ 110.6438684, -6.6185594 ], [ 110.6442386, -6.6185487 ], [ 110.644649, -6.6184981 ], [ 110.6452122, -6.6183782 ], [ 110.6454858, -6.6183009 ], [ 110.6457165, -6.6182077 ], [ 110.6460062, -6.6180665 ], [ 110.6463066, -6.6178773 ], [ 110.6466606, -6.6175523 ], [ 110.6469208, -6.6172885 ], [ 110.6471032, -6.6170594 ], [ 110.6473044, -6.6166943 ], [ 110.6476906, -6.6160522 ], [ 110.6481037, -6.6153808 ], [ 110.648734, -6.6144589 ], [ 110.6488091, -6.6143617 ], [ 110.6488533, -6.6142911 ], [ 110.6489445, -6.6141019 ], [ 110.6490258, -6.613993 ], [ 110.6490341, -6.6139849 ], [ 110.6490469, -6.6139781 ], [ 110.6491189, -6.6139251 ], [ 110.649206, -6.6138701 ], [ 110.6494515, -6.6137316 ], [ 110.6495011, -6.6136916 ], [ 110.6496124, -6.6135864 ], [ 110.6499906, -6.6132027 ], [ 110.6501958, -6.6129842 ], [ 110.6504197, -6.6127551 ], [ 110.650633, -6.6125113 ], [ 110.6511775, -6.6118612 ], [ 110.6514403, -6.6116027 ], [ 110.65162, -6.6114056 ], [ 110.6519258, -6.6110459 ], [ 110.6521994, -6.6107102 ], [ 110.6525105, -6.6103079 ], [ 110.6528699, -6.6098256 ], [ 110.6530845, -6.6094979 ], [ 110.6531998, -6.6092794 ], [ 110.6532884, -6.6090743 ], [ 110.6534573, -6.6086506 ], [ 110.6537309, -6.6079286 ], [ 110.6539589, -6.6072811 ], [ 110.6540555, -6.606988 ], [ 110.654203, -6.6064259 ], [ 110.6543934, -6.6057384 ], [ 110.6544819, -6.6052935 ], [ 110.654726, -6.6036309 ], [ 110.6547797, -6.6030421 ], [ 110.654836, -6.6021974 ], [ 110.6547663, -6.6010091 ], [ 110.6547636, -6.6008945 ], [ 110.6544404, -6.6008599 ], [ 110.6542754, -6.6008479 ], [ 110.6543197, -6.6005082 ], [ 110.6543465, -6.6005055 ], [ 110.6543559, -6.6002604 ], [ 110.6543143, -6.6002497 ], [ 110.6543224, -6.6000779 ], [ 110.6543478, -6.6000726 ], [ 110.6543814, -6.5997382 ], [ 110.6543452, -6.5997248 ], [ 110.6543572, -6.599589 ], [ 110.6544149, -6.5995876 ], [ 110.6544216, -6.5995263 ], [ 110.6544203, -6.5994704 ], [ 110.6543988, -6.5993611 ], [ 110.6543814, -6.5992253 ], [ 110.6543787, -6.5991547 ], [ 110.6543948, -6.5990521 ], [ 110.6544618, -6.5989029 ], [ 110.654549, -6.598791 ], [ 110.6545839, -6.598727 ], [ 110.6547435, -6.598298 ], [ 110.6548293, -6.5981288 ], [ 110.6548588, -6.5979716 ], [ 110.6549057, -6.5975587 ], [ 110.6549165, -6.5974308 ], [ 110.6549326, -6.5971257 ], [ 110.6550144, -6.597135 ], [ 110.655127, -6.5971617 ], [ 110.6553215, -6.597139 ], [ 110.655469, -6.5971816 ], [ 110.6555535, -6.5970657 ], [ 110.6556205, -6.5969418 ], [ 110.6554402, -6.5967333 ], [ 110.6553785, -6.5966341 ], [ 110.6552397, -6.5966754 ], [ 110.6551994, -6.5964103 ], [ 110.6551793, -6.5960905 ], [ 110.6551391, -6.5951993 ], [ 110.6551123, -6.5948143 ], [ 110.6550828, -6.5946051 ], [ 110.6550197, -6.5943427 ], [ 110.654958, -6.5941055 ], [ 110.6548601, -6.5937951 ], [ 110.6546134, -6.5932222 ], [ 110.6543505, -6.5927906 ], [ 110.6542929, -6.5927067 ], [ 110.6542419, -6.5926534 ], [ 110.6541842, -6.5927053 ], [ 110.6540702, -6.5926054 ], [ 110.653967, -6.5924962 ], [ 110.6536867, -6.5923257 ], [ 110.653511, -6.5922577 ], [ 110.6534278, -6.5922337 ], [ 110.6533433, -6.592327 ], [ 110.6531717, -6.5922271 ], [ 110.6530577, -6.592339 ], [ 110.6527881, -6.5922151 ], [ 110.6526285, -6.5921538 ], [ 110.6521444, -6.5920326 ], [ 110.652182, -6.591942 ], [ 110.6519298, -6.5918674 ], [ 110.6519634, -6.5917688 ], [ 110.6515449, -6.5916662 ], [ 110.6515329, -6.5917821 ], [ 110.6512928, -6.5917928 ], [ 110.6512284, -6.5920579 ], [ 110.6511091, -6.5920419 ], [ 110.6511882, -6.5916742 ], [ 110.6510742, -6.5916449 ], [ 110.6509468, -6.5916262 ], [ 110.6508636, -6.5916276 ], [ 110.6507725, -6.5917488 ], [ 110.6507631, -6.5918794 ], [ 110.6505419, -6.5918923 ], [ 110.6504184, -6.591541 ], [ 110.6502333, -6.5915463 ], [ 110.650177, -6.591537 ], [ 110.6501421, -6.5915196 ], [ 110.6501073, -6.5914877 ], [ 110.6499986, -6.5913704 ], [ 110.6499624, -6.5913491 ], [ 110.6499034, -6.5913345 ], [ 110.6498404, -6.5913371 ], [ 110.6496218, -6.5913678 ], [ 110.6493469, -6.5913798 ], [ 110.6490129, -6.5913704 ], [ 110.6489378, -6.5913584 ], [ 110.6487072, -6.5912479 ], [ 110.6482069, -6.5909321 ], [ 110.6481251, -6.5910094 ], [ 110.6477898, -6.5908069 ], [ 110.64758, -6.5906877 ], [ 110.6471206, -6.5912717 ], [ 110.6470454, -6.5913864 ], [ 110.6470185, -6.5915037 ], [ 110.6470305, -6.5915869 ], [ 110.6470347, -6.5916157 ], [ 110.647144, -6.5918082 ], [ 110.6471548, -6.5918757 ], [ 110.6472383, -6.5920229 ], [ 110.6472316, -6.5920267 ], [ 110.6472138, -6.5920368 ], [ 110.6471806, -6.5920557 ], [ 110.647132, -6.5920833 ], [ 110.646927, -6.5916494 ], [ 110.6469125, -6.5915548 ], [ 110.6469087, -6.5914704 ], [ 110.6469141, -6.5913984 ], [ 110.6469329, -6.5913291 ], [ 110.6471314, -6.5910201 ], [ 110.6471944, -6.5908922 ], [ 110.6472212, -6.5908082 ], [ 110.6472413, -6.5907163 ], [ 110.6472521, -6.5905831 ], [ 110.6472427, -6.5904725 ], [ 110.6472145, -6.5903912 ], [ 110.6471837, -6.5903366 ], [ 110.6471139, -6.5902607 ], [ 110.6466144, -6.5898838 ], [ 110.6463084, -6.5896647 ], [ 110.6462911, -6.5896517 ], [ 110.6462799, -6.5896424 ], [ 110.6459515, -6.5893911 ], [ 110.6452057, -6.5888599 ], [ 110.6443459, -6.588177 ], [ 110.6442735, -6.5881078 ], [ 110.6441849, -6.5879932 ], [ 110.6440696, -6.5878067 ], [ 110.6437638, -6.5872711 ], [ 110.6437102, -6.5871246 ], [ 110.6436887, -6.5869674 ], [ 110.6436726, -6.5867329 ], [ 110.6436056, -6.5859682 ], [ 110.6436029, -6.585779 ], [ 110.6436297, -6.5853873 ], [ 110.6436861, -6.5850169 ], [ 110.6437719, -6.5846359 ], [ 110.6438255, -6.5844228 ], [ 110.6438604, -6.5843108 ], [ 110.6439435, -6.584103 ], [ 110.6440267, -6.5839272 ], [ 110.6441125, -6.5837939 ], [ 110.6442976, -6.5835781 ], [ 110.6446436, -6.583333 ], [ 110.6448367, -6.5832344 ], [ 110.6449628, -6.5832184 ], [ 110.645062, -6.5832211 ], [ 110.6451935, -6.5832504 ], [ 110.6453879, -6.5833196 ], [ 110.6455649, -6.5834102 ], [ 110.6456494, -6.5834422 ], [ 110.6457487, -6.5834649 ], [ 110.6459793, -6.5835488 ], [ 110.6462073, -6.583658 ], [ 110.6464192, -6.5837913 ], [ 110.646548, -6.5838899 ], [ 110.6467625, -6.5841323 ], [ 110.6473044, -6.5850356 ], [ 110.6473848, -6.5851475 ], [ 110.6474398, -6.5852061 ], [ 110.6476383, -6.5853167 ], [ 110.6475699, -6.5855046 ], [ 110.6476477, -6.5856271 ], [ 110.6476866, -6.5856511 ], [ 110.6477429, -6.5856684 ], [ 110.6479789, -6.5857177 ], [ 110.64816, -6.5857457 ], [ 110.6485744, -6.5857723 ], [ 110.6487702, -6.5857817 ], [ 110.649257, -6.585795 ], [ 110.6506705, -6.585779 ], [ 110.65092, -6.5857657 ], [ 110.6510755, -6.5857523 ], [ 110.6512874, -6.5857444 ], [ 110.6515181, -6.5857204 ], [ 110.6523308, -6.5855152 ], [ 110.6527814, -6.5853367 ], [ 110.6532294, -6.5851688 ], [ 110.6536397, -6.5850702 ], [ 110.6539106, -6.5849637 ], [ 110.6544471, -6.5847372 ], [ 110.6546482, -6.5846173 ], [ 110.6549942, -6.5843961 ], [ 110.6555065, -6.5839938 ], [ 110.6556514, -6.5838472 ], [ 110.655764, -6.5837087 ], [ 110.6558445, -6.5836021 ], [ 110.6559196, -6.5834888 ], [ 110.6559659, -6.5834042 ], [ 110.655984, -6.5833703 ], [ 110.6557084, -6.5830898 ], [ 110.6557399, -6.5830599 ], [ 110.6557607, -6.5830325 ], [ 110.6560926, -6.5833023 ], [ 110.6561932, -6.5833716 ], [ 110.6563147, -6.5834407 ], [ 110.656536, -6.5831782 ], [ 110.6567927, -6.5828001 ], [ 110.656735, -6.5826349 ], [ 110.656849, -6.582459 ], [ 110.6570354, -6.5822032 ], [ 110.6575799, -6.5814944 ], [ 110.6578803, -6.5816357 ], [ 110.6582169, -6.5812826 ], [ 110.6582545, -6.5812893 ], [ 110.6585857, -6.580839 ], [ 110.659216, -6.579941 ], [ 110.6594118, -6.5796293 ], [ 110.6598303, -6.5788645 ], [ 110.6599215, -6.5787446 ], [ 110.66001, -6.5785968 ], [ 110.6599778, -6.5785355 ], [ 110.6600448, -6.5784129 ], [ 110.6604552, -6.5773218 ], [ 110.6609514, -6.5758616 ], [ 110.6612974, -6.5745719 ], [ 110.6614503, -6.5740364 ], [ 110.6615442, -6.5739165 ], [ 110.661689, -6.5737726 ], [ 110.6617078, -6.5737139 ], [ 110.6617051, -6.5736447 ], [ 110.6616971, -6.5735994 ], [ 110.6615937, -6.5734336 ], [ 110.6615188, -6.573284 ], [ 110.6614597, -6.573177 ], [ 110.6614356, -6.573161 ], [ 110.6613923, -6.5731142 ], [ 110.6612787, -6.57284 ], [ 110.6612009, -6.5725708 ], [ 110.6611124, -6.5725895 ], [ 110.6610158, -6.5721418 ], [ 110.6609622, -6.5721365 ], [ 110.6606296, -6.5707856 ], [ 110.6606054, -6.5707083 ], [ 110.6605598, -6.5705884 ], [ 110.6604981, -6.5704898 ], [ 110.660466, -6.5704259 ], [ 110.6604418, -6.5703406 ], [ 110.6602085, -6.5696798 ], [ 110.6601039, -6.5694506 ], [ 110.6599724, -6.5694186 ], [ 110.659833, -6.5691042 ], [ 110.6595942, -6.5685367 ], [ 110.6595567, -6.5684647 ], [ 110.6595138, -6.5684247 ], [ 110.6594682, -6.5684034 ], [ 110.6594159, -6.5684048 ], [ 110.6593502, -6.5684234 ], [ 110.6592965, -6.5684334 ], [ 110.6592663, -6.5684334 ], [ 110.6592362, -6.5684267 ], [ 110.6591396, -6.5683914 ], [ 110.6591101, -6.5683635 ], [ 110.6590779, -6.5683062 ], [ 110.65898, -6.568057 ], [ 110.6589384, -6.5679917 ], [ 110.6589062, -6.5679624 ], [ 110.6588727, -6.5679491 ], [ 110.6588231, -6.5679331 ], [ 110.6587172, -6.5679384 ], [ 110.6585965, -6.5679531 ], [ 110.6583215, -6.5679424 ], [ 110.6581244, -6.5679118 ], [ 110.6580734, -6.5678932 ], [ 110.6577636, -6.5676946 ], [ 110.6576027, -6.5676147 ], [ 110.6575209, -6.5675854 ], [ 110.6574471, -6.5675654 ], [ 110.65736, -6.5675587 ], [ 110.6572956, -6.5675647 ], [ 110.6572198, -6.5675601 ], [ 110.657193, -6.5675428 ], [ 110.6570703, -6.5674228 ], [ 110.6569469, -6.567239 ], [ 110.6567994, -6.5669805 ], [ 110.6567377, -6.5669086 ], [ 110.6566411, -6.566842 ], [ 110.6564587, -6.566762 ], [ 110.656338, -6.5667221 ], [ 110.6562602, -6.5666874 ], [ 110.656212, -6.5666288 ], [ 110.6556085, -6.5656855 ], [ 110.6553537, -6.5653138 ], [ 110.6552598, -6.5651393 ], [ 110.6551579, -6.5648808 ], [ 110.6550747, -6.5646263 ], [ 110.6550372, -6.5644904 ], [ 110.6549875, -6.5643599 ], [ 110.654844, -6.5641733 ], [ 110.6547703, -6.5640668 ], [ 110.6548722, -6.5639815 ], [ 110.655017, -6.5638403 ], [ 110.6549395, -6.5637132 ], [ 110.6546858, -6.5636338 ], [ 110.6545007, -6.5635858 ], [ 110.6543103, -6.5638762 ], [ 110.6543894, -6.5639882 ], [ 110.6541829, -6.5641933 ], [ 110.6541628, -6.5640961 ], [ 110.6541453, -6.5640468 ], [ 110.6541118, -6.5639855 ], [ 110.653802, -6.5636537 ], [ 110.6536867, -6.5635618 ], [ 110.6536035, -6.5635112 ], [ 110.6534681, -6.5634539 ], [ 110.6533004, -6.5634019 ], [ 110.653228, -6.56337 ], [ 110.6531811, -6.5633353 ], [ 110.6531341, -6.5632687 ], [ 110.6529906, -6.5630009 ], [ 110.6529316, -6.5629503 ], [ 110.6528659, -6.5629063 ], [ 110.6527385, -6.5628397 ], [ 110.6525888, -6.5627702 ], [ 110.6521296, -6.5625053 ], [ 110.6519178, -6.5623601 ], [ 110.6518105, -6.5622641 ], [ 110.6517273, -6.5621442 ], [ 110.6516629, -6.562035 ], [ 110.6516147, -6.5619737 ], [ 110.6515208, -6.5619044 ], [ 110.6514537, -6.5618751 ], [ 110.6513599, -6.5618591 ], [ 110.6512687, -6.5618378 ], [ 110.6509629, -6.5616819 ], [ 110.6509227, -6.5616579 ], [ 110.6508972, -6.56163 ], [ 110.6508864, -6.5615966 ], [ 110.6508851, -6.5615513 ], [ 110.6509159, -6.5614954 ], [ 110.6509575, -6.5614381 ], [ 110.6510568, -6.5613448 ], [ 110.6513947, -6.5610477 ], [ 110.6514497, -6.5609478 ], [ 110.6514631, -6.5609038 ], [ 110.6514631, -6.5608652 ], [ 110.6514484, -6.5608279 ], [ 110.6506491, -6.5600418 ], [ 110.6506035, -6.5599779 ], [ 110.6505766, -6.5599219 ], [ 110.650523, -6.5597807 ], [ 110.6504023, -6.5596688 ], [ 110.6502146, -6.5595222 ], [ 110.6499141, -6.5592438 ], [ 110.6498122, -6.5591718 ], [ 110.6497291, -6.5591318 ], [ 110.6495963, -6.5590879 ], [ 110.6495078, -6.5590812 ], [ 110.649434, -6.5590905 ], [ 110.6493683, -6.5591185 ], [ 110.6492986, -6.5591572 ], [ 110.6492597, -6.5591625 ], [ 110.6492101, -6.5591558 ], [ 110.6490223, -6.5590079 ], [ 110.6489553, -6.5589813 ], [ 110.6486106, -6.5588934 ], [ 110.6484939, -6.5588587 ], [ 110.6483558, -6.5588094 ], [ 110.6482217, -6.5587814 ], [ 110.6480809, -6.5587735 ], [ 110.6480487, -6.5588974 ], [ 110.6480393, -6.5590826 ], [ 110.6480245, -6.5591665 ], [ 110.6479119, -6.5594876 ], [ 110.6478971, -6.5595475 ], [ 110.6478844, -6.5595742 ], [ 110.6478609, -6.5596028 ], [ 110.6478341, -6.5596162 ], [ 110.6478106, -6.5596175 ], [ 110.6477771, -6.5596062 ], [ 110.6474653, -6.559413 ], [ 110.6471434, -6.5592238 ], [ 110.647071, -6.5591678 ], [ 110.6470039, -6.5591012 ], [ 110.6469637, -6.5590319 ], [ 110.6469235, -6.5589467 ], [ 110.646842, -6.5588645 ], [ 110.6467995, -6.5588252 ], [ 110.6467385, -6.55878 ], [ 110.6465837, -6.5586564 ], [ 110.646305, -6.5584313 ], [ 110.6459516, -6.5590031 ], [ 110.6454808, -6.5585892 ], [ 110.6456189, -6.558293 ], [ 110.6457492, -6.5580349 ], [ 110.645396, -6.5577182 ], [ 110.6453021, -6.5576583 ], [ 110.6452159, -6.557652 ], [ 110.6451425, -6.5576506 ], [ 110.6450534, -6.5576559 ], [ 110.6450316, -6.5576585 ], [ 110.6450193, -6.5576662 ], [ 110.6450122, -6.5576854 ], [ 110.6450063, -6.5577059 ], [ 110.6449993, -6.5577208 ], [ 110.6449835, -6.5577298 ], [ 110.6448652, -6.5577384 ], [ 110.6446138, -6.5577927 ], [ 110.6445327, -6.5577901 ], [ 110.6444636, -6.5577662 ], [ 110.6444106, -6.5577307 ], [ 110.6443822, -6.5576777 ], [ 110.6443755, -6.5576198 ], [ 110.6443744, -6.5575342 ], [ 110.6443646, -6.5574036 ], [ 110.6443377, -6.5572277 ], [ 110.6443193, -6.5571023 ], [ 110.6442934, -6.5569854 ], [ 110.6442788, -6.5568629 ], [ 110.6442748, -6.5567553 ], [ 110.6442926, -6.5566746 ], [ 110.6443357, -6.556594 ], [ 110.6444381, -6.5564898 ], [ 110.6445673, -6.5563869 ], [ 110.6446646, -6.5563267 ], [ 110.644762, -6.5562487 ], [ 110.644806, -6.5561722 ], [ 110.6448332, -6.5560795 ], [ 110.6447882, -6.5560689 ], [ 110.6447311, -6.556046 ], [ 110.6446976, -6.5559996 ], [ 110.6446966, -6.5559533 ], [ 110.6447214, -6.5558437 ], [ 110.6447643, -6.5557144 ], [ 110.644826, -6.555586 ], [ 110.644912, -6.5555059 ], [ 110.6449699, -6.5554224 ], [ 110.6450735, -6.5552085 ], [ 110.6452605, -6.5548977 ], [ 110.6453262, -6.5548098 ], [ 110.6453906, -6.5547525 ], [ 110.6455462, -6.5546379 ], [ 110.6455998, -6.5545793 ], [ 110.645915, -6.554009 ], [ 110.6460679, -6.5537959 ], [ 110.6461912, -6.55366 ], [ 110.6463629, -6.553532 ], [ 110.646489, -6.5534628 ], [ 110.6466445, -6.5534041 ], [ 110.646776, -6.5533882 ], [ 110.6468993, -6.5533882 ], [ 110.6470013, -6.5534121 ], [ 110.6471032, -6.5534548 ], [ 110.6472373, -6.553564 ], [ 110.6475458, -6.5537932 ], [ 110.647696, -6.5538971 ], [ 110.647873, -6.5539984 ], [ 110.6480581, -6.5540703 ], [ 110.648286, -6.5541423 ], [ 110.6485677, -6.5542115 ], [ 110.648742, -6.5542329 ], [ 110.6490719, -6.5542355 ], [ 110.6497049, -6.5542728 ], [ 110.6499919, -6.5543315 ], [ 110.6500845, -6.5542848 ], [ 110.650177, -6.5542462 ], [ 110.6502628, -6.5542435 ], [ 110.6503125, -6.5542542 ], [ 110.6503674, -6.5542822 ], [ 110.6504184, -6.5543328 ], [ 110.6504747, -6.5544074 ], [ 110.6504962, -6.5544554 ], [ 110.6505243, -6.5545686 ], [ 110.6508449, -6.5546219 ], [ 110.651215, -6.5546139 ], [ 110.6514618, -6.5545819 ], [ 110.6518587, -6.5544807 ], [ 110.6522557, -6.5543661 ], [ 110.652599, -6.5542195 ], [ 110.6529182, -6.5540357 ], [ 110.6531382, -6.5538811 ], [ 110.6533849, -6.5536679 ], [ 110.6536746, -6.5533482 ], [ 110.6538409, -6.5531057 ], [ 110.6539214, -6.5529245 ], [ 110.6539723, -6.5527699 ], [ 110.6540179, -6.5525275 ], [ 110.6540796, -6.5520025 ], [ 110.6541762, -6.5512671 ], [ 110.6541896, -6.5509606 ], [ 110.6541896, -6.550489 ], [ 110.6541923, -6.550397 ], [ 110.6542017, -6.5503411 ], [ 110.6542151, -6.5503011 ], [ 110.6542593, -6.5502105 ], [ 110.6545275, -6.5498121 ], [ 110.6549198, -6.5490867 ], [ 110.6555253, -6.5480827 ], [ 110.6556272, -6.5478962 ], [ 110.6556863, -6.5477044 ], [ 110.6557104, -6.5475951 ], [ 110.6557238, -6.5474725 ], [ 110.6557292, -6.5472647 ], [ 110.6557104, -6.5463906 ], [ 110.655579, -6.5455353 ], [ 110.6555656, -6.5452235 ], [ 110.6555656, -6.5450876 ], [ 110.655587, -6.544941 ], [ 110.655705, -6.5445786 ], [ 110.6557614, -6.5444827 ], [ 110.6558767, -6.5443548 ], [ 110.6560108, -6.5442669 ], [ 110.6561342, -6.5442136 ], [ 110.6562737, -6.5441949 ], [ 110.6563756, -6.5441949 ], [ 110.6564561, -6.5442296 ], [ 110.6565472, -6.5442908 ], [ 110.6565982, -6.5443415 ], [ 110.6566384, -6.5444134 ], [ 110.6566787, -6.5445573 ], [ 110.6567457, -6.5447119 ], [ 110.6568369, -6.5448531 ], [ 110.6569549, -6.544997 ], [ 110.6573117, -6.5453514 ], [ 110.6574029, -6.5453967 ], [ 110.6575531, -6.54545 ], [ 110.658001, -6.5455326 ], [ 110.6583282, -6.5456365 ], [ 110.6585938, -6.5456845 ], [ 110.6588459, -6.5457085 ], [ 110.6590524, -6.5457111 ], [ 110.6592804, -6.5456898 ], [ 110.6598893, -6.5455832 ], [ 110.6607717, -6.5453567 ], [ 110.6610265, -6.5452661 ], [ 110.6612679, -6.5451622 ], [ 110.6617963, -6.5448371 ], [ 110.6622818, -6.5444827 ], [ 110.663285, -6.5436939 ], [ 110.663757, -6.5432463 ], [ 110.6642693, -6.5427107 ], [ 110.6648004, -6.5420924 ], [ 110.6651759, -6.5416128 ], [ 110.6653878, -6.5412184 ], [ 110.6654978, -6.5410585 ], [ 110.6655876, -6.5409626 ], [ 110.6656681, -6.5409026 ], [ 110.6657204, -6.5408293 ], [ 110.6657942, -6.5407268 ], [ 110.665762, -6.5406801 ], [ 110.6656949, -6.5406028 ], [ 110.6656399, -6.5405602 ], [ 110.6654361, -6.5404403 ], [ 110.6655005, -6.5397075 ], [ 110.6655219, -6.5383298 ], [ 110.6655407, -6.5380447 ], [ 110.6655461, -6.5378581 ], [ 110.6655461, -6.5376876 ], [ 110.66553, -6.5374744 ], [ 110.6654884, -6.5372679 ], [ 110.6654777, -6.5371866 ], [ 110.6654897, -6.5369588 ], [ 110.6654803, -6.5364791 ], [ 110.6655098, -6.5364751 ], [ 110.6655045, -6.536242 ], [ 110.6654763, -6.5362406 ], [ 110.6654723, -6.536126 ], [ 110.6655018, -6.5361021 ], [ 110.6655326, -6.5352667 ], [ 110.6655286, -6.5351734 ], [ 110.6655166, -6.5350908 ], [ 110.6655018, -6.5350521 ], [ 110.6654629, -6.5350068 ], [ 110.6652738, -6.5348469 ], [ 110.6652483, -6.5348003 ], [ 110.6652296, -6.5347497 ], [ 110.6652027, -6.5346644 ], [ 110.6651276, -6.5343553 ], [ 110.665023, -6.5339862 ], [ 110.6649721, -6.5336291 ], [ 110.6649694, -6.5335052 ], [ 110.6649747, -6.533404 ], [ 110.6649922, -6.5333054 ], [ 110.6650311, -6.5332094 ], [ 110.6650887, -6.5330988 ], [ 110.6652001, -6.5329296 ], [ 110.6652845, -6.5327911 ], [ 110.6654066, -6.5324846 ], [ 110.6657177, -6.5326045 ], [ 110.666053, -6.5327098 ], [ 110.6664848, -6.532899 ], [ 110.6667584, -6.5330296 ], [ 110.6668872, -6.5330749 ], [ 110.6670642, -6.5330988 ], [ 110.6678018, -6.5331655 ], [ 110.6680244, -6.5331921 ], [ 110.6682926, -6.5332321 ], [ 110.6684053, -6.5332601 ], [ 110.6684415, -6.5332787 ], [ 110.6684858, -6.533312 ], [ 110.6685086, -6.533356 ], [ 110.6685045, -6.5334639 ], [ 110.6684858, -6.5336451 ], [ 110.6685072, -6.5337331 ], [ 110.6685394, -6.533805 ], [ 110.6687647, -6.5345618 ], [ 110.6688264, -6.5346498 ], [ 110.6689203, -6.5347643 ], [ 110.6690463, -6.5348363 ], [ 110.6693977, -6.5349988 ], [ 110.669859, -6.5353026 ], [ 110.6697974, -6.5354892 ], [ 110.6697974, -6.5355691 ], [ 110.6698215, -6.5356464 ], [ 110.6698698, -6.5357157 ], [ 110.6699932, -6.5357823 ], [ 110.6702641, -6.5358862 ], [ 110.670999, -6.5361234 ], [ 110.6711599, -6.5361607 ], [ 110.6713745, -6.5361873 ], [ 110.6718063, -6.536206 ], [ 110.6722784, -6.536198 ], [ 110.6729382, -6.536118 ], [ 110.6735551, -6.5359528 ], [ 110.6743772, -6.5357026 ], [ 110.6750542, -6.5353747 ], [ 110.6754005, -6.5351481 ], [ 110.6759823, -6.5347853 ], [ 110.6772439, -6.5338573 ], [ 110.678439, -6.5326137 ], [ 110.6796663, -6.5308957 ], [ 110.6805697, -6.5294249 ], [ 110.6809974, -6.5285819 ], [ 110.6810999, -6.5282878 ], [ 110.6811455, -6.5281105 ], [ 110.6812766, -6.527651 ], [ 110.6813583, -6.5274354 ], [ 110.681406, -6.5272563 ], [ 110.6814194, -6.5271137 ], [ 110.6814623, -6.5269804 ], [ 110.6815669, -6.5266953 ], [ 110.6822196, -6.5249844 ], [ 110.6823501, -6.5245688 ], [ 110.6824762, -6.5241264 ], [ 110.6825995, -6.5236041 ], [ 110.6828892, -6.5222823 ], [ 110.6829697, -6.521824 ], [ 110.6830341, -6.5214189 ], [ 110.6832004, -6.5197774 ], [ 110.6832164, -6.5191431 ], [ 110.6832433, -6.5185515 ], [ 110.6832325, -6.5182531 ], [ 110.6832004, -6.5179466 ], [ 110.6831789, -6.5175389 ], [ 110.6831709, -6.5172537 ], [ 110.6831279, -6.5169579 ], [ 110.683085, -6.5167687 ], [ 110.6830743, -6.5166675 ], [ 110.6830502, -6.5161745 ], [ 110.683018, -6.5159826 ], [ 110.6829724, -6.5157881 ], [ 110.6828597, -6.5154496 ], [ 110.6827122, -6.5147807 ], [ 110.682562, -6.5142664 ], [ 110.6824815, -6.5140132 ], [ 110.6823957, -6.513872 ], [ 110.6822643, -6.5137174 ], [ 110.6821221, -6.5135895 ], [ 110.6820041, -6.5135149 ], [ 110.6818163, -6.5134456 ], [ 110.6814703, -6.5133577 ], [ 110.6813121, -6.5132964 ], [ 110.681237, -6.5132458 ], [ 110.6809929, -6.5129846 ], [ 110.6807488, -6.5127101 ], [ 110.6805664, -6.5125755 ], [ 110.6804404, -6.5125076 ], [ 110.6802204, -6.5124063 ], [ 110.6799361, -6.512305 ], [ 110.6796974, -6.5122091 ], [ 110.6790858, -6.5119053 ], [ 110.678874, -6.511812 ], [ 110.678705, -6.5117721 ], [ 110.678426, -6.5117641 ], [ 110.6783053, -6.5117907 ], [ 110.6781793, -6.5118467 ], [ 110.6779727, -6.5120119 ], [ 110.6778467, -6.5120945 ], [ 110.6777072, -6.5121718 ], [ 110.6772083, -6.5124783 ], [ 110.6770152, -6.5125769 ], [ 110.676806, -6.5126621 ], [ 110.6766397, -6.5126781 ], [ 110.676527, -6.5126728 ], [ 110.6763956, -6.5126248 ], [ 110.6763017, -6.5125502 ], [ 110.6760603, -6.5123743 ], [ 110.675776, -6.5121771 ], [ 110.6753844, -6.5120332 ], [ 110.6751537, -6.5119586 ], [ 110.6750035, -6.511932 ], [ 110.6748721, -6.5119533 ], [ 110.6747568, -6.5120252 ], [ 110.6746817, -6.5121265 ], [ 110.6746227, -6.512313 ], [ 110.6745529, -6.5124996 ], [ 110.674459, -6.5126462 ], [ 110.6742847, -6.5127901 ], [ 110.6741801, -6.51283 ], [ 110.6739977, -6.512846 ], [ 110.6736758, -6.5127927 ], [ 110.6734425, -6.5127234 ], [ 110.6732574, -6.5125662 ], [ 110.6731313, -6.5124783 ], [ 110.673008, -6.512433 ] ] } },
{ "type": "Feature", "properties": { "FID": 704894 }, "geometry": { "type": "LineString", "coordinates": [ [ 110.673008, -6.512433 ], [ 110.6724822, -6.5124116 ], [ 110.6722811, -6.512385 ], [ 110.672155, -6.5123237 ], [ 110.6720853, -6.5122677 ], [ 110.6718868, -6.5120092 ], [ 110.6717554, -6.5119373 ], [ 110.6712538, -6.5117641 ], [ 110.6708756, -6.5115695 ], [ 110.6700978, -6.5111858 ], [ 110.6700253, -6.5111298 ], [ 110.6699637, -6.5110739 ], [ 110.6698537, -6.5109246 ], [ 110.6697705, -6.5108633 ], [ 110.669682, -6.5108447 ], [ 110.669497, -6.5108633 ], [ 110.6693843, -6.5109086 ], [ 110.6692851, -6.5109833 ], [ 110.6691188, -6.5111911 ], [ 110.6690209, -6.5112857 ], [ 110.6688841, -6.5113563 ], [ 110.6688304, -6.511363 ], [ 110.6687942, -6.5113523 ], [ 110.6687433, -6.511311 ], [ 110.668544, -6.5111094 ], [ 110.6680673, -6.5106715 ], [ 110.6676194, -6.5101971 ], [ 110.6674665, -6.5100639 ], [ 110.6671929, -6.5098693 ], [ 110.6667879, -6.5096108 ], [ 110.6664392, -6.509363 ], [ 110.666348, -6.5092697 ], [ 110.6662488, -6.5091205 ], [ 110.6656585, -6.5076285 ], [ 110.6654602, -6.5070472 ], [ 110.6654173, -6.5068446 ], [ 110.6653959, -6.5066474 ], [ 110.6653663, -6.506245 ], [ 110.6652993, -6.5058266 ], [ 110.6652242, -6.5055282 ], [ 110.6651679, -6.5053309 ], [ 110.6650606, -6.5050405 ], [ 110.6650445, -6.5049259 ], [ 110.6650445, -6.5048086 ], [ 110.6651035, -6.5044568 ], [ 110.6650981, -6.5043556 ], [ 110.6650713, -6.504241 ], [ 110.6650418, -6.5041717 ], [ 110.6649935, -6.5040678 ], [ 110.6649157, -6.5039772 ], [ 110.6648219, -6.5039132 ], [ 110.6646448, -6.5038572 ], [ 110.6644705, -6.5038439 ], [ 110.6641942, -6.5038786 ], [ 110.6640521, -6.5038679 ], [ 110.6640145, -6.5038519 ], [ 110.6639743, -6.5038119 ], [ 110.6639099, -6.5036734 ], [ 110.6638643, -6.5035268 ], [ 110.6638455, -6.5034335 ], [ 110.6638858, -6.503159 ], [ 110.6639448, -6.5029112 ], [ 110.6639823, -6.5026793 ], [ 110.6640574, -6.5024448 ], [ 110.6641433, -6.5022929 ], [ 110.6646904, -6.5016293 ], [ 110.6648447, -6.5014614 ], [ 110.6649332, -6.5014241 ], [ 110.6650244, -6.5014081 ], [ 110.665125, -6.5014081 ], [ 110.6651799, -6.5014241 ], [ 110.6651987, -6.5014481 ], [ 110.6651987, -6.5014748 ], [ 110.6651866, -6.5015067 ], [ 110.6651585, -6.5015454 ], [ 110.6650566, -6.5016093 ], [ 110.6648996, -6.5016746 ], [ 110.6648245, -6.5017279 ], [ 110.6646234, -6.5019251 ], [ 110.6645188, -6.5020477 ], [ 110.6644759, -6.502117 ], [ 110.6644705, -6.5021757 ], [ 110.6644785, -6.502213 ], [ 110.6645134, -6.5022343 ], [ 110.6646019, -6.5022636 ], [ 110.6647843, -6.5023355 ], [ 110.6650069, -6.5023942 ], [ 110.6651571, -6.5024182 ], [ 110.6652993, -6.5024315 ], [ 110.6654388, -6.5024075 ], [ 110.6656468, -6.5023464 ], [ 110.6658304, -6.5022529 ], [ 110.6665737, -6.5018194 ], [ 110.6670561, -6.5014828 ], [ 110.6672439, -6.5013602 ], [ 110.6675255, -6.5012269 ], [ 110.6676623, -6.501187 ], [ 110.6677401, -6.5011816 ], [ 110.667842, -6.5012216 ], [ 110.6679359, -6.5013015 ], [ 110.6679869, -6.5013842 ], [ 110.6680056, -6.5014801 ], [ 110.6680083, -6.5015574 ], [ 110.6679815, -6.501656 ], [ 110.667657, -6.502181 ], [ 110.668011, -6.5023382 ], [ 110.668121, -6.5023742 ], [ 110.6683584, -6.5023742 ], [ 110.668416, -6.5023875 ], [ 110.6687969, -6.5025861 ], [ 110.6690034, -6.5027166 ], [ 110.6691509, -6.5028019 ], [ 110.6693011, -6.5028765 ], [ 110.6694648, -6.5029218 ], [ 110.6696445, -6.5029618 ], [ 110.6700924, -6.5030124 ], [ 110.6706838, -6.5030977 ], [ 110.6707267, -6.503115 ], [ 110.6707576, -6.5031484 ], [ 110.670779, -6.5031857 ], [ 110.6708045, -6.5032523 ], [ 110.6708354, -6.5032923 ], [ 110.6708756, -6.5033176 ], [ 110.6709681, -6.5033442 ], [ 110.6711009, -6.5033682 ], [ 110.6713673, -6.5033667 ], [ 110.6716427, -6.5033456 ], [ 110.6719243, -6.5032896 ], [ 110.6721041, -6.5032336 ], [ 110.6723025, -6.5031377 ], [ 110.6725305, -6.5030098 ], [ 110.6728175, -6.5028126 ], [ 110.6730026, -6.502658 ], [ 110.673126, -6.5025381 ], [ 110.6732145, -6.5024022 ], [ 110.6732628, -6.5022556 ], [ 110.6732896, -6.5021277 ], [ 110.673303, -6.5019891 ], [ 110.6733084, -6.5014348 ], [ 110.6732895, -6.5009158 ], [ 110.6733137, -6.500662 ], [ 110.6733191, -6.5004301 ], [ 110.6732976, -6.500057 ], [ 110.6732842, -6.4999851 ], [ 110.673236, -6.4998438 ], [ 110.6731555, -6.4996466 ], [ 110.6730455, -6.4994521 ], [ 110.67267, -6.4990523 ], [ 110.6721202, -6.4987325 ], [ 110.6720244, -6.498685 ], [ 110.6719673, -6.4986459 ], [ 110.6719498, -6.4986099 ], [ 110.6719445, -6.4985593 ], [ 110.6719539, -6.4985193 ], [ 110.6719713, -6.4984887 ], [ 110.6720196, -6.4984674 ], [ 110.6722006, -6.498434 ], [ 110.6727102, -6.4982182 ], [ 110.6735095, -6.4978318 ], [ 110.6739387, -6.4975919 ], [ 110.6742257, -6.497424 ], [ 110.6745127, -6.4971975 ], [ 110.6746817, -6.4971069 ], [ 110.6747621, -6.4970642 ], [ 110.6748775, -6.4969923 ], [ 110.6752074, -6.4968484 ], [ 110.6757304, -6.4966112 ], [ 110.676114, -6.4964486 ], [ 110.6763554, -6.4963793 ], [ 110.6765324, -6.4963154 ], [ 110.6768703, -6.4962674 ], [ 110.6771493, -6.4962674 ], [ 110.6777984, -6.4962781 ], [ 110.678485, -6.4962354 ], [ 110.6789303, -6.4962354 ], [ 110.6794667, -6.4961661 ], [ 110.6799334, -6.4961395 ], [ 110.6801802, -6.4961608 ], [ 110.6805664, -6.4962088 ], [ 110.6810653, -6.4962941 ], [ 110.6818037, -6.4964842 ], [ 110.6827068, -6.4966352 ], [ 110.6839997, -6.4969123 ], [ 110.6844985, -6.4970722 ], [ 110.6848311, -6.4972002 ], [ 110.6849492, -6.4972854 ], [ 110.6850135, -6.4973707 ], [ 110.6851906, -6.4977225 ], [ 110.685263, -6.4978158 ], [ 110.6856358, -6.4982128 ], [ 110.685731, -6.4983381 ], [ 110.6859241, -6.4987072 ], [ 110.6859912, -6.4988138 ], [ 110.6860596, -6.4988858 ], [ 110.6864431, -6.4991189 ], [ 110.6865089, -6.4991762 ], [ 110.6868227, -6.4995946 ], [ 110.6869112, -6.4996719 ], [ 110.6869729, -6.4997119 ], [ 110.6870909, -6.4997652 ], [ 110.6872532, -6.4998078 ], [ 110.6876582, -6.4998491 ], [ 110.6879291, -6.4998225 ], [ 110.6882268, -6.4997719 ], [ 110.6885299, -6.4996653 ], [ 110.6891173, -6.4994174 ], [ 110.6899086, -6.4989484 ], [ 110.6903324, -6.4986472 ], [ 110.6906703, -6.4983887 ], [ 110.6910217, -6.4980876 ], [ 110.6911665, -6.4979277 ], [ 110.6913382, -6.4976212 ], [ 110.6915132, -6.4972495 ], [ 110.6915353, -6.4971648 ], [ 110.6915414, -6.4971195 ], [ 110.6915414, -6.4970816 ], [ 110.691532, -6.4970443 ], [ 110.6915152, -6.4970229 ], [ 110.6914723, -6.4969483 ], [ 110.6914334, -6.4968351 ], [ 110.691428, -6.4967538 ], [ 110.6914347, -6.4966552 ], [ 110.6915447, -6.4961661 ], [ 110.6915823, -6.4958197 ], [ 110.6916037, -6.4954546 ], [ 110.6916037, -6.4950202 ], [ 110.6916144, -6.4946657 ], [ 110.6915984, -6.4945032 ], [ 110.6915769, -6.4944099 ], [ 110.6915309, -6.4942939 ], [ 110.6914455, -6.4941461 ], [ 110.6913623, -6.4940368 ], [ 110.6911156, -6.4936904 ], [ 110.691074, -6.4936397 ], [ 110.6910297, -6.4936011 ], [ 110.6909278, -6.4935371 ], [ 110.6907725, -6.4934503 ], [ 110.6906844, -6.4933905 ], [ 110.6906556, -6.4933466 ], [ 110.6906334, -6.4932953 ], [ 110.690563, -6.4930388 ], [ 110.6904772, -6.4928562 ], [ 110.6904691, -6.4928016 ], [ 110.6904718, -6.492731 ], [ 110.6905228, -6.4923445 ], [ 110.6905469, -6.4922126 ], [ 110.6905536, -6.4921207 ], [ 110.6905442, -6.4920474 ], [ 110.6905241, -6.4919874 ], [ 110.690437, -6.4918755 ], [ 110.6902519, -6.4917409 ], [ 110.690091, -6.4916117 ], [ 110.68982, -6.4913811 ], [ 110.6897785, -6.4913398 ], [ 110.6897584, -6.4913052 ], [ 110.6897436, -6.4911866 ], [ 110.6897396, -6.4904764 ], [ 110.6897879, -6.4895303 ], [ 110.6897637, -6.4893944 ], [ 110.6896377, -6.4890639 ], [ 110.6896055, -6.4889173 ], [ 110.6895974, -6.4887707 ], [ 110.6896028, -6.4885762 ], [ 110.6896296, -6.4884776 ], [ 110.689804, -6.4881391 ], [ 110.6898871, -6.4878993 ], [ 110.6899676, -6.4877767 ], [ 110.6900641, -6.4876754 ], [ 110.6901821, -6.4875875 ], [ 110.690327, -6.4875422 ], [ 110.6905818, -6.4874862 ], [ 110.6907964, -6.4874116 ], [ 110.69096, -6.4873183 ], [ 110.6913328, -6.4870145 ], [ 110.6917673, -6.4865588 ], [ 110.6919444, -6.4863749 ], [ 110.6920892, -6.4862523 ], [ 110.6922099, -6.4862017 ], [ 110.6923333, -6.4861803 ], [ 110.693496, -6.4862683 ], [ 110.6937602, -6.4863376 ], [ 110.6938501, -6.4863562 ], [ 110.6939949, -6.4863762 ], [ 110.6940603, -6.4863995 ], [ 110.6940828, -6.4864032 ], [ 110.6940982, -6.4864009 ], [ 110.6941146, -6.4863892 ], [ 110.6941283, -6.4863739 ], [ 110.6941686, -6.4862929 ], [ 110.6941739, -6.4862623 ], [ 110.6941693, -6.486223 ], [ 110.6941599, -6.4861917 ], [ 110.6941465, -6.486175 ], [ 110.6941143, -6.4861563 ], [ 110.6940123, -6.4861364 ], [ 110.6938085, -6.4860831 ], [ 110.6937904, -6.4860704 ], [ 110.693785, -6.4860551 ], [ 110.6937857, -6.4860404 ], [ 110.6937931, -6.4860138 ], [ 110.6938179, -6.4859605 ], [ 110.6938595, -6.4859258 ], [ 110.6938997, -6.4859152 ], [ 110.6939627, -6.4859178 ], [ 110.6940673, -6.4859431 ], [ 110.6941639, -6.4859591 ], [ 110.6942363, -6.4859645 ], [ 110.6943007, -6.4859578 ], [ 110.6945997, -6.4858685 ], [ 110.694758, -6.4857939 ], [ 110.6950396, -6.4855487 ], [ 110.6951281, -6.4854315 ], [ 110.6952676, -6.4852103 ], [ 110.6953239, -6.4850104 ], [ 110.6953695, -6.4847572 ], [ 110.6954393, -6.4842988 ], [ 110.6954688, -6.484051 ], [ 110.6955036, -6.4839204 ], [ 110.6955814, -6.4837471 ], [ 110.6958765, -6.4833607 ], [ 110.6961393, -6.4830596 ], [ 110.6965148, -6.4825905 ], [ 110.6967026, -6.4823293 ], [ 110.696952, -6.4819456 ], [ 110.6971908, -6.4816364 ], [ 110.6983548, -6.4803305 ], [ 110.6986713, -6.4799974 ], [ 110.6987599, -6.4799308 ], [ 110.6988376, -6.4798935 ], [ 110.6989878, -6.4798535 ], [ 110.6993633, -6.4797709 ], [ 110.6996074, -6.4797416 ], [ 110.6997576, -6.4797149 ], [ 110.699873, -6.4796509 ], [ 110.6999668, -6.479571 ], [ 110.7000715, -6.4794511 ], [ 110.7001412, -6.4793418 ], [ 110.7001787, -6.4792165 ], [ 110.7002136, -6.4790513 ], [ 110.7002726, -6.4786302 ], [ 110.7003155, -6.478473 ], [ 110.7003665, -6.478361 ], [ 110.7004711, -6.4782065 ], [ 110.700919, -6.4776735 ], [ 110.7011202, -6.4773456 ], [ 110.7012516, -6.4771404 ], [ 110.7013562, -6.4770365 ], [ 110.7014716, -6.4769512 ], [ 110.7016513, -6.4768046 ], [ 110.7019114, -6.4765061 ], [ 110.7020402, -6.4763223 ], [ 110.7022762, -6.4758905 ], [ 110.7024023, -6.4756693 ], [ 110.7024452, -6.475552 ], [ 110.7024854, -6.4753068 ], [ 110.7025444, -6.4751283 ], [ 110.7026142, -6.4750164 ], [ 110.7028019, -6.4748698 ], [ 110.7033022, -6.4745939 ], [ 110.7035074, -6.474466 ], [ 110.7035771, -6.47441 ], [ 110.7036401, -6.4743794 ], [ 110.7036965, -6.4743634 ], [ 110.7037823, -6.4743647 ], [ 110.7039915, -6.474418 ], [ 110.7041471, -6.47445 ], [ 110.7042892, -6.4744527 ], [ 110.704359, -6.474442 ], [ 110.7044891, -6.47441 ], [ 110.7046553, -6.4743527 ], [ 110.7047144, -6.4743514 ], [ 110.7047881, -6.4743634 ], [ 110.704831, -6.4743901 ], [ 110.7048632, -6.4744274 ], [ 110.7049021, -6.474506 ], [ 110.7049611, -6.4746006 ], [ 110.7050148, -6.4746499 ], [ 110.7051167, -6.4747139 ], [ 110.7051985, -6.4747485 ], [ 110.705228, -6.4747712 ], [ 110.7053353, -6.4749444 ], [ 110.7053769, -6.4750417 ], [ 110.7054023, -6.4751336 ], [ 110.7054479, -6.4752362 ], [ 110.705523, -6.4753242 ], [ 110.7055713, -6.4753562 ], [ 110.7056411, -6.4753908 ], [ 110.7057752, -6.4754401 ], [ 110.7060274, -6.4755513 ], [ 110.7061708, -6.4755973 ], [ 110.706313, -6.4756107 ], [ 110.7065141, -6.4756173 ], [ 110.7065932, -6.4756147 ], [ 110.7067193, -6.4755827 ], [ 110.7068801, -6.4755385 ], [ 110.707127, -6.475544 ], [ 110.7073563, -6.4755414 ], [ 110.7074247, -6.4755454 ], [ 110.7074891, -6.4755374 ], [ 110.7075736, -6.4755174 ], [ 110.7080027, -6.4753628 ], [ 110.7082468, -6.4752162 ], [ 110.7086089, -6.4749737 ], [ 110.7089006, -6.4747218 ], [ 110.7092366, -6.4743927 ], [ 110.7096952, -6.473897 ], [ 110.7100412, -6.4735372 ], [ 110.7101378, -6.4734493 ], [ 110.7105401, -6.4730122 ], [ 110.7107627, -6.4727617 ], [ 110.71098, -6.4724472 ], [ 110.7111382, -6.4722287 ], [ 110.711275, -6.4720687 ], [ 110.7116318, -6.471621 ], [ 110.7120314, -6.4710373 ], [ 110.7122245, -6.4707389 ], [ 110.7123104, -6.4706242 ], [ 110.7124177, -6.4704963 ], [ 110.7125115, -6.4703524 ], [ 110.7127332, -6.4699992 ], [ 110.712828, -6.4698354 ], [ 110.712938, -6.4696728 ], [ 110.7129809, -6.4696195 ], [ 110.7132518, -6.4692011 ], [ 110.7133725, -6.4689959 ], [ 110.7135522, -6.4686574 ], [ 110.7136729, -6.4683136 ], [ 110.7137454, -6.4680551 ], [ 110.7138526, -6.4675114 ], [ 110.7138875, -6.4672982 ], [ 110.7139009, -6.4670956 ], [ 110.7138982, -6.467013 ], [ 110.7138687, -6.4668504 ], [ 110.7136099, -6.4664413 ], [ 110.713516, -6.4663054 ], [ 110.7133236, -6.4661228 ], [ 110.7132813, -6.4661535 ], [ 110.7129782, -6.4659203 ], [ 110.7127905, -6.4657937 ], [ 110.7127449, -6.4657417 ], [ 110.7126859, -6.4656484 ], [ 110.7126644, -6.4654779 ], [ 110.7126752, -6.4653313 ], [ 110.71271, -6.4650168 ], [ 110.7127824, -6.4646837 ], [ 110.7128414, -6.4645824 ], [ 110.7129246, -6.4644784 ], [ 110.7130131, -6.4643585 ], [ 110.7130319, -6.4643185 ], [ 110.7130614, -6.4642279 ], [ 110.7130963, -6.4639774 ], [ 110.7131553, -6.4637962 ], [ 110.7132277, -6.4636389 ], [ 110.7132894, -6.4634817 ], [ 110.7133135, -6.4632924 ], [ 110.7133082, -6.4631752 ], [ 110.7132706, -6.4630339 ], [ 110.7132545, -6.462922 ], [ 110.7132652, -6.4626635 ], [ 110.7133413, -6.4623234 ], [ 110.7133725, -6.4620345 ], [ 110.7134744, -6.461203 ], [ 110.7135415, -6.4604194 ], [ 110.7135442, -6.4602408 ], [ 110.713512, -6.4599956 ], [ 110.7135147, -6.4597877 ], [ 110.7135281, -6.4595959 ], [ 110.7135563, -6.4594186 ], [ 110.71339, -6.4593373 ], [ 110.7135335, -6.4589749 ], [ 110.7136622, -6.4585271 ], [ 110.7138285, -6.4580314 ], [ 110.7138446, -6.4579075 ], [ 110.713854, -6.4577942 ], [ 110.7138647, -6.4577316 ], [ 110.7138741, -6.4576916 ], [ 110.7139117, -6.4576423 ], [ 110.713976, -6.457589 ], [ 110.7145648, -6.4572931 ], [ 110.71466, -6.4572052 ], [ 110.7147592, -6.4570799 ], [ 110.715073, -6.4566508 ], [ 110.715293, -6.456363 ], [ 110.7153493, -6.4562404 ], [ 110.7153895, -6.4560991 ], [ 110.7154432, -6.4560032 ], [ 110.7156363, -6.4558006 ], [ 110.7157409, -6.4556754 ], [ 110.7159796, -6.4553582 ], [ 110.7160467, -6.4552782 ], [ 110.7161459, -6.4552169 ], [ 110.716382, -6.4550863 ], [ 110.7167628, -6.4549424 ], [ 110.7168594, -6.4548731 ], [ 110.7169425, -6.4547745 ], [ 110.7170257, -6.4546466 ], [ 110.7170351, -6.4545946 ], [ 110.7170324, -6.4545293 ], [ 110.7170096, -6.45444 ], [ 110.7169721, -6.4543881 ], [ 110.7169546, -6.4543454 ], [ 110.7169425, -6.4542908 ], [ 110.7169573, -6.4541695 ], [ 110.7170901, -6.4537164 ], [ 110.7171437, -6.4535618 ], [ 110.717251, -6.4532927 ], [ 110.7173556, -6.4531221 ], [ 110.7177606, -6.4525944 ], [ 110.7180101, -6.4523358 ], [ 110.71823, -6.452144 ], [ 110.7183561, -6.4520773 ], [ 110.7187933, -6.4519441 ], [ 110.7189167, -6.4518748 ], [ 110.7190615, -6.4517762 ], [ 110.7193217, -6.4515363 ], [ 110.7202819, -6.4507447 ], [ 110.7205608, -6.4504968 ], [ 110.7206574, -6.4504196 ], [ 110.7207781, -6.4503423 ], [ 110.7210544, -6.4502037 ], [ 110.7211778, -6.4501157 ], [ 110.7212689, -6.4500331 ], [ 110.7213762, -6.4499212 ], [ 110.7215586, -6.4496706 ], [ 110.7217008, -6.4495027 ], [ 110.7220736, -6.4491163 ], [ 110.7227656, -6.4484553 ], [ 110.7230714, -6.4481967 ], [ 110.7234442, -6.4479302 ], [ 110.7240531, -6.4475411 ], [ 110.7241818, -6.4474878 ], [ 110.7244313, -6.4474212 ], [ 110.7248819, -6.4473119 ], [ 110.7252708, -6.4471813 ], [ 110.7260057, -6.4468668 ], [ 110.7265556, -6.4466243 ], [ 110.727253, -6.4462938 ], [ 110.7280442, -6.4459579 ], [ 110.7282454, -6.4458513 ], [ 110.7284251, -6.4457687 ], [ 110.7286236, -6.4457101 ], [ 110.7290152, -6.4456408 ], [ 110.729675, -6.4455635 ], [ 110.7298225, -6.4455342 ], [ 110.7300317, -6.4454355 ], [ 110.7301337, -6.4453476 ], [ 110.7302946, -6.4451903 ], [ 110.7304434, -6.4450211 ], [ 110.7304783, -6.4449891 ], [ 110.7305239, -6.4449598 ], [ 110.7305816, -6.4449505 ], [ 110.730658, -6.4449585 ], [ 110.7308324, -6.4450051 ], [ 110.7310684, -6.4450784 ], [ 110.7314453, -6.4452037 ], [ 110.731802, -6.445281 ], [ 110.7318865, -6.445293 ], [ 110.7319576, -6.4452916 ], [ 110.7320742, -6.4452783 ], [ 110.7321641, -6.4452596 ], [ 110.7324055, -6.4451981 ], [ 110.7323028, -6.4453228 ], [ 110.7325066, -6.445526 ], [ 110.7327402, -6.4457587 ], [ 110.7329037, -6.4456759 ], [ 110.732919, -6.4455972 ], [ 110.7334874, -6.4451943 ], [ 110.7336395, -6.4450885 ], [ 110.7337617, -6.4447638 ], [ 110.7341319, -6.4442232 ], [ 110.7342477, -6.4439183 ], [ 110.7342798, -6.443834 ], [ 110.7343817, -6.4435656 ], [ 110.734935, -6.4432936 ], [ 110.7351631, -6.4430498 ], [ 110.7352031, -6.4428741 ], [ 110.7352124, -6.4427626 ], [ 110.7351679, -6.4426839 ], [ 110.7354292, -6.4428334 ], [ 110.7365757, -6.443165 ], [ 110.7365757, -6.4429525 ], [ 110.7368581, -6.4429355 ], [ 110.7369037, -6.4431197 ], [ 110.7369693, -6.4431253 ], [ 110.7369963, -6.4431523 ], [ 110.7370406, -6.443199 ], [ 110.7378856, -6.4431743 ], [ 110.7379723, -6.4431503 ], [ 110.7382688, -6.442974 ], [ 110.738372, -6.4429083 ], [ 110.7389996, -6.4424804 ], [ 110.7391973, -6.442268 ], [ 110.7394554, -6.4422079 ], [ 110.7397176, -6.4422239 ], [ 110.7411494, -6.4419874 ], [ 110.7421295, -6.4419874 ], [ 110.7430476, -6.4427216 ], [ 110.7431246, -6.442761 ], [ 110.7432349, -6.4428156 ], [ 110.7432832, -6.4428489 ], [ 110.7433623, -6.4429369 ], [ 110.7434253, -6.4430102 ], [ 110.7435363, -6.4431037 ], [ 110.7437231, -6.4432554 ], [ 110.743766, -6.4431714 ], [ 110.7442446, -6.4433929 ], [ 110.7443239, -6.4434113 ], [ 110.7444017, -6.4434179 ], [ 110.7447276, -6.4433966 ], [ 110.7458112, -6.4432181 ], [ 110.7462886, -6.4430848 ], [ 110.7465193, -6.4430048 ], [ 110.7467473, -6.4429062 ], [ 110.7472274, -6.4427196 ], [ 110.7473749, -6.4426717 ], [ 110.7475814, -6.4426157 ], [ 110.7478926, -6.4425251 ], [ 110.7481661, -6.4424584 ], [ 110.7483217, -6.4423865 ], [ 110.7485832, -6.4422652 ], [ 110.7487334, -6.4421573 ], [ 110.7488273, -6.4421066 ], [ 110.748881, -6.4420853 ], [ 110.7489493, -6.4420893 ], [ 110.7490017, -6.4421173 ], [ 110.7490325, -6.4421533 ], [ 110.7490486, -6.4422013 ], [ 110.7490486, -6.4422399 ], [ 110.7490231, -6.4423225 ], [ 110.7492524, -6.4424878 ], [ 110.7497084, -6.4419414 ], [ 110.7498111, -6.4419121 ], [ 110.7498464, -6.4419769 ], [ 110.7500323, -6.4421594 ], [ 110.7501419, -6.4422272 ], [ 110.7502938, -6.4421581 ], [ 110.7503584, -6.4420761 ], [ 110.7504233, -6.4420437 ], [ 110.7505161, -6.4420207 ], [ 110.7505822, -6.441927 ], [ 110.750695, -6.4418396 ], [ 110.7507653, -6.4418579 ], [ 110.750794, -6.4419033 ], [ 110.7507784, -6.4419493 ], [ 110.7506818, -6.4420339 ], [ 110.7506789, -6.4421215 ], [ 110.7507113, -6.4421839 ], [ 110.7508615, -6.4422941 ], [ 110.7510397, -6.442338 ], [ 110.7512251, -6.4421051 ], [ 110.7512898, -6.4421406 ], [ 110.7513432, -6.4420965 ], [ 110.7515552, -6.4420766 ], [ 110.7517439, -6.442105 ], [ 110.7520895, -6.4420853 ], [ 110.75262, -6.4420786 ], [ 110.7530196, -6.4420933 ], [ 110.7534021, -6.4420873 ], [ 110.7535414, -6.4420644 ], [ 110.7536637, -6.4420507 ], [ 110.7537482, -6.4420633 ], [ 110.7540255, -6.4420904 ], [ 110.7542834, -6.442094 ], [ 110.754406, -6.4420862 ], [ 110.7549751, -6.4421721 ], [ 110.7552373, -6.4421705 ], [ 110.7560645, -6.4421189 ], [ 110.7563471, -6.4421173 ], [ 110.7563739, -6.4420843 ], [ 110.7564285, -6.4420556 ], [ 110.7564701, -6.4420735 ], [ 110.7567586, -6.4420373 ], [ 110.7569155, -6.4420533 ], [ 110.7570054, -6.4420533 ], [ 110.7570805, -6.4420533 ], [ 110.7571864, -6.4420387 ], [ 110.7572629, -6.4420173 ], [ 110.7573956, -6.441976 ], [ 110.7575566, -6.4418867 ], [ 110.7579508, -6.4415922 ], [ 110.7582432, -6.4413364 ], [ 110.7585382, -6.4411231 ], [ 110.7589164, -6.440774 ], [ 110.7590666, -6.4406727 ], [ 110.7591739, -6.4406194 ], [ 110.7594475, -6.4405421 ], [ 110.7596433, -6.4405075 ], [ 110.7598042, -6.4404488 ], [ 110.759933, -6.4403769 ], [ 110.7601234, -6.4401983 ], [ 110.7606223, -6.4398172 ], [ 110.7608584, -6.4396519 ], [ 110.7610247, -6.4395453 ], [ 110.7612341, -6.4393996 ], [ 110.7614323, -6.4393134 ], [ 110.7615222, -6.4392668 ], [ 110.7616027, -6.4392308 ], [ 110.7617825, -6.4391399 ], [ 110.7620158, -6.4390466 ], [ 110.7622254, -6.4389512 ], [ 110.7626179, -6.4387937 ], [ 110.7631919, -6.4386124 ], [ 110.7635727, -6.4384845 ], [ 110.7650077, -6.4379621 ], [ 110.7653671, -6.4378049 ], [ 110.765968, -6.437485 ], [ 110.7666036, -6.4371279 ], [ 110.7669228, -6.436984 ], [ 110.7670248, -6.4369093 ], [ 110.7671776, -6.4367707 ], [ 110.7672769, -6.4366401 ], [ 110.7673654, -6.4365122 ], [ 110.7675022, -6.4362723 ], [ 110.7676497, -6.4360884 ], [ 110.7677945, -6.4359472 ], [ 110.7679287, -6.4358405 ], [ 110.7681003, -6.4357446 ], [ 110.7683471, -6.4356273 ], [ 110.7687065, -6.4354647 ], [ 110.7689854, -6.4353048 ], [ 110.7693261, -6.4351156 ], [ 110.7695219, -6.4349716 ], [ 110.7698974, -6.4346811 ], [ 110.7705304, -6.434204 ], [ 110.7710963, -6.4337882 ], [ 110.7715416, -6.4334924 ], [ 110.7717857, -6.4333458 ], [ 110.7719707, -6.4332579 ], [ 110.7722416, -6.4331859 ], [ 110.7724428, -6.4331539 ], [ 110.7726842, -6.4331672 ], [ 110.773108, -6.4332125 ], [ 110.7734004, -6.4332285 ], [ 110.773682, -6.4332285 ], [ 110.7738402, -6.4332019 ], [ 110.7739744, -6.4331592 ], [ 110.7741353, -6.4330846 ], [ 110.774425, -6.432874 ], [ 110.7745725, -6.4327834 ], [ 110.7747388, -6.4327088 ], [ 110.7752001, -6.4325755 ], [ 110.7754764, -6.4324663 ], [ 110.7755864, -6.4324089 ], [ 110.7757312, -6.4323197 ], [ 110.7757862, -6.4322597 ], [ 110.7758345, -6.4321904 ], [ 110.7758734, -6.4321278 ], [ 110.7759096, -6.4320998 ], [ 110.7759538, -6.4320838 ], [ 110.7759887, -6.4320798 ], [ 110.7760423, -6.4320744 ], [ 110.7760973, -6.4320625 ], [ 110.7761644, -6.4320291 ], [ 110.7762368, -6.4319838 ], [ 110.7762998, -6.4319305 ], [ 110.7765734, -6.4316413 ], [ 110.7767116, -6.4315001 ], [ 110.7768095, -6.4314254 ], [ 110.776961, -6.4313308 ], [ 110.7772359, -6.4311869 ], [ 110.7777026, -6.4309483 ], [ 110.7779051, -6.4308404 ], [ 110.7780553, -6.4307484 ], [ 110.7782578, -6.4306125 ], [ 110.7786199, -6.4303553 ], [ 110.7793626, -6.4297668 ], [ 110.7797465, -6.4294064 ], [ 110.7800791, -6.4290813 ], [ 110.7803044, -6.428908 ], [ 110.7806933, -6.4286015 ], [ 110.7808542, -6.4284523 ], [ 110.7810178, -6.428303 ], [ 110.7813048, -6.4280578 ], [ 110.7815328, -6.4278952 ], [ 110.7816642, -6.4277913 ], [ 110.7817501, -6.4277486 ], [ 110.7818198, -6.4277299 ], [ 110.78197, -6.4277193 ], [ 110.7821041, -6.427722 ], [ 110.782257, -6.4277353 ], [ 110.7824314, -6.4277166 ], [ 110.7826245, -6.4276766 ], [ 110.7828015, -6.42761 ], [ 110.7829624, -6.42753 ], [ 110.7832602, -6.4273355 ], [ 110.7834935, -6.4271889 ], [ 110.7836719, -6.4270769 ], [ 110.7838194, -6.4269943 ], [ 110.783924, -6.4269303 ], [ 110.7839991, -6.4268864 ], [ 110.784089, -6.4268317 ], [ 110.7842003, -6.4267464 ], [ 110.7842821, -6.4266558 ], [ 110.7843733, -6.4265172 ], [ 110.7844511, -6.4263013 ], [ 110.7845262, -6.4260748 ], [ 110.7845879, -6.4259468 ], [ 110.7846844, -6.4258296 ], [ 110.7848158, -6.4256989 ], [ 110.784966, -6.425611 ], [ 110.7851592, -6.4255577 ], [ 110.7854328, -6.4254884 ], [ 110.7856473, -6.4254457 ], [ 110.7857788, -6.4254271 ], [ 110.7859075, -6.4254244 ], [ 110.7860094, -6.4254377 ], [ 110.7862052, -6.4254777 ], [ 110.7865915, -6.4256256 ], [ 110.7869214, -6.4257576 ], [ 110.7870984, -6.4258136 ], [ 110.7872486, -6.4258562 ], [ 110.7873747, -6.4258935 ], [ 110.7875195, -6.4259415 ], [ 110.787718, -6.4259868 ], [ 110.788005, -6.4260508 ], [ 110.788351, -6.4260774 ], [ 110.7886487, -6.4261041 ], [ 110.7887426, -6.4261134 ], [ 110.7888351, -6.4261214 ], [ 110.7889974, -6.4261147 ], [ 110.7892576, -6.4261387 ], [ 110.789389, -6.4261601 ], [ 110.7896116, -6.4262134 ], [ 110.7898289, -6.426272 ], [ 110.7901293, -6.426344 ], [ 110.7905228, -6.4264993 ], [ 110.7908213, -6.4265892 ], [ 110.7911271, -6.4267011 ], [ 110.7913676, -6.4267791 ], [ 110.7916528, -6.4268557 ], [ 110.7919961, -6.426909 ], [ 110.7923394, -6.426973 ], [ 110.7928222, -6.427005 ], [ 110.7935357, -6.427037 ], [ 110.79382, -6.4270503 ], [ 110.79404, -6.4270396 ], [ 110.7942116, -6.4270076 ], [ 110.7944477, -6.4269303 ], [ 110.7947507, -6.4268477 ], [ 110.7950512, -6.4268077 ], [ 110.7952845, -6.4267651 ], [ 110.7955044, -6.4267118 ], [ 110.7956882, -6.4266305 ], [ 110.7957968, -6.4265852 ], [ 110.7958719, -6.4265492 ], [ 110.7959336, -6.4265039 ], [ 110.7959886, -6.4264539 ], [ 110.7960188, -6.4264019 ], [ 110.7960282, -6.4263799 ], [ 110.7960295, -6.426348 ], [ 110.7959866, -6.42623 ], [ 110.7959765, -6.4262007 ], [ 110.7959705, -6.4261757 ], [ 110.7959695, -6.4261621 ], [ 110.7959738, -6.4261517 ], [ 110.7959859, -6.4261444 ], [ 110.795995, -6.4261421 ], [ 110.796002, -6.4261431 ], [ 110.7960114, -6.4261477 ], [ 110.7960181, -6.4261567 ], [ 110.7960221, -6.4261731 ], [ 110.7960282, -6.4262014 ], [ 110.7960489, -6.4262374 ], [ 110.7960677, -6.4262593 ], [ 110.7961066, -6.4262873 ], [ 110.796173, -6.426312 ], [ 110.7962508, -6.426324 ], [ 110.7963493, -6.426324 ], [ 110.7964754, -6.426304 ], [ 110.7965532, -6.4262733 ], [ 110.796639, -6.42624 ], [ 110.79669, -6.4262453 ], [ 110.7967463, -6.4262707 ], [ 110.7967865, -6.4263013 ], [ 110.7969314, -6.4265225 ], [ 110.797087, -6.4267278 ], [ 110.7972211, -6.4268397 ], [ 110.7973096, -6.4268824 ], [ 110.797433, -6.426933 ], [ 110.7979292, -6.4271089 ], [ 110.7981062, -6.4271516 ], [ 110.798597, -6.4272822 ], [ 110.7991576, -6.4274074 ], [ 110.799458, -6.4274501 ], [ 110.799745, -6.4274581 ], [ 110.8001956, -6.4274208 ], [ 110.8006194, -6.4273595 ], [ 110.800842, -6.4273168 ], [ 110.8009949, -6.4272555 ], [ 110.8011344, -6.4271489 ], [ 110.8012712, -6.427029 ], [ 110.8013919, -6.4269543 ], [ 110.8015126, -6.4268984 ], [ 110.801695, -6.426869 ], [ 110.8018801, -6.4268904 ], [ 110.8021107, -6.4269437 ], [ 110.8025157, -6.4270849 ], [ 110.803012, -6.4272395 ], [ 110.803315, -6.4273008 ], [ 110.8034505, -6.4273088 ], [ 110.8036731, -6.4273475 ], [ 110.8037791, -6.4273701 ], [ 110.8038837, -6.4273915 ], [ 110.8040017, -6.4274194 ], [ 110.8041197, -6.4274474 ], [ 110.8042149, -6.4274594 ], [ 110.8043021, -6.4274528 ], [ 110.8044362, -6.4274274 ], [ 110.8049843, -6.4272896 ], [ 110.8052731, -6.4272555 ], [ 110.8056083, -6.4271915 ], [ 110.8057344, -6.4271356 ], [ 110.8058658, -6.4270663 ], [ 110.8061153, -6.4269064 ], [ 110.8062252, -6.4268131 ], [ 110.8063325, -6.4266931 ], [ 110.8065042, -6.4264772 ], [ 110.8067214, -6.4262853 ], [ 110.8070165, -6.4260401 ], [ 110.8072498, -6.4258402 ], [ 110.8074403, -6.4257069 ], [ 110.8076146, -6.4256403 ], [ 110.8077984, -6.4255883 ], [ 110.8078989, -6.4255577 ], [ 110.8079714, -6.4255377 ], [ 110.8080451, -6.4255284 ], [ 110.8081028, -6.425539 ], [ 110.808139, -6.4255617 ], [ 110.8081859, -6.425635 ], [ 110.8082181, -6.4256989 ], [ 110.8083495, -6.4258642 ], [ 110.8085132, -6.4260295 ], [ 110.8086982, -6.4261547 ], [ 110.8088833, -6.4262667 ], [ 110.8090523, -6.4263253 ], [ 110.8093312, -6.4263919 ], [ 110.809696, -6.4264346 ], [ 110.8100608, -6.4264452 ], [ 110.8103666, -6.4264133 ], [ 110.810726, -6.4263973 ], [ 110.8111551, -6.426328 ], [ 110.8113644, -6.4262827 ], [ 110.8115736, -6.426216 ], [ 110.8121663, -6.4260081 ], [ 110.8125365, -6.4258322 ], [ 110.8129361, -6.425691 ], [ 110.8135128, -6.4254591 ], [ 110.8140358, -6.4253098 ], [ 110.8143443, -6.4252218 ], [ 110.8146635, -6.4251392 ], [ 110.8149746, -6.4250753 ], [ 110.8153206, -6.4249926 ], [ 110.8154494, -6.4249313 ], [ 110.8157256, -6.4247661 ], [ 110.8159831, -6.4246301 ], [ 110.8162057, -6.4245155 ], [ 110.8169755, -6.424177 ], [ 110.8172277, -6.4241024 ], [ 110.8173725, -6.4240411 ], [ 110.8175077, -6.4239529 ], [ 110.8175915, -6.423892 ], [ 110.817689, -6.4238145 ], [ 110.8178204, -6.4237186 ], [ 110.8184695, -6.4233134 ], [ 110.8198401, -6.4223406 ], [ 110.8208057, -6.4216636 ], [ 110.8214065, -6.4213144 ], [ 110.8216801, -6.4211358 ], [ 110.8218303, -6.4210106 ], [ 110.8219376, -6.420872 ], [ 110.8220503, -6.4207254 ], [ 110.8221897, -6.4206001 ], [ 110.8222997, -6.4205201 ], [ 110.8224338, -6.4204695 ], [ 110.8226323, -6.4204162 ], [ 110.8228147, -6.4203522 ], [ 110.8229381, -6.4202696 ], [ 110.8230856, -6.4201576 ], [ 110.823217, -6.4200617 ], [ 110.8232948, -6.4199604 ], [ 110.8233565, -6.4198351 ], [ 110.823437, -6.4196805 ], [ 110.8235201, -6.4195739 ], [ 110.8236462, -6.419478 ], [ 110.8239573, -6.4192701 ], [ 110.8242121, -6.4191021 ], [ 110.8244294, -6.4189582 ], [ 110.8244964, -6.4189076 ], [ 110.8246922, -6.418721 ], [ 110.8253548, -6.4181106 ], [ 110.8263981, -6.4172657 ], [ 110.8273637, -6.416562 ], [ 110.8275944, -6.4163781 ], [ 110.8277687, -6.4162182 ], [ 110.8283722, -6.4155492 ], [ 110.8285895, -6.4152959 ], [ 110.8289918, -6.4149201 ], [ 110.8296275, -6.4142831 ], [ 110.8300003, -6.4139499 ], [ 110.8301827, -6.4138006 ] ] } }
]
}
