{
"type": "FeatureCollection",
"name": "coastline_pekalongan_jateng",
"crs": { "type": "name", "properties": { "name": "urn:ogc:def:crs:OGC:1.3:CRS84" } },
"features": [
{ "type": "Feature", "properties": { "FID": 704886 }, "geometry": { "type": "LineString", "coordinates": [ [ 109.2926601, -6.8730713 ], [ 109.2929913, -6.873078 ], [ 109.2935666, -6.8731046 ], [ 109.2940977, -6.8731312 ], [ 109.2946315, -6.8731445 ], [ 109.2950499, -6.8731366 ], [ 109.2954442, -6.8730913 ], [ 109.2958412, -6.8730407 ], [ 109.2965466, -6.8729794 ], [ 109.2973164, -6.8729528 ], [ 109.2978019, -6.8729462 ], [ 109.298172, -6.8729475 ], [ 109.2985636, -6.8729235 ], [ 109.2994702, -6.872849 ], [ 109.3001729, -6.8727984 ], [ 109.300873, -6.8727185 ], [ 109.3012418, -6.8726599 ], [ 109.3016414, -6.8725933 ], [ 109.3021028, -6.8725068 ], [ 109.3024568, -6.8724562 ], [ 109.3026929, -6.8724349 ], [ 109.3030885, -6.8724229 ], [ 109.3034613, -6.8723963 ], [ 109.3037282, -6.8723656 ], [ 109.3041533, -6.8722844 ], [ 109.3044229, -6.8722511 ], [ 109.3048166, -6.8722201 ], [ 109.3050313, -6.8721991 ], [ 109.3053469, -6.8721499 ], [ 109.306224, -6.8720314 ], [ 109.3068489, -6.8719489 ], [ 109.3074498, -6.871869 ], [ 109.3081015, -6.8717358 ], [ 109.308638, -6.8716506 ], [ 109.3091583, -6.8715974 ], [ 109.309912, -6.8714988 ], [ 109.3106657, -6.8713737 ], [ 109.3114328, -6.8712272 ], [ 109.3126318, -6.8710089 ], [ 109.3134794, -6.8708171 ], [ 109.3146059, -6.8705482 ], [ 109.3151182, -6.8704204 ], [ 109.315428, -6.8703045 ], [ 109.315609, -6.8702393 ], [ 109.3158075, -6.870198 ], [ 109.3160972, -6.8701461 ], [ 109.3164083, -6.8701128 ], [ 109.3167396, -6.8700662 ], [ 109.3170829, -6.8700116 ], [ 109.3174329, -6.8699743 ], [ 109.317787, -6.8699503 ], [ 109.3180311, -6.8699064 ], [ 109.3182926, -6.8698545 ], [ 109.3184697, -6.8698265 ], [ 109.3188129, -6.8697067 ], [ 109.3190677, -6.8696441 ], [ 109.3192314, -6.8696108 ], [ 109.3195599, -6.8695482 ], [ 109.3198362, -6.8694763 ], [ 109.3200481, -6.8693978 ], [ 109.3202358, -6.8692646 ], [ 109.3205041, -6.8690809 ], [ 109.3207133, -6.868985 ], [ 109.3210486, -6.8688971 ], [ 109.3215957, -6.8687587 ], [ 109.3224809, -6.8685376 ], [ 109.3232453, -6.8683219 ], [ 109.3239158, -6.8680903 ], [ 109.3244818, -6.8679225 ], [ 109.3250102, -6.867776 ], [ 109.3258041, -6.8675843 ], [ 109.326303, -6.8674432 ], [ 109.3268126, -6.8672647 ], [ 109.3278372, -6.8669372 ], [ 109.3285453, -6.8666736 ], [ 109.3289021, -6.8665191 ], [ 109.3291166, -6.8664446 ], [ 109.3294439, -6.866362 ], [ 109.3299776, -6.8662155 ], [ 109.3305677, -6.8660531 ], [ 109.331198, -6.8658401 ], [ 109.3319088, -6.865619 ], [ 109.3324801, -6.865406 ], [ 109.3332043, -6.8651211 ], [ 109.3338561, -6.8648627 ], [ 109.3344623, -6.8646124 ], [ 109.3347707, -6.8644606 ], [ 109.3350926, -6.8643062 ], [ 109.3354815, -6.864165 ], [ 109.3360046, -6.8639866 ], [ 109.3365651, -6.8638162 ], [ 109.3369246, -6.8637416 ], [ 109.3374422, -6.8636458 ], [ 109.3376876, -6.8635965 ], [ 109.3379626, -6.8635499 ], [ 109.3382455, -6.8634886 ], [ 109.3385929, -6.8634141 ], [ 109.3388182, -6.8633329 ], [ 109.3390207, -6.8632636 ], [ 109.3391387, -6.8632037 ], [ 109.3392541, -6.8631691 ], [ 109.3394391, -6.8631278 ], [ 109.3397476, -6.8630599 ], [ 109.3399394, -6.8629947 ], [ 109.3402022, -6.8629015 ], [ 109.3404248, -6.8627949 ], [ 109.340626, -6.8627204 ], [ 109.3408138, -6.8626471 ], [ 109.3409801, -6.8625752 ], [ 109.3411544, -6.8624687 ], [ 109.341322, -6.8623675 ], [ 109.3414736, -6.8622876 ], [ 109.3416747, -6.8622317 ], [ 109.3420529, -6.8621944 ], [ 109.3425947, -6.8621971 ], [ 109.3430051, -6.8621492 ], [ 109.3431862, -6.8621438 ], [ 109.3433712, -6.8620719 ], [ 109.3434665, -6.8620213 ], [ 109.3435483, -6.8619947 ], [ 109.3436757, -6.8619814 ], [ 109.3438312, -6.8619388 ], [ 109.3441558, -6.8619082 ], [ 109.3444964, -6.8619388 ], [ 109.3448451, -6.8619375 ], [ 109.345006, -6.8619428 ], [ 109.3452984, -6.8619348 ], [ 109.3455935, -6.8619321 ], [ 109.3457329, -6.8619481 ], [ 109.3458268, -6.8619494 ], [ 109.3459301, -6.8619321 ], [ 109.3460025, -6.8619028 ], [ 109.3461192, -6.8618722 ], [ 109.3462318, -6.8618576 ], [ 109.3465081, -6.8618509 ], [ 109.3467951, -6.8618909 ], [ 109.3470646, -6.8619335 ], [ 109.3473516, -6.8619654 ], [ 109.3475917, -6.8619707 ], [ 109.3476695, -6.8619641 ], [ 109.3477526, -6.8619414 ], [ 109.3478599, -6.8618815 ], [ 109.3479605, -6.8618216 ], [ 109.3480477, -6.861795 ], [ 109.3481711, -6.861795 ], [ 109.3486163, -6.861795 ], [ 109.3489221, -6.8617617 ], [ 109.3490857, -6.8617604 ], [ 109.3492506, -6.8617644 ], [ 109.3495028, -6.8617857 ], [ 109.3495417, -6.8617737 ], [ 109.3495765, -6.8617484 ], [ 109.3496154, -6.8616352 ], [ 109.3496503, -6.8616126 ], [ 109.3497173, -6.8615953 ], [ 109.3502752, -6.8616445 ], [ 109.3516633, -6.861763 ], [ 109.3519208, -6.8617817 ], [ 109.3521917, -6.8618216 ], [ 109.3528676, -6.8618855 ], [ 109.353691, -6.8619628 ], [ 109.354383, -6.8620213 ], [ 109.3548739, -6.8620506 ], [ 109.3556544, -6.8620693 ], [ 109.3562096, -6.8621012 ], [ 109.3567219, -6.8621358 ], [ 109.3572195, -6.8621758 ], [ 109.3573683, -6.8621785 ], [ 109.3574622, -6.8621425 ], [ 109.357532, -6.8621079 ], [ 109.3576138, -6.8620892 ], [ 109.357764, -6.8621012 ], [ 109.3583085, -6.8621718 ], [ 109.358696, -6.8622077 ], [ 109.3589844, -6.862253 ], [ 109.3593881, -6.8623129 ], [ 109.3596683, -6.8623476 ], [ 109.3600814, -6.8623915 ], [ 109.3607104, -6.8624101 ], [ 109.3613943, -6.8624341 ], [ 109.3619791, -6.8624607 ], [ 109.3627971, -6.86249 ], [ 109.3634275, -6.8625113 ], [ 109.3640363, -6.862522 ], [ 109.364462, -6.8624471 ], [ 109.3648452, -6.8621754 ], [ 109.3643855, -6.8612255 ], [ 109.3647398, -6.8610416 ], [ 109.3651227, -6.8619388 ], [ 109.3653116, -6.862323 ], [ 109.3654131, -6.8624106 ], [ 109.3655887, -6.8623736 ], [ 109.3657857, -6.8622997 ], [ 109.3660122, -6.8621768 ], [ 109.3661688, -6.8620464 ], [ 109.3662584, -6.8619468 ], [ 109.3663412, -6.8618939 ], [ 109.3664072, -6.8619666 ], [ 109.3662623, -6.8616566 ], [ 109.3661838, -6.8615011 ], [ 109.3661953, -6.861493 ], [ 109.3662938, -6.8616467 ], [ 109.3664517, -6.8619296 ], [ 109.3664788, -6.8619616 ], [ 109.3665163, -6.8620313 ], [ 109.3669415, -6.8618931 ], [ 109.3673623, -6.8617564 ], [ 109.3671082, -6.8609459 ], [ 109.3670698, -6.8608915 ], [ 109.3668525, -6.8606721 ], [ 109.3668602, -6.8606515 ], [ 109.3668807, -6.8606433 ], [ 109.3670943, -6.8608461 ], [ 109.3671441, -6.8609067 ], [ 109.3674244, -6.8617362 ], [ 109.367556, -6.862062 ], [ 109.3677539, -6.8620799 ], [ 109.3685558, -6.8621705 ], [ 109.3691754, -6.8622504 ], [ 109.3693846, -6.8622863 ], [ 109.3695429, -6.862297 ], [ 109.3696864, -6.8623036 ], [ 109.3700445, -6.8623169 ], [ 109.3701893, -6.8622943 ], [ 109.3703261, -6.8622743 ], [ 109.3704857, -6.862269 ], [ 109.3708585, -6.862277 ], [ 109.3710986, -6.8622783 ], [ 109.3714084, -6.8622677 ], [ 109.3716833, -6.8622437 ], [ 109.37204, -6.8621998 ], [ 109.3721862, -6.8621651 ], [ 109.3723257, -6.8621505 ], [ 109.3725121, -6.8621465 ], [ 109.3727146, -6.8621265 ], [ 109.3729493, -6.8621052 ], [ 109.373235, -6.8620866 ], [ 109.3738867, -6.8620413 ], [ 109.3746753, -6.8619335 ], [ 109.374674, -6.8618749 ], [ 109.3746894, -6.8618556 ], [ 109.3747403, -6.8618469 ], [ 109.375264, -6.8617923 ], [ 109.3756838, -6.8617471 ], [ 109.3760177, -6.8616845 ], [ 109.3764791, -6.8616006 ], [ 109.3768479, -6.8615353 ], [ 109.3772368, -6.8614927 ], [ 109.3777491, -6.8614555 ], [ 109.3783432, -6.8614022 ], [ 109.3790366, -6.8613369 ], [ 109.379455, -6.8612664 ], [ 109.3796723, -6.8612025 ], [ 109.3798654, -6.8611159 ], [ 109.37997, -6.8610347 ], [ 109.380029, -6.8609761 ], [ 109.3800732, -6.8609215 ], [ 109.3801028, -6.8609029 ], [ 109.3801819, -6.8608869 ], [ 109.3808967, -6.8608816 ], [ 109.3810831, -6.8608629 ], [ 109.3812534, -6.8608177 ], [ 109.3815431, -6.8607458 ], [ 109.3817697, -6.8607125 ], [ 109.3820634, -6.8606619 ], [ 109.3825744, -6.8605567 ], [ 109.3831001, -6.8604408 ], [ 109.3837304, -6.8603223 ], [ 109.3844654, -6.8601639 ], [ 109.3851721, -6.8600188 ], [ 109.3856737, -6.8598923 ], [ 109.3863389, -6.8597285 ], [ 109.3869665, -6.8595754 ], [ 109.3873756, -6.8594742 ], [ 109.3875352, -6.8594183 ], [ 109.3877041, -6.8593477 ], [ 109.3879093, -6.8592731 ], [ 109.3880823, -6.8592239 ], [ 109.3886858, -6.8590934 ], [ 109.3891418, -6.8589895 ], [ 109.3896085, -6.8588843 ], [ 109.390216, -6.8587192 ], [ 109.3904749, -6.858654 ], [ 109.3906519, -6.8585941 ], [ 109.3910046, -6.8584676 ], [ 109.391592, -6.8582838 ], [ 109.3920413, -6.858144 ], [ 109.3925804, -6.8579802 ], [ 109.3930002, -6.8578431 ], [ 109.3931141, -6.8577685 ], [ 109.3932335, -6.8576793 ], [ 109.3933837, -6.8575661 ], [ 109.393499, -6.8575182 ], [ 109.3937512, -6.8574769 ], [ 109.3939456, -6.8574356 ], [ 109.394132, -6.8573637 ], [ 109.3942447, -6.8573105 ], [ 109.3943654, -6.8572812 ], [ 109.3948683, -6.8571813 ], [ 109.3951411, -6.8571064 ], [ 109.3957306, -6.8569523 ], [ 109.3961625, -6.8568218 ], [ 109.3968505, -6.8565675 ], [ 109.3976578, -6.8562506 ], [ 109.3982238, -6.8560589 ], [ 109.3988782, -6.8558511 ], [ 109.3994924, -6.8556434 ], [ 109.4002166, -6.8553824 ], [ 109.4008416, -6.8551667 ], [ 109.4013539, -6.8550043 ], [ 109.4018742, -6.8548259 ], [ 109.4027996, -6.8544903 ], [ 109.4035265, -6.854232 ], [ 109.4037706, -6.8541415 ], [ 109.4038685, -6.8540909 ], [ 109.403987, -6.8540283 ], [ 109.4040227, -6.8539644 ], [ 109.4041394, -6.8539085 ], [ 109.4047402, -6.853758 ], [ 109.4053249, -6.8535969 ], [ 109.405911, -6.8534371 ], [ 109.4062717, -6.8533119 ], [ 109.4063844, -6.853256 ], [ 109.4064541, -6.8532027 ], [ 109.4065158, -6.8531615 ], [ 109.4066714, -6.8530776 ], [ 109.4068564, -6.8530177 ], [ 109.4073352, -6.8529018 ], [ 109.4074841, -6.8528499 ], [ 109.4075806, -6.852794 ], [ 109.4077094, -6.8527114 ], [ 109.4078234, -6.8526568 ], [ 109.4081841, -6.8525703 ], [ 109.4085556, -6.852529 ], [ 109.4090518, -6.8524704 ], [ 109.4094984, -6.8523892 ], [ 109.4099799, -6.8522827 ], [ 109.4105056, -6.8521482 ], [ 109.4108422, -6.852051 ], [ 109.4110876, -6.8519618 ], [ 109.411396, -6.8517503 ], [ 109.4119015, -6.851576 ], [ 109.412497, -6.851364 ], [ 109.4127075, -6.8513272 ], [ 109.4127524, -6.850927 ], [ 109.4127828, -6.8506058 ], [ 109.4126732, -6.8504662 ], [ 109.4126266, -6.8504283 ], [ 109.4125494, -6.8503653 ], [ 109.4120464, -6.849584 ], [ 109.4120941, -6.8495492 ], [ 109.4121733, -6.8496456 ], [ 109.412293, -6.8496912 ], [ 109.4125007, -6.8497067 ], [ 109.4127472, -6.8497373 ], [ 109.4129028, -6.8498034 ], [ 109.4130282, -6.849822 ], [ 109.4131737, -6.8498267 ], [ 109.4133085, -6.849824 ], [ 109.4135512, -6.8498047 ], [ 109.4138141, -6.8498034 ], [ 109.4141869, -6.8497954 ], [ 109.4147623, -6.8497661 ], [ 109.4153041, -6.8497181 ], [ 109.4157319, -6.8496569 ], [ 109.416153, -6.849577 ], [ 109.4166318, -6.8494758 ], [ 109.4169, -6.8494039 ], [ 109.4170851, -6.8493453 ], [ 109.4173573, -6.8492508 ], [ 109.4175249, -6.8492068 ], [ 109.4178763, -6.8491123 ], [ 109.4180319, -6.8490817 ], [ 109.4182545, -6.8490444 ], [ 109.4185992, -6.8489445 ], [ 109.4187735, -6.8488753 ], [ 109.4189478, -6.8488007 ], [ 109.4191021, -6.8487448 ], [ 109.4192375, -6.8487062 ], [ 109.4194373, -6.8486795 ], [ 109.419774, -6.8486196 ], [ 109.4199577, -6.848561 ], [ 109.4200583, -6.8485171 ], [ 109.4201602, -6.8484452 ], [ 109.4202608, -6.8483546 ], [ 109.4203641, -6.8482774 ], [ 109.4204204, -6.8482455 ], [ 109.4206135, -6.8481855 ], [ 109.4208777, -6.8481283 ], [ 109.4212586, -6.8480497 ], [ 109.4215643, -6.8479672 ], [ 109.4218138, -6.8479006 ], [ 109.4220096, -6.847842 ], [ 109.4222724, -6.8477328 ], [ 109.4226292, -6.8475917 ], [ 109.4233507, -6.847364 ], [ 109.4240051, -6.8471429 ], [ 109.42496, -6.8467967 ], [ 109.4254911, -6.8466157 ], [ 109.4260946, -6.8463973 ], [ 109.4267061, -6.8461549 ], [ 109.4270682, -6.8459978 ], [ 109.4275725, -6.8457794 ], [ 109.4279936, -6.845617 ], [ 109.4285421, -6.8454279 ], [ 109.4290155, -6.8452468 ], [ 109.4301139, -6.8448074 ], [ 109.4307496, -6.8445371 ], [ 109.4312632, -6.8442988 ], [ 109.4316052, -6.8441616 ], [ 109.4320746, -6.8439712 ], [ 109.4326285, -6.8437488 ], [ 109.4330911, -6.8435691 ], [ 109.4338194, -6.8432415 ], [ 109.4344041, -6.8429885 ], [ 109.4347715, -6.8428181 ], [ 109.4350746, -6.8426903 ], [ 109.4352275, -6.8426077 ], [ 109.4353656, -6.8425172 ], [ 109.4355427, -6.8424253 ], [ 109.4358256, -6.8423254 ], [ 109.4360992, -6.8422069 ], [ 109.4361918, -6.8421483 ], [ 109.4363044, -6.8420591 ], [ 109.4364855, -6.8419433 ], [ 109.4366544, -6.8418727 ], [ 109.4368435, -6.8418141 ], [ 109.437038, -6.8417475 ], [ 109.4371721, -6.841669 ], [ 109.4372915, -6.8415771 ], [ 109.4374081, -6.8415078 ], [ 109.4376066, -6.8414373 ], [ 109.4378655, -6.84138 ], [ 109.4381525, -6.8413161 ], [ 109.4384529, -6.8412256 ], [ 109.4385964, -6.841167 ], [ 109.4388431, -6.8410604 ], [ 109.4390416, -6.8409686 ], [ 109.4392481, -6.8408714 ], [ 109.4395325, -6.8407475 ], [ 109.4398221, -6.8406317 ], [ 109.4400112, -6.8405598 ], [ 109.4401453, -6.8405278 ], [ 109.44038, -6.8404746 ], [ 109.4406362, -6.8404293 ], [ 109.4408561, -6.8403707 ], [ 109.4410291, -6.8403068 ], [ 109.4413242, -6.8401403 ], [ 109.4414516, -6.8400618 ], [ 109.4415455, -6.8399646 ], [ 109.4415589, -6.839918 ], [ 109.4415615, -6.839858 ], [ 109.4415253, -6.8397156 ], [ 109.4414999, -6.8396503 ], [ 109.4414972, -6.8395944 ], [ 109.4415401, -6.8395145 ], [ 109.4417372, -6.8393148 ], [ 109.4418982, -6.8392202 ], [ 109.4421101, -6.8391244 ], [ 109.4424789, -6.8389952 ], [ 109.4428423, -6.8388234 ], [ 109.4430421, -6.8387089 ], [ 109.4434015, -6.8385172 ], [ 109.4444758, -6.8379286 ], [ 109.4452026, -6.8375664 ], [ 109.4459993, -6.8371936 ], [ 109.4465759, -6.8369326 ], [ 109.4471633, -6.836613 ], [ 109.4477749, -6.8362961 ], [ 109.4484159, -6.8359978 ], [ 109.4488746, -6.8357821 ], [ 109.4491039, -6.8356596 ], [ 109.4492649, -6.8355571 ], [ 109.4493856, -6.8354585 ], [ 109.4495451, -6.835336 ], [ 109.4497168, -6.8352082 ], [ 109.4500333, -6.8350111 ], [ 109.4503632, -6.8348167 ], [ 109.4506462, -6.8346809 ], [ 109.4509305, -6.8345478 ], [ 109.451078, -6.8344545 ], [ 109.4512779, -6.8343467 ], [ 109.4514495, -6.8342841 ], [ 109.4516306, -6.8342069 ], [ 109.4518277, -6.8340924 ], [ 109.4520704, -6.8339752 ], [ 109.4523481, -6.8338207 ], [ 109.4525157, -6.8337129 ], [ 109.4528201, -6.8335344 ], [ 109.4530146, -6.8333999 ], [ 109.453138, -6.8333081 ], [ 109.453264, -6.8332308 ], [ 109.4533941, -6.8331656 ], [ 109.4535564, -6.833099 ], [ 109.453657, -6.8330337 ], [ 109.4537508, -6.8329565 ], [ 109.4539104, -6.832806 ], [ 109.4540499, -6.8326955 ], [ 109.4541894, -6.8326116 ], [ 109.4544992, -6.8324305 ], [ 109.4549887, -6.8321216 ], [ 109.4555479, -6.8317714 ], [ 109.4558577, -6.8315996 ], [ 109.4560388, -6.8314944 ], [ 109.4562829, -6.8313546 ], [ 109.4565444, -6.8312148 ], [ 109.4568032, -6.831067 ], [ 109.4571505, -6.8308846 ], [ 109.4575234, -6.8306622 ], [ 109.4579847, -6.8303639 ], [ 109.4585198, -6.830035 ], [ 109.4590428, -6.8297527 ], [ 109.4594961, -6.8294944 ], [ 109.4600621, -6.8291908 ], [ 109.4605315, -6.8289298 ], [ 109.4610894, -6.8286129 ], [ 109.4618082, -6.8282001 ], [ 109.4622239, -6.8279418 ], [ 109.4628301, -6.8275742 ], [ 109.4633599, -6.8272507 ], [ 109.4637635, -6.8269883 ], [ 109.4640814, -6.8267926 ], [ 109.4642839, -6.8266834 ], [ 109.4646057, -6.826509 ], [ 109.4647895, -6.8263984 ], [ 109.4650818, -6.8261801 ], [ 109.4652642, -6.8260336 ], [ 109.4653957, -6.8259351 ], [ 109.4655392, -6.8258378 ], [ 109.4657081, -6.825738 ], [ 109.4660863, -6.8255422 ], [ 109.4664283, -6.8253412 ], [ 109.4667046, -6.8251694 ], [ 109.4671056, -6.8249137 ], [ 109.4676125, -6.8246367 ], [ 109.4679049, -6.8244756 ], [ 109.4680135, -6.8244197 ], [ 109.4680564, -6.8243731 ], [ 109.4680645, -6.8242998 ], [ 109.4679746, -6.8239962 ], [ 109.4679719, -6.8239017 ], [ 109.4679961, -6.8238657 ], [ 109.468043, -6.8238285 ], [ 109.4685043, -6.8235355 ], [ 109.4692165, -6.8230974 ], [ 109.4699675, -6.822658 ], [ 109.4707587, -6.8221173 ], [ 109.4714347, -6.8216832 ], [ 109.472006, -6.821313 ], [ 109.472411, -6.8210694 ], [ 109.4726859, -6.8208869 ], [ 109.4727664, -6.8208204 ], [ 109.472816, -6.8207471 ], [ 109.4728522, -6.8206379 ], [ 109.4728763, -6.820578 ], [ 109.4729273, -6.8205381 ], [ 109.4730185, -6.8204954 ], [ 109.4733927, -6.8203383 ], [ 109.4736958, -6.8201652 ], [ 109.4738674, -6.820048 ], [ 109.4739948, -6.8199415 ], [ 109.4740954, -6.8198163 ], [ 109.4741732, -6.8197338 ], [ 109.4742858, -6.8196392 ], [ 109.4745581, -6.8194608 ], [ 109.4748759, -6.8192504 ], [ 109.4750731, -6.8191225 ], [ 109.4752716, -6.819012 ], [ 109.4754177, -6.8189068 ], [ 109.475584, -6.8187936 ], [ 109.4757168, -6.8187004 ], [ 109.4760588, -6.8184554 ], [ 109.476319, -6.818249 ], [ 109.4765912, -6.8180146 ], [ 109.4768165, -6.8177869 ], [ 109.4769922, -6.8176085 ], [ 109.4771799, -6.8174341 ], [ 109.477412, -6.8172343 ], [ 109.4775796, -6.8171384 ], [ 109.4777513, -6.8170532 ], [ 109.47799, -6.8169334 ], [ 109.4781375, -6.8168388 ], [ 109.4781858, -6.8167922 ], [ 109.4782354, -6.8167083 ], [ 109.4782998, -6.8166151 ], [ 109.4783856, -6.8165459 ], [ 109.4785921, -6.8164553 ], [ 109.4787316, -6.8163807 ], [ 109.4788711, -6.8162875 ], [ 109.4790521, -6.8161317 ], [ 109.4793311, -6.81588 ], [ 109.4798595, -6.8154619 ], [ 109.4806695, -6.814876 ], [ 109.4814554, -6.814314 ], [ 109.4822708, -6.8136615 ], [ 109.4828153, -6.8132647 ], [ 109.483223, -6.8129318 ], [ 109.4837594, -6.812503 ], [ 109.4840947, -6.8122607 ], [ 109.4844407, -6.8119943 ], [ 109.4847585, -6.81174 ], [ 109.4849811, -6.8115709 ], [ 109.4851957, -6.8113871 ], [ 109.4855042, -6.8111235 ], [ 109.4860581, -6.8106574 ], [ 109.4866428, -6.8100874 ], [ 109.4869029, -6.8098664 ], [ 109.4872047, -6.809612 ], [ 109.4875547, -6.809359 ], [ 109.4879034, -6.809086 ], [ 109.4883688, -6.8087012 ], [ 109.4886947, -6.8084042 ], [ 109.4891265, -6.808026 ], [ 109.4892848, -6.8077863 ], [ 109.4894269, -6.8075946 ], [ 109.4895852, -6.8074028 ], [ 109.4900224, -6.8070087 ], [ 109.4906661, -6.8065026 ], [ 109.4914171, -6.8058768 ], [ 109.4917524, -6.8055012 ], [ 109.491916, -6.8052429 ], [ 109.4920716, -6.8049952 ], [ 109.4922405, -6.8047955 ], [ 109.4926831, -6.8044359 ], [ 109.4933295, -6.8038074 ], [ 109.4940805, -6.8030616 ], [ 109.4950649, -6.8021055 ], [ 109.495891, -6.8012799 ], [ 109.4964167, -6.8008085 ], [ 109.4969907, -6.8002731 ], [ 109.4976103, -6.7997644 ], [ 109.4980475, -6.7993916 ], [ 109.4984177, -6.7991359 ], [ 109.4986913, -6.7988882 ], [ 109.4988415, -6.7986565 ], [ 109.4990051, -6.7983768 ], [ 109.4991285, -6.798257 ], [ 109.4995496, -6.7981025 ], [ 109.4999546, -6.7979241 ], [ 109.5002818, -6.7976764 ], [ 109.5010918, -6.7967548 ], [ 109.5019448, -6.7955403 ], [ 109.5025885, -6.7946668 ], [ 109.5033663, -6.7937932 ], [ 109.5041013, -6.7930048 ], [ 109.5049971, -6.7921632 ], [ 109.505614, -6.7914228 ], [ 109.5057212, -6.7905279 ], [ 109.5059833, -6.7898365 ], [ 109.5062407, -6.7894216 ], [ 109.5065324, -6.7891994 ], [ 109.5066469, -6.7891075 ], [ 109.5067769, -6.7887352 ], [ 109.5069058, -6.7883659 ], [ 109.5065488, -6.7881175 ], [ 109.5064709, -6.7881759 ], [ 109.5061662, -6.7879495 ], [ 109.506021, -6.78794 ], [ 109.5057753, -6.787897 ], [ 109.5057141, -6.7878642 ], [ 109.5055927, -6.787789 ], [ 109.5055944, -6.7876772 ], [ 109.5057183, -6.7875153 ], [ 109.505865, -6.7874575 ], [ 109.5062, -6.787156 ], [ 109.5066133, -6.7867302 ], [ 109.5068988, -6.7865115 ], [ 109.5071134, -6.7862638 ], [ 109.5072475, -6.7861306 ], [ 109.507446, -6.7859921 ], [ 109.5081755, -6.785526 ], [ 109.5088354, -6.7850945 ], [ 109.5092297, -6.7848122 ], [ 109.5095569, -6.7845618 ], [ 109.5096923, -6.7844899 ], [ 109.5097715, -6.7845006 ], [ 109.5098063, -6.7845645 ], [ 109.5097795, -6.7846444 ], [ 109.509463, -6.7849107 ], [ 109.5093691, -6.7850226 ], [ 109.5093369, -6.7851584 ], [ 109.5094013, -6.7853182 ], [ 109.5094657, -6.7853875 ], [ 109.5095703, -6.7854488 ], [ 109.509683, -6.7854594 ], [ 109.5098385, -6.7854514 ], [ 109.5102328, -6.7853609 ], [ 109.5108819, -6.7852916 ], [ 109.5111796, -6.7852863 ], [ 109.5113714, -6.7853342 ], [ 109.5115001, -6.7854248 ], [ 109.51159, -6.785542 ], [ 109.5116141, -6.7856392 ], [ 109.5116262, -6.7857524 ], [ 109.5116101, -6.7859162 ], [ 109.5115525, -6.7860707 ], [ 109.5114613, -6.7862012 ], [ 109.5113808, -6.7862345 ], [ 109.5113298, -6.7862092 ], [ 109.5112896, -6.7861665 ], [ 109.5112762, -6.7860946 ], [ 109.511295, -6.7858975 ], [ 109.5112574, -6.785755 ], [ 109.5111971, -6.7856552 ], [ 109.5110898, -6.7855593 ], [ 109.5109758, -6.78553 ], [ 109.5109141, -6.7855287 ], [ 109.5108443, -6.7855526 ], [ 109.5106861, -6.785795 ], [ 109.5104796, -6.7859761 ], [ 109.5102784, -6.7860747 ], [ 109.510045, -6.7861199 ], [ 109.5095381, -6.7861173 ], [ 109.5092592, -6.7861173 ], [ 109.5090768, -6.7861412 ], [ 109.508948, -6.7862078 ], [ 109.5088407, -6.7863676 ], [ 109.5087764, -6.7866047 ], [ 109.5087898, -6.787385 ], [ 109.508822, -6.7881415 ], [ 109.5089614, -6.7887381 ], [ 109.5093262, -6.7893134 ], [ 109.5101094, -6.789878 ], [ 109.5113432, -6.7903468 ], [ 109.512459, -6.7903787 ], [ 109.5135963, -6.7902296 ], [ 109.5158923, -6.7895903 ], [ 109.5171904, -6.7890257 ], [ 109.5173345, -6.7889225 ], [ 109.5176564, -6.7881577 ], [ 109.5177162, -6.788085 ], [ 109.5182536, -6.7880903 ], [ 109.5183438, -6.7878046 ], [ 109.5185436, -6.787608 ], [ 109.5185702, -6.7875667 ], [ 109.5185781, -6.7875272 ], [ 109.5184869, -6.7874861 ], [ 109.5184734, -6.787453 ], [ 109.5186688, -6.787116 ], [ 109.5187746, -6.7871058 ], [ 109.5188354, -6.7870999 ], [ 109.5194542, -6.7865008 ], [ 109.5198297, -6.7852437 ], [ 109.5200121, -6.7839226 ], [ 109.5201194, -6.7821754 ], [ 109.5199585, -6.7812592 ], [ 109.5196152, -6.780311 ], [ 109.519304, -6.7792136 ], [ 109.519186, -6.7783187 ], [ 109.5192467, -6.7779249 ], [ 109.5193255, -6.7774131 ], [ 109.5197976, -6.7766887 ], [ 109.5209885, -6.7751439 ], [ 109.5220828, -6.773876 ], [ 109.5223617, -6.7735831 ], [ 109.5225468, -6.7733886 ], [ 109.5226836, -6.7733327 ], [ 109.5229116, -6.7733087 ], [ 109.5232254, -6.7733433 ], [ 109.5237082, -6.773623 ], [ 109.5241427, -6.7740678 ], [ 109.5242125, -6.774153 ], [ 109.52425, -6.7743315 ], [ 109.5241991, -6.7746485 ], [ 109.524132, -6.7748802 ], [ 109.5240569, -6.7751226 ], [ 109.5240247, -6.775341 ], [ 109.5240086, -6.7755674 ], [ 109.5240301, -6.7756766 ], [ 109.5241186, -6.7758071 ], [ 109.5242259, -6.7759908 ], [ 109.5242903, -6.7761879 ], [ 109.5243922, -6.7767686 ], [ 109.5245022, -6.7773998 ], [ 109.5246229, -6.7780763 ], [ 109.5247248, -6.7784386 ], [ 109.5248374, -6.7787076 ], [ 109.5249823, -6.7790538 ], [ 109.5252693, -6.7798955 ], [ 109.5255653, -6.780933 ], [ 109.5256763, -6.7813219 ], [ 109.5258218, -6.7818318 ], [ 109.5259479, -6.7822873 ], [ 109.5260257, -6.7824045 ], [ 109.5261075, -6.7824577 ], [ 109.5261826, -6.782471 ], [ 109.5263381, -6.782467 ], [ 109.5265889, -6.7824364 ], [ 109.5266533, -6.7824324 ], [ 109.5266989, -6.7824484 ], [ 109.5267324, -6.7825083 ], [ 109.5269939, -6.7832807 ], [ 109.5270663, -6.7835204 ], [ 109.5270985, -6.7837202 ], [ 109.5270878, -6.7839759 ], [ 109.5269591, -6.7848069 ], [ 109.5268866, -6.7853742 ], [ 109.5268786, -6.785795 ], [ 109.5269081, -6.7861812 ], [ 109.526951, -6.7862558 ], [ 109.527061, -6.7862744 ], [ 109.5271736, -6.7862791 ], [ 109.5272145, -6.7862877 ], [ 109.5272286, -6.786311 ], [ 109.527236, -6.786357 ], [ 109.5272729, -6.7868417 ], [ 109.5272903, -6.7869203 ], [ 109.5273198, -6.7869469 ], [ 109.5273614, -6.7869762 ], [ 109.527415, -6.7870628 ], [ 109.5275344, -6.7873238 ], [ 109.5276645, -6.787686 ], [ 109.5277932, -6.7881468 ], [ 109.5278442, -6.7883439 ], [ 109.5278683, -6.7883718 ], [ 109.5279501, -6.7883932 ], [ 109.5280842, -6.7884198 ], [ 109.5281419, -6.7884624 ], [ 109.5281714, -6.7885103 ], [ 109.5282264, -6.7886955 ], [ 109.5284718, -6.7892681 ], [ 109.5286274, -6.7895717 ], [ 109.5287454, -6.7897075 ], [ 109.5288554, -6.7898194 ], [ 109.5289332, -6.7899499 ], [ 109.5290592, -6.7902828 ], [ 109.5290914, -6.7903481 ], [ 109.5291692, -6.7904093 ], [ 109.5292604, -6.790456 ], [ 109.5293181, -6.7905079 ], [ 109.529361, -6.7906038 ], [ 109.5294039, -6.7907356 ], [ 109.5296144, -6.7911085 ], [ 109.5298988, -6.7915586 ], [ 109.5301723, -6.7919475 ], [ 109.5306525, -6.7926879 ], [ 109.5309421, -6.7931034 ], [ 109.5310709, -6.7932951 ], [ 109.5312506, -6.7935801 ], [ 109.5314357, -6.7939104 ], [ 109.5315644, -6.7941953 ], [ 109.5316851, -6.794459 ], [ 109.5318112, -6.7947573 ], [ 109.5319158, -6.7949304 ], [ 109.5320713, -6.7951115 ], [ 109.5322189, -6.7952847 ], [ 109.5324093, -6.7956016 ], [ 109.5326105, -6.7959532 ], [ 109.5331335, -6.7967122 ], [ 109.5335063, -6.7972689 ], [ 109.5339623, -6.7979161 ], [ 109.5343593, -6.7984887 ], [ 109.5347482, -6.799064 ], [ 109.5351264, -6.7997911 ], [ 109.5353329, -6.8001453 ], [ 109.5355636, -6.8004276 ], [ 109.5358801, -6.8006966 ], [ 109.5361456, -6.800939 ], [ 109.5365667, -6.801405 ], [ 109.5368376, -6.8018232 ], [ 109.5370468, -6.8021375 ], [ 109.5372936, -6.8024437 ], [ 109.5377281, -6.8029365 ], [ 109.5382887, -6.8035437 ], [ 109.5385489, -6.8038686 ], [ 109.5388734, -6.804324 ], [ 109.5390961, -6.8046676 ], [ 109.5396995, -6.8055598 ], [ 109.5400616, -6.8059966 ], [ 109.5403245, -6.8063189 ], [ 109.5406812, -6.8067716 ], [ 109.5411989, -6.8075973 ], [ 109.5413813, -6.8080287 ], [ 109.5414296, -6.8084389 ], [ 109.5414001, -6.8088437 ], [ 109.5413974, -6.809118 ], [ 109.5414403, -6.8091979 ], [ 109.5415208, -6.8092405 ], [ 109.5418668, -6.8093151 ], [ 109.5420518, -6.8093444 ], [ 109.5420934, -6.8093723 ], [ 109.5421149, -6.8094243 ], [ 109.5420317, -6.8097053 ], [ 109.5419995, -6.8098278 ], [ 109.542017, -6.809869 ], [ 109.5421484, -6.809909 ], [ 109.5422517, -6.809921 ], [ 109.5428511, -6.8100448 ], [ 109.5431972, -6.8101913 ], [ 109.5435056, -6.8104044 ], [ 109.5438382, -6.8106867 ], [ 109.544211, -6.8110542 ], [ 109.5446402, -6.8115656 ], [ 109.5448467, -6.8117786 ], [ 109.5450452, -6.8120023 ], [ 109.545249, -6.8121968 ], [ 109.5458686, -6.8129531 ], [ 109.5477623, -6.8150305 ], [ 109.5492911, -6.8166604 ], [ 109.5505142, -6.8180239 ], [ 109.5518339, -6.8193982 ], [ 109.5525607, -6.8199228 ], [ 109.5529979, -6.8202691 ], [ 109.5534486, -6.8206552 ], [ 109.5541325, -6.8213264 ], [ 109.5548728, -6.8220588 ], [ 109.555707, -6.8228897 ], [ 109.5566323, -6.8238298 ], [ 109.5574209, -6.8246767 ], [ 109.5581531, -6.8254224 ], [ 109.5588881, -6.8261335 ], [ 109.5595586, -6.8267247 ], [ 109.5600817, -6.827244 ], [ 109.5608273, -6.8279231 ], [ 109.5615166, -6.8284877 ], [ 109.561927, -6.8288526 ], [ 109.562493, -6.829284 ], [ 109.5631286, -6.8297261 ], [ 109.5637295, -6.8301868 ], [ 109.56451, -6.8308127 ], [ 109.5652047, -6.831332 ], [ 109.5656982, -6.8316542 ], [ 109.5659611, -6.8317927 ], [ 109.5662722, -6.8319259 ], [ 109.5668033, -6.8321496 ], [ 109.5672324, -6.8323999 ], [ 109.5680264, -6.8329059 ], [ 109.5690966, -6.8335397 ], [ 109.5699602, -6.8340404 ], [ 109.5708132, -6.8345091 ], [ 109.5716876, -6.8349778 ], [ 109.5727175, -6.8354652 ], [ 109.5735571, -6.8358593 ], [ 109.5739903, -6.8360578 ], [ 109.5745267, -6.8363014 ], [ 109.5750403, -6.8365238 ], [ 109.5761186, -6.8370764 ], [ 109.5775455, -6.8376037 ], [ 109.5785594, -6.8380032 ], [ 109.5800185, -6.8384399 ], [ 109.5813435, -6.8388394 ], [ 109.5822072, -6.839127 ], [ 109.5827597, -6.8393001 ], [ 109.5833337, -6.8394093 ], [ 109.5838675, -6.8394732 ], [ 109.5841089, -6.8395132 ], [ 109.5843261, -6.8395718 ], [ 109.5848626, -6.8397528 ], [ 109.5853078, -6.8399419 ], [ 109.5855895, -6.8400245 ], [ 109.5860267, -6.8401097 ], [ 109.5866892, -6.8402402 ], [ 109.5872363, -6.8403014 ], [ 109.5876253, -6.8403467 ], [ 109.5878452, -6.8403734 ], [ 109.5880893, -6.8404479 ], [ 109.5885211, -6.8406157 ], [ 109.588851, -6.8407116 ], [ 109.5892614, -6.8408101 ], [ 109.5895565, -6.8408607 ], [ 109.58994, -6.8409459 ], [ 109.5905006, -6.8410711 ], [ 109.591139, -6.8412016 ], [ 109.5917022, -6.8413214 ], [ 109.5919463, -6.8413427 ], [ 109.5921367, -6.8413161 ], [ 109.5922601, -6.8412548 ], [ 109.5923915, -6.841135 ], [ 109.5924962, -6.8410711 ], [ 109.5926169, -6.8410285 ], [ 109.5931184, -6.8409965 ], [ 109.5934483, -6.8410045 ], [ 109.593679, -6.8410524 ], [ 109.5940465, -6.8411696 ], [ 109.5943496, -6.8412788 ], [ 109.5945936, -6.8413294 ], [ 109.5948163, -6.8413481 ], [ 109.5950603, -6.8413108 ], [ 109.595283, -6.8412469 ], [ 109.5954305, -6.8411789 ], [ 109.5955405, -6.8411097 ], [ 109.5956799, -6.8410098 ], [ 109.5958167, -6.8409233 ], [ 109.5958905, -6.8408987 ], [ 109.5960072, -6.8408833 ], [ 109.5961681, -6.8408873 ], [ 109.5963907, -6.8409326 ], [ 109.5968655, -6.8410178 ], [ 109.5973456, -6.8410924 ], [ 109.5979947, -6.8411563 ], [ 109.5984614, -6.8411883 ], [ 109.5991507, -6.8412362 ], [ 109.5997032, -6.8412735 ], [ 109.6000949, -6.8413081 ], [ 109.6006769, -6.8412895 ], [ 109.6012697, -6.8412602 ], [ 109.6017149, -6.8412602 ], [ 109.6021226, -6.8413081 ], [ 109.6026108, -6.8414093 ], [ 109.6031365, -6.8415158 ] ] } },
{ "type": "Feature", "properties": { "FID": 704887 }, "geometry": { "type": "LineString", "coordinates": [ [ 109.6031365, -6.8415158 ], [ 109.6036515, -6.8415691 ], [ 109.6042442, -6.841633 ], [ 109.6048021, -6.8416916 ], [ 109.6053466, -6.8417369 ], [ 109.6057382, -6.8417875 ], [ 109.6062478, -6.8418554 ], [ 109.6065362, -6.841878 ], [ 109.6067038, -6.841866 ], [ 109.6068393, -6.8418287 ], [ 109.6069157, -6.8417875 ], [ 109.6069626, -6.8417715 ], [ 109.6070203, -6.8417635 ], [ 109.6071678, -6.8417981 ], [ 109.6074709, -6.841878 ], [ 109.6076386, -6.8419086 ], [ 109.6077579, -6.8419153 ], [ 109.6080127, -6.8419393 ], [ 109.608167, -6.8419686 ], [ 109.6085358, -6.8420445 ], [ 109.6088308, -6.8421097 ], [ 109.6089193, -6.8421177 ], [ 109.6090762, -6.842103 ], [ 109.6092077, -6.8420857 ], [ 109.6092801, -6.8420804 ], [ 109.609386, -6.8420857 ], [ 109.609834, -6.8421576 ], [ 109.6101853, -6.8422029 ], [ 109.6104884, -6.8422349 ], [ 109.6109015, -6.8422722 ], [ 109.6113896, -6.8423094 ], [ 109.6116471, -6.8423161 ], [ 109.6118805, -6.8423054 ], [ 109.6121219, -6.8423028 ], [ 109.6123324, -6.8423094 ], [ 109.6125725, -6.8423294 ], [ 109.6127455, -6.842364 ], [ 109.613058, -6.8424226 ], [ 109.6132471, -6.8424479 ], [ 109.6134898, -6.8424879 ], [ 109.6137071, -6.8424998 ], [ 109.6139324, -6.8425172 ], [ 109.614222, -6.8425411 ], [ 109.6144943, -6.8425598 ], [ 109.6147223, -6.8425544 ], [ 109.614906, -6.8425598 ], [ 109.6150844, -6.8425757 ], [ 109.6152922, -6.842613 ], [ 109.6162198, -6.8427341 ], [ 109.6163816, -6.8426569 ], [ 109.6164736, -6.8425065 ], [ 109.6164697, -6.8422495 ], [ 109.6165046, -6.8421843 ], [ 109.6165757, -6.842143 ], [ 109.6166374, -6.842133 ], [ 109.6166843, -6.8421443 ], [ 109.6168198, -6.8422069 ], [ 109.61697, -6.8422682 ], [ 109.6170518, -6.8422562 ], [ 109.6171296, -6.8422242 ], [ 109.6171819, -6.8421656 ], [ 109.6172395, -6.8420964 ], [ 109.6172932, -6.8420764 ], [ 109.6173401, -6.8420684 ], [ 109.6175386, -6.8420857 ], [ 109.6178658, -6.842123 ], [ 109.6180563, -6.8421244 ], [ 109.618185, -6.842107 ], [ 109.6183875, -6.8420431 ], [ 109.6184935, -6.8420232 ], [ 109.6186383, -6.8420285 ], [ 109.6190098, -6.8420431 ], [ 109.6192391, -6.8420471 ], [ 109.6194041, -6.8420218 ], [ 109.6195905, -6.8419832 ], [ 109.6197809, -6.8419712 ], [ 109.6201873, -6.8419499 ], [ 109.6205829, -6.8419499 ], [ 109.6207358, -6.8419353 ], [ 109.6208659, -6.8419153 ], [ 109.6209598, -6.841922 ], [ 109.6211193, -6.8419805 ], [ 109.6212105, -6.8420445 ], [ 109.621232, -6.8420911 ], [ 109.6212226, -6.8421483 ], [ 109.6211797, -6.8422668 ], [ 109.6211743, -6.8423188 ], [ 109.621181, -6.8423827 ], [ 109.6212065, -6.8424825 ], [ 109.6213031, -6.8426383 ], [ 109.6215418, -6.842862 ], [ 109.621684, -6.8429712 ], [ 109.6218692, -6.843063 ], [ 109.6223609, -6.8431435 ], [ 109.622821, -6.8432188 ], [ 109.6233396, -6.8414563 ], [ 109.6235849, -6.8406224 ], [ 109.6239443, -6.8394446 ], [ 109.6239403, -6.8394088 ], [ 109.6239413, -6.8393897 ], [ 109.6239485, -6.8393721 ], [ 109.6239611, -6.8393579 ], [ 109.6239778, -6.8393485 ], [ 109.6239966, -6.8393451 ], [ 109.6240155, -6.839348 ], [ 109.6240315, -6.8393562 ], [ 109.6240441, -6.839369 ], [ 109.6240522, -6.8393849 ], [ 109.6240549, -6.8394026 ], [ 109.6240519, -6.8394203 ], [ 109.6240428, -6.8394372 ], [ 109.6240285, -6.8394502 ], [ 109.6240045, -6.8394661 ], [ 109.6236373, -6.8406424 ], [ 109.6238125, -6.8407829 ], [ 109.6239905, -6.8408869 ], [ 109.6245847, -6.8413077 ], [ 109.6250582, -6.8416104 ], [ 109.6253867, -6.841866 ], [ 109.6256617, -6.8420538 ], [ 109.6259339, -6.8422069 ], [ 109.6262598, -6.842416 ], [ 109.6265817, -6.8426117 ], [ 109.6270189, -6.8428913 ], [ 109.627444, -6.8431723 ], [ 109.6277082, -6.8433281 ], [ 109.6279496, -6.8434439 ], [ 109.6281883, -6.8435611 ], [ 109.6283868, -6.8436583 ], [ 109.6284954, -6.8437036 ], [ 109.6286617, -6.8437768 ], [ 109.6288414, -6.8438713 ], [ 109.6291955, -6.8440484 ], [ 109.6294369, -6.8441603 ], [ 109.6295281, -6.8442096 ], [ 109.6295831, -6.8442435 ], [ 109.6296917, -6.8443074 ], [ 109.6298017, -6.844366 ], [ 109.6299512, -6.8444512 ], [ 109.6300712, -6.8445191 ], [ 109.6303019, -6.844623 ], [ 109.6306345, -6.8447622 ], [ 109.6313775, -6.8450604 ], [ 109.6323243, -6.8454386 ], [ 109.6333113, -6.8457874 ], [ 109.6340972, -6.8460671 ], [ 109.6347463, -6.8462854 ], [ 109.6355402, -6.8465198 ], [ 109.635964, -6.846621 ], [ 109.6365488, -6.8467461 ], [ 109.6369994, -6.8468607 ], [ 109.6376377, -6.8470231 ], [ 109.6380588, -6.8471536 ], [ 109.6386141, -6.8473134 ], [ 109.6391264, -6.8474412 ], [ 109.6396118, -6.847585 ], [ 109.6400973, -6.8477421 ], [ 109.6403924, -6.8478207 ], [ 109.6406324, -6.8478633 ], [ 109.640902, -6.8479272 ], [ 109.6412212, -6.8479978 ], [ 109.6415082, -6.8480777 ], [ 109.6418273, -6.8481722 ], [ 109.642235, -6.8482774 ], [ 109.642463, -6.8483254 ], [ 109.6429056, -6.8484106 ], [ 109.6434125, -6.8484878 ], [ 109.6439329, -6.8485491 ], [ 109.6445417, -6.8486582 ], [ 109.6451104, -6.8487568 ], [ 109.6457407, -6.8488739 ], [ 109.6463791, -6.8489672 ], [ 109.6467197, -6.8489831 ], [ 109.6469745, -6.8489698 ], [ 109.6471837, -6.8489405 ], [ 109.6473607, -6.8489432 ], [ 109.6478972, -6.8489778 ], [ 109.6483746, -6.8490684 ], [ 109.6495253, -6.8493373 ], [ 109.6499947, -6.8494651 ], [ 109.6503192, -6.8495317 ], [ 109.6507081, -6.8495317 ], [ 109.6510971, -6.8494705 ], [ 109.6515906, -6.849332 ], [ 109.6518588, -6.8492974 ], [ 109.6521485, -6.8493134 ], [ 109.6527466, -6.8494598 ], [ 109.653275, -6.8495317 ], [ 109.6536425, -6.849561 ], [ 109.653967, -6.8495663 ], [ 109.6542513, -6.8496063 ], [ 109.6547207, -6.8497181 ], [ 109.6553537, -6.8498939 ], [ 109.6555656, -6.8499658 ], [ 109.6557775, -6.850075 ], [ 109.6559653, -6.8501735 ], [ 109.656094, -6.8502002 ], [ 109.6561691, -6.8501895 ], [ 109.6562912, -6.8501682 ], [ 109.6564494, -6.8501562 ], [ 109.6566814, -6.8501602 ], [ 109.6570046, -6.8501655 ], [ 109.6572058, -6.8501349 ], [ 109.6573412, -6.8500896 ], [ 109.6575129, -6.8500244 ], [ 109.6579447, -6.8499285 ], [ 109.6587494, -6.849806 ], [ 109.6588352, -6.8497474 ], [ 109.6588728, -6.8496409 ], [ 109.6588617, -6.8493923 ], [ 109.6588393, -6.8488939 ], [ 109.6588661, -6.8488686 ], [ 109.6589009, -6.8488673 ], [ 109.6590042, -6.8489206 ], [ 109.6593851, -6.8491749 ], [ 109.6597767, -6.8493932 ], [ 109.66023, -6.8496702 ], [ 109.6606109, -6.8498859 ], [ 109.660804, -6.8499631 ], [ 109.6609434, -6.8499818 ], [ 109.6610427, -6.8499698 ], [ 109.6611607, -6.8499019 ], [ 109.661203, -6.8498839 ], [ 109.6612371, -6.8498826 ], [ 109.6613418, -6.8499185 ], [ 109.6615228, -6.8499698 ], [ 109.6616207, -6.8499751 ], [ 109.6617079, -6.8499671 ], [ 109.6618085, -6.8499671 ], [ 109.6618943, -6.8499951 ], [ 109.6620928, -6.8501003 ], [ 109.6624589, -6.8503 ], [ 109.6627915, -6.8505064 ], [ 109.6631053, -6.8507248 ], [ 109.6633762, -6.8509804 ], [ 109.6636364, -6.8512547 ], [ 109.6639395, -6.8514917 ], [ 109.6641809, -6.8516648 ], [ 109.6645778, -6.8519524 ], [ 109.6650526, -6.8522693 ], [ 109.6654844, -6.8525543 ], [ 109.666391, -6.8530283 ], [ 109.6676999, -6.853529 ], [ 109.6692234, -6.854232 ], [ 109.6703714, -6.8547433 ], [ 109.6712485, -6.8551721 ], [ 109.6717554, -6.8553718 ], [ 109.6720773, -6.8555103 ], [ 109.6723323, -6.8556271 ], [ 109.6726003, -6.8557499 ], [ 109.6730348, -6.8559337 ], [ 109.6736032, -6.85618 ], [ 109.67392, -6.8563172 ], [ 109.6744108, -6.8565435 ], [ 109.6747005, -6.8566793 ], [ 109.6750841, -6.8568764 ], [ 109.6754166, -6.8570096 ], [ 109.6757251, -6.8570948 ], [ 109.6759571, -6.857148 ], [ 109.6760134, -6.8571494 ], [ 109.676059, -6.8571281 ], [ 109.6760912, -6.8570921 ], [ 109.6761355, -6.8570482 ], [ 109.6762039, -6.8570215 ], [ 109.6763755, -6.8570442 ], [ 109.6764304, -6.8570559 ], [ 109.6768583, -6.8571467 ], [ 109.6773076, -6.8572546 ], [ 109.6777032, -6.8573597 ], [ 109.6781243, -6.8574716 ], [ 109.6785696, -6.8575688 ], [ 109.6789759, -6.8576473 ], [ 109.6794051, -6.8577192 ], [ 109.679857, -6.8578018 ], [ 109.6802017, -6.857867 ], [ 109.6803975, -6.857919 ], [ 109.680714, -6.8580135 ], [ 109.6810774, -6.8581333 ], [ 109.6815683, -6.8582758 ], [ 109.6820511, -6.858393 ], [ 109.6822764, -6.8584343 ], [ 109.6825486, -6.8584582 ], [ 109.682892, -6.8585035 ], [ 109.683301, -6.8585648 ], [ 109.6837784, -6.8586353 ], [ 109.6841553, -6.8586886 ], [ 109.6846877, -6.8587698 ], [ 109.6852952, -6.858859 ], [ 109.6859068, -6.8589496 ], [ 109.6865894, -6.8590281 ], [ 109.68716, -6.8591007 ], [ 109.6871667, -6.8590528 ], [ 109.6873565, -6.8590761 ], [ 109.687728, -6.8590967 ], [ 109.687905, -6.8590974 ], [ 109.6881384, -6.8590867 ], [ 109.6882027, -6.8590867 ], [ 109.6882892, -6.8590987 ], [ 109.6889591, -6.8591959 ], [ 109.6892166, -6.8592119 ], [ 109.689462, -6.8592052 ], [ 109.6896699, -6.8592092 ], [ 109.6898577, -6.8592465 ], [ 109.6899475, -6.8592611 ], [ 109.6900253, -6.8592611 ], [ 109.6903217, -6.8592585 ], [ 109.6904089, -6.8592518 ], [ 109.690496, -6.8592265 ], [ 109.6909761, -6.8589908 ], [ 109.6911049, -6.8589296 ], [ 109.6913879, -6.8587898 ], [ 109.6917097, -6.858638 ], [ 109.6918398, -6.8581839 ], [ 109.6917808, -6.858144 ], [ 109.6919082, -6.8576487 ], [ 109.6919954, -6.8576181 ], [ 109.6922582, -6.8567938 ], [ 109.692216, -6.856682 ], [ 109.6922147, -6.856652 ], [ 109.692218, -6.8566254 ], [ 109.6922287, -6.8566074 ], [ 109.6922495, -6.8565968 ], [ 109.692281, -6.8565968 ], [ 109.6922971, -6.8566128 ], [ 109.6923702, -6.8567279 ], [ 109.6924446, -6.8567286 ], [ 109.6924616, -6.8567509 ], [ 109.6924767, -6.8567707 ], [ 109.6924916, -6.8567992 ], [ 109.6924648, -6.8569882 ], [ 109.6923333, -6.8579576 ], [ 109.6927839, -6.8585168 ], [ 109.6928054, -6.8587831 ], [ 109.6927893, -6.8593211 ], [ 109.6927705, -6.8595208 ], [ 109.6926995, -6.8595441 ], [ 109.6926767, -6.859566 ], [ 109.6926619, -6.8596166 ], [ 109.6926673, -6.8596699 ], [ 109.6926814, -6.8597178 ], [ 109.6927088, -6.8597631 ], [ 109.6927384, -6.8598057 ], [ 109.6928135, -6.8599069 ], [ 109.6928644, -6.8599815 ], [ 109.6932661, -6.8600351 ], [ 109.6940599, -6.8601302 ], [ 109.6940751, -6.8600445 ], [ 109.694062, -6.8597837 ], [ 109.6939158, -6.8591852 ], [ 109.6938461, -6.8587611 ], [ 109.693871, -6.8587474 ], [ 109.6933707, -6.8582682 ], [ 109.6933477, -6.8582276 ], [ 109.6933432, -6.8581899 ], [ 109.6935576, -6.8561534 ], [ 109.6935697, -6.8561322 ], [ 109.693597, -6.8561269 ], [ 109.6936223, -6.8561412 ], [ 109.6936295, -6.8561735 ], [ 109.6934107, -6.8581628 ], [ 109.6934185, -6.8582011 ], [ 109.6934377, -6.8582261 ], [ 109.6939574, -6.8587445 ], [ 109.6940644, -6.858896 ], [ 109.6942601, -6.8590886 ], [ 109.6944427, -6.8591986 ], [ 109.694853, -6.8594351 ], [ 109.6950115, -6.8595687 ], [ 109.6953495, -6.8597605 ], [ 109.6957076, -6.8599469 ], [ 109.6959865, -6.8600867 ], [ 109.6963097, -6.8602251 ], [ 109.6966407, -6.8603563 ], [ 109.6968676, -6.8604462 ], [ 109.6973789, -6.8605537 ], [ 109.6976722, -6.8606068 ], [ 109.6990774, -6.8580209 ], [ 109.699114, -6.8579986 ], [ 109.6991623, -6.8580033 ], [ 109.6991932, -6.8580379 ], [ 109.699193, -6.8580859 ], [ 109.6978449, -6.8605752 ], [ 109.6979366, -6.860691 ], [ 109.6981415, -6.8608571 ], [ 109.6984783, -6.8611718 ], [ 109.6987706, -6.8613369 ], [ 109.6991059, -6.8614834 ], [ 109.6995753, -6.8616831 ], [ 109.7000715, -6.8618762 ], [ 109.7001533, -6.8619055 ], [ 109.7002392, -6.8619175 ], [ 109.7007434, -6.8619122 ], [ 109.7016352, -6.8618855 ], [ 109.7017036, -6.8618909 ], [ 109.7017251, -6.8619042 ], [ 109.7017586, -6.8619548 ], [ 109.701996, -6.8623715 ], [ 109.7020295, -6.8624075 ], [ 109.702114, -6.8624634 ], [ 109.7028007, -6.8627883 ], [ 109.7028302, -6.8627949 ], [ 109.7028731, -6.8627896 ], [ 109.702975, -6.8627337 ], [ 109.7031064, -6.8626684 ], [ 109.7034176, -6.8625699 ], [ 109.704013, -6.862996 ], [ 109.7040691, -6.8630269 ], [ 109.7043952, -6.8632064 ], [ 109.7046956, -6.8633209 ], [ 109.7049008, -6.8633781 ], [ 109.7051892, -6.8628855 ], [ 109.7052281, -6.8628522 ], [ 109.7052696, -6.8628509 ], [ 109.7053219, -6.8628748 ], [ 109.7055647, -6.8630839 ], [ 109.7057685, -6.8633342 ], [ 109.7058678, -6.8635046 ], [ 109.7059295, -6.8636085 ], [ 109.7059697, -6.863731 ], [ 109.7060099, -6.8640106 ], [ 109.7060636, -6.8641917 ], [ 109.706136, -6.8642955 ], [ 109.706305, -6.8644686 ], [ 109.70649, -6.8646151 ], [ 109.7069487, -6.864932 ], [ 109.707402, -6.8652356 ], [ 109.7076997, -6.865422 ], [ 109.7080028, -6.8656536 ], [ 109.7083542, -6.8659413 ], [ 109.7086251, -6.8661436 ], [ 109.7088343, -6.8662475 ], [ 109.7091025, -6.866338 ], [ 109.7095263, -6.8665111 ], [ 109.7099367, -6.8666469 ], [ 109.7105214, -6.8669132 ], [ 109.7110176, -6.8671236 ], [ 109.7113153, -6.8671955 ], [ 109.7115058, -6.8672275 ], [ 109.7117096, -6.8672967 ], [ 109.7121575, -6.8674538 ], [ 109.7125411, -6.8676136 ], [ 109.7129112, -6.8677095 ], [ 109.7130695, -6.8677361 ], [ 109.713217, -6.867768 ], [ 109.7133565, -6.867816 ], [ 109.7134946, -6.8678905 ], [ 109.7136529, -6.8680104 ], [ 109.7137709, -6.868069 ], [ 109.7139318, -6.8681169 ], [ 109.7141343, -6.8682168 ], [ 109.714357, -6.8683153 ], [ 109.71466, -6.8684418 ], [ 109.7151147, -6.8686242 ], [ 109.7154231, -6.8687533 ], [ 109.7156605, -6.8688639 ], [ 109.7160467, -6.8690503 ], [ 109.7161902, -6.8691062 ], [ 109.7164464, -6.8691981 ], [ 109.716787, -6.8693552 ], [ 109.7170338, -6.869479 ], [ 109.7175059, -6.8696947 ], [ 109.7179364, -6.8699184 ], [ 109.7183293, -6.8700875 ], [ 109.7186042, -6.8702047 ], [ 109.7189891, -6.8703658 ], [ 109.7192667, -6.870467 ], [ 109.7196074, -6.8705868 ], [ 109.7199185, -6.8707066 ], [ 109.7202283, -6.8708384 ], [ 109.720569, -6.8709636 ], [ 109.7208855, -6.8710794 ], [ 109.7213173, -6.8712645 ], [ 109.7218913, -6.8715095 ], [ 109.7225833, -6.8717838 ], [ 109.7233826, -6.8720874 ], [ 109.7235838, -6.8721499 ], [ 109.7237259, -6.8721739 ], [ 109.7238949, -6.8721912 ], [ 109.7241068, -6.8722312 ], [ 109.7242476, -6.8722631 ], [ 109.7246754, -6.8724136 ], [ 109.7251582, -6.8725574 ], [ 109.7253513, -6.8726093 ], [ 109.7254962, -6.8726426 ], [ 109.7256799, -6.8726626 ], [ 109.7258462, -6.8726905 ], [ 109.7260836, -6.8727504 ], [ 109.7264269, -6.8728996 ], [ 109.7266468, -6.873002 ], [ 109.7267354, -6.8730433 ], [ 109.7269714, -6.8731552 ], [ 109.7272369, -6.873283 ], [ 109.7275534, -6.8733869 ], [ 109.728047, -6.8735227 ], [ 109.7282186, -6.8735653 ], [ 109.7283608, -6.8735733 ], [ 109.728519, -6.87356 ], [ 109.7287577, -6.873552 ], [ 109.7291037, -6.873552 ], [ 109.7296402, -6.8735626 ], [ 109.7298353, -6.8735932 ], [ 109.729946, -6.8736079 ], [ 109.7301391, -6.8737277 ], [ 109.7306594, -6.8741431 ], [ 109.730984, -6.8743775 ], [ 109.7313836, -6.8746012 ], [ 109.7317994, -6.8748035 ], [ 109.7321293, -6.8749846 ], [ 109.7325772, -6.8752376 ], [ 109.7331646, -6.8755918 ], [ 109.7334892, -6.8757569 ], [ 109.7338727, -6.8759273 ], [ 109.7341624, -6.8760764 ], [ 109.7345111, -6.8762442 ], [ 109.7348866, -6.8764119 ], [ 109.7353882, -6.876625 ], [ 109.7355974, -6.8767142 ], [ 109.7358428, -6.8768154 ], [ 109.7364476, -6.8769738 ], [ 109.7368553, -6.8770857 ], [ 109.7376332, -6.8772801 ], [ 109.7382447, -6.8774505 ], [ 109.7387785, -6.877557 ], [ 109.7393069, -6.8776582 ], [ 109.7399399, -6.8777887 ], [ 109.7406962, -6.8779431 ], [ 109.7412971, -6.878063 ], [ 109.7417343, -6.8781775 ], [ 109.7421513, -6.878244 ], [ 109.7424692, -6.8782547 ], [ 109.7428608, -6.878276 ], [ 109.7433355, -6.8783292 ], [ 109.7440885, -6.87837 ], [ 109.7446954, -6.8783825 ], [ 109.7453526, -6.8783825 ], [ 109.7459936, -6.8783505 ], [ 109.7463369, -6.878292 ], [ 109.7466454, -6.8781881 ], [ 109.7468171, -6.8781029 ], [ 109.7468378, -6.8773433 ], [ 109.7468597, -6.8773399 ], [ 109.7469988, -6.8773366 ], [ 109.7476888, -6.8773213 ], [ 109.7478712, -6.8773182 ], [ 109.7479022, -6.8773165 ], [ 109.7479288, -6.8773172 ], [ 109.7482306, -6.877312 ], [ 109.7488636, -6.8773169 ], [ 109.7488935, -6.8773172 ], [ 109.7489246, -6.8773174 ], [ 109.7496012, -6.8773227 ], [ 109.7498647, -6.8773173 ], [ 109.7498798, -6.8773183 ], [ 109.7498372, -6.8777194 ], [ 109.7491841, -6.8777168 ], [ 109.749105, -6.8783612 ], [ 109.749105, -6.8786701 ], [ 109.7491224, -6.8787726 ], [ 109.7491559, -6.8788432 ], [ 109.7492149, -6.8789098 ], [ 109.7493008, -6.8789311 ], [ 109.749683, -6.8789044 ], [ 109.7497071, -6.8789118 ], [ 109.7497212, -6.8789237 ], [ 109.7497286, -6.878959 ], [ 109.7497407, -6.8791148 ], [ 109.7497554, -6.8792666 ], [ 109.7498077, -6.8794876 ], [ 109.7498976, -6.8796034 ], [ 109.7500196, -6.8796833 ], [ 109.7502033, -6.8797619 ], [ 109.7506218, -6.8799616 ], [ 109.7508498, -6.8800774 ], [ 109.7511126, -6.8802412 ], [ 109.7514573, -6.8804849 ], [ 109.7517054, -6.8806473 ], [ 109.7520205, -6.8808577 ], [ 109.7522485, -6.8810121 ], [ 109.7525074, -6.8811825 ], [ 109.7527112, -6.8813357 ], [ 109.7528681, -6.8814249 ], [ 109.7532047, -6.881558 ], [ 109.7535159, -6.8816659 ], [ 109.7538431, -6.8817417 ], [ 109.7541837, -6.8818203 ], [ 109.754409, -6.8818616 ], [ 109.754625, -6.8818602 ], [ 109.7547068, -6.8818336 ], [ 109.7547698, -6.881787 ], [ 109.7548784, -6.8815727 ], [ 109.7549146, -6.8815553 ], [ 109.7549643, -6.881562 ], [ 109.7554256, -6.8817697 ], [ 109.7557756, -6.8819348 ], [ 109.7560626, -6.8820773 ], [ 109.7562417, -6.8821569 ], [ 109.7564864, -6.8822144 ], [ 109.7568633, -6.8823209 ], [ 109.7569746, -6.8823502 ], [ 109.7570229, -6.8823702 ], [ 109.7570483, -6.8823961 ], [ 109.7570872, -6.8824421 ], [ 109.7571382, -6.882502 ], [ 109.7572213, -6.8825766 ], [ 109.7574534, -6.8827084 ], [ 109.7576679, -6.8828322 ], [ 109.7579388, -6.8830066 ], [ 109.7582258, -6.8831717 ], [ 109.7584994, -6.8833475 ], [ 109.7587797, -6.8834899 ], [ 109.7589581, -6.8835419 ], [ 109.7591901, -6.8835658 ], [ 109.7593215, -6.8835365 ], [ 109.7594114, -6.8835019 ], [ 109.759457, -6.8834513 ], [ 109.7595213, -6.8834021 ], [ 109.759571, -6.8833821 ], [ 109.7596528, -6.8834074 ], [ 109.7599143, -6.8835219 ], [ 109.7602361, -6.8837136 ], [ 109.7606814, -6.8839746 ], [ 109.7612929, -6.8842648 ], [ 109.7618616, -6.8845258 ], [ 109.7625911, -6.8848427 ], [ 109.7629908, -6.8849705 ], [ 109.7635058, -6.8850876 ], [ 109.7640207, -6.8852155 ], [ 109.7642876, -6.8852954 ], [ 109.7645505, -6.8853646 ], [ 109.7648884, -6.8854405 ], [ 109.7651634, -6.8854937 ], [ 109.7654946, -6.885567 ], [ 109.7658232, -6.8856442 ], [ 109.7661652, -6.8857401 ], [ 109.7665729, -6.8858466 ], [ 109.7669256, -6.8859451 ], [ 109.7671804, -6.8860436 ], [ 109.7675022, -6.8861648 ], [ 109.7678174, -6.8862833 ], [ 109.7680843, -6.8863592 ], [ 109.7684048, -6.8864271 ], [ 109.7686395, -6.8864484 ], [ 109.7688916, -6.8864843 ], [ 109.7690251, -6.886507 ], [ 109.7690633, -6.886505 ], [ 109.7690941, -6.886491 ], [ 109.769127, -6.886471 ], [ 109.7691458, -6.8864677 ], [ 109.7691733, -6.886471 ], [ 109.7691934, -6.886491 ], [ 109.7692497, -6.8865689 ], [ 109.7693302, -6.8866108 ], [ 109.769467, -6.8866494 ], [ 109.7697607, -6.8867333 ], [ 109.7701053, -6.8868265 ], [ 109.7706498, -6.8869703 ], [ 109.7710119, -6.8870502 ], [ 109.7713606, -6.8871474 ], [ 109.7717455, -6.8872512 ], [ 109.7721612, -6.8873378 ], [ 109.7726025, -6.8874203 ], [ 109.773045, -6.8875268 ], [ 109.7736096, -6.8876799 ], [ 109.7740173, -6.8877758 ], [ 109.7745001, -6.887889 ], [ 109.7749896, -6.8879875 ], [ 109.7752646, -6.8880195 ], [ 109.7755167, -6.8880381 ], [ 109.7757031, -6.88807 ], [ 109.7758573, -6.8880967 ], [ 109.7761604, -6.8881606 ], [ 109.7763602, -6.8882019 ], [ 109.7767451, -6.8882644 ], [ 109.7770214, -6.8883164 ], [ 109.7772856, -6.8883843 ], [ 109.7775418, -6.8884708 ], [ 109.7777778, -6.8885454 ], [ 109.7779977, -6.888596 ], [ 109.7782311, -6.8886386 ], [ 109.7784926, -6.8886785 ], [ 109.7788426, -6.8887291 ], [ 109.7791873, -6.8887837 ], [ 109.7796164, -6.8888077 ], [ 109.7799571, -6.8888263 ], [ 109.7801945, -6.8888543 ], [ 109.7805136, -6.8889168 ], [ 109.7807671, -6.8889594 ], [ 109.780983, -6.8889901 ], [ 109.7813237, -6.8890247 ], [ 109.7816281, -6.889054 ], [ 109.7820184, -6.8890873 ], [ 109.7825937, -6.8891312 ], [ 109.7830778, -6.8891805 ], [ 109.7833045, -6.8892044 ], [ 109.7836733, -6.8892803 ], [ 109.7840005, -6.8893562 ], [ 109.7843827, -6.8894268 ], [ 109.7846161, -6.8894494 ], [ 109.784997, -6.8894574 ], [ 109.7853738, -6.8894401 ], [ 109.7857372, -6.8893828 ], [ 109.7859693, -6.8893256 ], [ 109.7861396, -6.889275 ], [ 109.7863474, -6.889255 ], [ 109.7864802, -6.8892537 ], [ 109.7866814, -6.889287 ], [ 109.786908, -6.8893509 ], [ 109.7873037, -6.8894521 ], [ 109.7874404, -6.889476 ], [ 109.7876322, -6.8895027 ], [ 109.7879259, -6.8895346 ], [ 109.7881097, -6.8895706 ], [ 109.7883537, -6.8896172 ], [ 109.7887507, -6.889705 ], [ 109.7889304, -6.889757 ], [ 109.7892576, -6.8898834 ], [ 109.7895715, -6.8900139 ], [ 109.7897713, -6.8900792 ], [ 109.7899604, -6.8901404 ], [ 109.7903466, -6.8902616 ], [ 109.7906792, -6.8903721 ], [ 109.790938, -6.8904373 ], [ 109.7911499, -6.8904892 ], [ 109.7913256, -6.8905305 ], [ 109.791563, -6.8905824 ], [ 109.7918232, -6.8906463 ], [ 109.7921947, -6.8907329 ], [ 109.7923073, -6.8907609 ], [ 109.7925809, -6.8907928 ], [ 109.7928666, -6.8908221 ], [ 109.7931656, -6.8908634 ], [ 109.7934114, -6.8908931 ], [ 109.7936001, -6.8909007 ], [ 109.7936846, -6.8908833 ], [ 109.7937651, -6.8908248 ], [ 109.7938523, -6.8907422 ], [ 109.7939086, -6.8906996 ], [ 109.7939958, -6.8906743 ], [ 109.7941661, -6.890649 ], [ 109.7942318, -6.8906304 ], [ 109.7942801, -6.8905824 ], [ 109.7943512, -6.8904706 ], [ 109.7943954, -6.8904213 ], [ 109.7945121, -6.8903801 ], [ 109.7947079, -6.8903508 ], [ 109.7948393, -6.8903601 ], [ 109.795019, -6.8904067 ], [ 109.795239, -6.8905145 ], [ 109.7954656, -6.890625 ], [ 109.7957526, -6.8907901 ], [ 109.7960637, -6.8909659 ], [ 109.7963051, -6.8910791 ], [ 109.7966364, -6.8912095 ], [ 109.7968215, -6.8912588 ], [ 109.7970387, -6.8912934 ], [ 109.7973445, -6.8913254 ], [ 109.7974665, -6.8913427 ], [ 109.7975712, -6.8913733 ], [ 109.7977428, -6.8914372 ], [ 109.7979105, -6.8915238 ], [ 109.7980338, -6.891585 ], [ 109.7981505, -6.8916449 ], [ 109.7982149, -6.8916762 ], [ 109.7982625, -6.8916995 ], [ 109.7983235, -6.8917335 ], [ 109.7983993, -6.8917661 ], [ 109.7984677, -6.8918 ], [ 109.7985555, -6.8918533 ], [ 109.7986367, -6.8918952 ], [ 109.7987144, -6.8919258 ], [ 109.7987627, -6.8919332 ], [ 109.7987889, -6.8919232 ], [ 109.798815, -6.8919012 ], [ 109.798917, -6.8917967 ], [ 109.798982, -6.8917381 ], [ 109.7990316, -6.8916795 ], [ 109.7990786, -6.8916076 ], [ 109.7991141, -6.8915484 ], [ 109.7991469, -6.8915025 ], [ 109.7991865, -6.8914505 ], [ 109.7992241, -6.8914112 ], [ 109.7992462, -6.8913953 ], [ 109.7993032, -6.8913906 ], [ 109.7993421, -6.8913939 ], [ 109.7993837, -6.8914033 ], [ 109.7994031, -6.8914226 ], [ 109.7994266, -6.8914718 ], [ 109.7994903, -6.8915897 ], [ 109.7996123, -6.8918313 ], [ 109.7996807, -6.8919831 ], [ 109.7997826, -6.8922201 ], [ 109.7998792, -6.8924158 ], [ 109.7999677, -6.8925543 ], [ 109.8001125, -6.8927154 ], [ 109.8002896, -6.8928618 ], [ 109.8004881, -6.892987 ], [ 109.8006919, -6.8930842 ], [ 109.8008019, -6.8931148 ], [ 109.8008984, -6.8931161 ], [ 109.801117, -6.8931081 ], [ 109.8012163, -6.8931294 ], [ 109.8013329, -6.8931827 ], [ 109.8015837, -6.8933544 ], [ 109.8016629, -6.893433 ], [ 109.8017178, -6.8935076 ], [ 109.8017782, -6.8936727 ], [ 109.8017755, -6.8938271 ], [ 109.8017514, -6.8939922 ], [ 109.8017406, -6.894128 ], [ 109.8017487, -6.8942478 ], [ 109.8017836, -6.8943889 ], [ 109.8018345, -6.8945993 ], [ 109.8019405, -6.8948496 ], [ 109.802092, -6.8951678 ], [ 109.80221, -6.8954301 ], [ 109.8022972, -6.8956378 ], [ 109.802379, -6.8957949 ], [ 109.8025131, -6.8959653 ], [ 109.8026419, -6.8961144 ], [ 109.8028242, -6.896189 ], [ 109.8030978, -6.8962582 ], [ 109.8035431, -6.8964233 ], [ 109.8037389, -6.8965165 ], [ 109.803873, -6.8966364 ], [ 109.8039937, -6.8967988 ], [ 109.8041466, -6.8969852 ], [ 109.804455, -6.8974139 ], [ 109.8048735, -6.8980743 ], [ 109.8050867, -6.8983951 ], [ 109.8053026, -6.8985735 ], [ 109.8055856, -6.8987493 ], [ 109.8058149, -6.8988478 ], [ 109.8061931, -6.8990409 ], [ 109.8064814, -6.8992073 ], [ 109.8069039, -6.899395 ], [ 109.8076281, -6.8997052 ], [ 109.8080753, -6.8998531 ], [ 109.8081351, -6.8998877 ], [ 109.8081998, -6.8999259 ], [ 109.8086406, -6.9001526 ], [ 109.8091301, -6.9003496 ], [ 109.8100863, -6.9006439 ], [ 109.8110721, -6.9009567 ], [ 109.8117482, -6.9011938 ], [ 109.8147333, -6.9020897 ], [ 109.8148942, -6.9021031 ], [ 109.8150055, -6.902111 ], [ 109.8150739, -6.9021629 ], [ 109.8151088, -6.9022495 ], [ 109.8154068, -6.9023228 ], [ 109.8156666, -6.9023867 ], [ 109.8158612, -6.9024333 ], [ 109.8160811, -6.902581 ], [ 109.8162125, -6.9026622 ], [ 109.8163708, -6.9027368 ], [ 109.8166081, -6.902814 ], [ 109.817225, -6.9030537 ], [ 109.8176488, -6.9032267 ], [ 109.8179653, -6.9033519 ], [ 109.8182335, -6.9034291 ], [ 109.8185527, -6.903477 ], [ 109.8188451, -6.903509 ], [ 109.8191777, -6.903517 ], [ 109.8197249, -6.9036235 ], [ 109.8204759, -6.9037992 ], [ 109.8211813, -6.9039723 ], [ 109.8216829, -6.9040549 ], [ 109.8221818, -6.9041481 ], [ 109.8228979, -6.9042626 ], [ 109.823598, -6.9043531 ], [ 109.8240432, -6.904433 ], [ 109.8245528, -6.9045075 ], [ 109.8251885, -6.9046007 ], [ 109.8259208, -6.9046966 ], [ 109.8268032, -6.9048164 ], [ 109.8274228, -6.9048803 ], [ 109.8283106, -6.9049842 ], [ 109.8293111, -6.9051226 ], [ 109.8301908, -6.9052238 ], [ 109.8307702, -6.9052691 ], [ 109.8312342, -6.9052957 ], [ 109.8318297, -6.9053463 ], [ 109.832173, -6.9053703 ], [ 109.8328274, -6.9054288 ], [ 109.8334604, -6.9055141 ], [ 109.8340988, -6.9055913 ], [ 109.8347667, -6.9056712 ], [ 109.8354828, -6.9057297 ], [ 109.8361614, -6.905791 ], [ 109.8368025, -6.9058416 ], [ 109.8374113, -6.9059108 ], [ 109.8381811, -6.9059854 ], [ 109.8387095, -6.9060147 ], [ 109.8390582, -6.9060147 ], [ 109.8394257, -6.9060439 ], [ 109.8397368, -6.9061132 ], [ 109.8399997, -6.9061984 ], [ 109.8403805, -6.9063661 ], [ 109.8407158, -6.9065765 ], [ 109.8412389, -6.9068934 ], [ 109.841322, -6.9069346 ], [ 109.8414062, -6.9069536 ], [ 109.8415504, -6.9068974 ], [ 109.8417101, -6.9068207 ], [ 109.8418316, -6.9067482 ], [ 109.8420073, -6.9066737 ], [ 109.8422205, -6.9066018 ], [ 109.8423573, -6.9065858 ], [ 109.8426041, -6.9065925 ], [ 109.8428965, -6.9066377 ], [ 109.8432344, -6.9067043 ], [ 109.843508, -6.9067682 ], [ 109.8437776, -6.9068481 ], [ 109.8440029, -6.90692 ], [ 109.8443516, -6.9070252 ], [ 109.8446855, -6.9071117 ], [ 109.844998, -6.9072182 ], [ 109.8453668, -6.9073647 ], [ 109.8456243, -6.9074485 ], [ 109.8458616, -6.9075284 ], [ 109.8460776, -6.9076103 ], [ 109.8464021, -6.9077281 ], [ 109.846724, -6.907836 ], [ 109.8470069, -6.9079278 ], [ 109.847365, -6.9080264 ], [ 109.8476815, -6.9081142 ], [ 109.8480396, -6.9082154 ], [ 109.8483668, -6.9082953 ], [ 109.8486592, -6.9083632 ], [ 109.8488469, -6.9083951 ], [ 109.8491688, -6.9084444 ], [ 109.8493955, -6.908487 ], [ 109.8496449, -6.9085443 ], [ 109.8499145, -6.9086175 ], [ 109.8503289, -6.9087293 ], [ 109.8506789, -6.9088199 ], [ 109.8509444, -6.9088957 ], [ 109.8512971, -6.9089836 ], [ 109.8514826, -6.9090199 ], [ 109.8518014, -6.9091008 ], [ 109.8521166, -6.909174 ], [ 109.8524223, -6.9092632 ], [ 109.8527603, -6.9093258 ], [ 109.8530526, -6.9093817 ], [ 109.8533061, -6.9094443 ], [ 109.8536374, -6.9095601 ], [ 109.853805, -6.9096227 ], [ 109.8539552, -6.9096879 ], [ 109.8541175, -6.9097665 ], [ 109.8542771, -6.9098676 ], [ 109.8543602, -6.9099302 ], [ 109.8544259, -6.9100154 ], [ 109.8544407, -6.9101033 ], [ 109.8544662, -6.9102258 ], [ 109.8545091, -6.9103083 ], [ 109.8545493, -6.9103443 ], [ 109.854615, -6.9103509 ], [ 109.8546673, -6.910327 ], [ 109.8547009, -6.910275 ], [ 109.8547411, -6.9101965 ], [ 109.8547934, -6.9101259 ], [ 109.8548511, -6.9101099 ], [ 109.8549168, -6.9101139 ], [ 109.8552091, -6.9102324 ], [ 109.8553701, -6.910279 ], [ 109.8556034, -6.9103323 ], [ 109.8559628, -6.9104015 ], [ 109.8562512, -6.9104801 ], [ 109.856616, -6.9105826 ], [ 109.856919, -6.9106505 ], [ 109.8572865, -6.9107557 ], [ 109.8577854, -6.9109434 ], [ 109.8583701, -6.9112017 ], [ 109.8590434, -6.9115105 ], [ 109.8595959, -6.9117528 ], [ 109.8601806, -6.9120298 ], [ 109.8608592, -6.9123147 ], [ 109.8614949, -6.912557 ], [ 109.8620045, -6.9127514 ], [ 109.8624592, -6.9129391 ], [ 109.862891, -6.9131162 ], [ 109.8632437, -6.91324 ], [ 109.8636474, -6.9133731 ], [ 109.8640859, -6.9135009 ], [ 109.8645687, -6.9136514 ], [ 109.8652098, -6.9138218 ], [ 109.8657462, -6.9139709 ], [ 109.8663014, -6.914144 ], [ 109.8668137, -6.9142877 ], [ 109.8675218, -6.9145167 ], [ 109.868187, -6.9146978 ], [ 109.8689997, -6.9149108 ], [ 109.869563, -6.9150599 ], [ 109.8700887, -6.9151744 ], [ 109.870373, -6.9152223 ], [ 109.8708424, -6.9153155 ], [ 109.8713735, -6.9154167 ], [ 109.8720387, -6.9155232 ], [ 109.8726797, -6.9156218 ], [ 109.8734951, -6.9157842 ] ] } }
]
}
