{
"type": "FeatureCollection",
"name": "coastline_cirebon_jabar",
"crs": { "type": "name", "properties": { "name": "urn:ogc:def:crs:OGC:1.3:CRS84" } },
"features": [
{ "type": "Feature", "properties": { "FID": 704883 }, "geometry": { "type": "LineString", "coordinates": [ [ 108.4921762, -6.4652513 ], [ 108.4922835, -6.46525 ], [ 108.4923774, -6.4652473 ], [ 108.4924431, -6.465258 ], [ 108.492647, -6.4653433 ], [ 108.4928401, -6.4653939 ], [ 108.4930935, -6.4654286 ], [ 108.4933282, -6.4654499 ], [ 108.4934691, -6.4654392 ], [ 108.4936394, -6.4654032 ], [ 108.493803, -6.4653193 ], [ 108.4938969, -6.4652527 ], [ 108.4939364, -6.4652154 ], [ 108.4939706, -6.4651687 ], [ 108.4939901, -6.4651481 ], [ 108.4940109, -6.4651387 ], [ 108.4940276, -6.4651354 ], [ 108.4940585, -6.4651467 ], [ 108.4940987, -6.4651854 ], [ 108.4941865, -6.465278 ], [ 108.4942489, -6.4653313 ], [ 108.4943562, -6.4653926 ], [ 108.4946452, -6.4655232 ], [ 108.4948732, -6.4656271 ], [ 108.4950905, -6.4657511 ], [ 108.4953774, -6.4659136 ], [ 108.4955518, -6.4659976 ], [ 108.4956577, -6.4660256 ], [ 108.4957798, -6.4660549 ], [ 108.4959421, -6.4661002 ], [ 108.4960265, -6.4661495 ], [ 108.4963471, -6.4663587 ], [ 108.4966502, -6.4665439 ], [ 108.4967668, -6.4665946 ], [ 108.4968728, -6.4666172 ], [ 108.497019, -6.4666239 ], [ 108.497137, -6.4666146 ], [ 108.4972416, -6.4666279 ], [ 108.4973542, -6.4666812 ], [ 108.4976412, -6.4668344 ], [ 108.4978035, -6.4668784 ], [ 108.4979457, -6.4668891 ], [ 108.498112, -6.4668611 ], [ 108.4982045, -6.4668358 ], [ 108.4982635, -6.4668291 ], [ 108.4984057, -6.4668904 ], [ 108.4987289, -6.4670556 ], [ 108.4990092, -6.4671996 ], [ 108.4991071, -6.4672449 ], [ 108.4992264, -6.4673328 ], [ 108.4992801, -6.4674221 ], [ 108.4993377, -6.4675234 ], [ 108.4994531, -6.4677846 ], [ 108.4994987, -6.4678645 ], [ 108.4995818, -6.4679325 ], [ 108.4996864, -6.4680004 ], [ 108.4998755, -6.468103 ], [ 108.4999506, -6.468159 ], [ 108.4999989, -6.468243 ], [ 108.5001504, -6.4685175 ], [ 108.5002886, -6.46868 ], [ 108.5003945, -6.4687507 ], [ 108.5006051, -6.4688599 ], [ 108.5007673, -6.4689412 ], [ 108.5009725, -6.4690558 ], [ 108.501045, -6.4691371 ], [ 108.5010825, -6.4691891 ], [ 108.5011536, -6.469305 ], [ 108.5012247, -6.4693916 ], [ 108.5013159, -6.4694649 ], [ 108.5015935, -6.4695968 ], [ 108.5017973, -6.4696741 ], [ 108.5019287, -6.4697048 ], [ 108.502036, -6.4697035 ], [ 108.5021044, -6.4697021 ], [ 108.502197, -6.4697354 ], [ 108.5023995, -6.469882 ], [ 108.5027052, -6.4700646 ], [ 108.5030231, -6.4702525 ], [ 108.5033543, -6.4704497 ], [ 108.5035193, -6.470515 ], [ 108.5036802, -6.4705483 ], [ 108.5038452, -6.4705709 ], [ 108.5039592, -6.4705416 ], [ 108.5040893, -6.4704603 ], [ 108.5041831, -6.4703897 ], [ 108.5042435, -6.4703791 ], [ 108.504324, -6.4703951 ], [ 108.5045211, -6.470523 ], [ 108.5046753, -6.4705923 ], [ 108.5047357, -6.4706069 ], [ 108.5048524, -6.4706069 ], [ 108.5050119, -6.470553 ], [ 108.5050522, -6.4705496 ], [ 108.505077, -6.4705636 ], [ 108.5050978, -6.4706003 ], [ 108.5050984, -6.4706476 ], [ 108.5050991, -6.4708135 ], [ 108.5051313, -6.4709307 ], [ 108.5052815, -6.4710906 ], [ 108.505767, -6.4714131 ], [ 108.5065019, -6.4717809 ], [ 108.5068184, -6.4719062 ], [ 108.506978, -6.4719355 ], [ 108.5070451, -6.4719275 ], [ 108.5071014, -6.4719075 ], [ 108.5071711, -6.4719062 ], [ 108.507273, -6.4719422 ], [ 108.5075869, -6.4720714 ], [ 108.5077344, -6.4721167 ], [ 108.5078859, -6.4721634 ], [ 108.5079449, -6.4721913 ], [ 108.5080831, -6.4722966 ], [ 108.5082306, -6.4724285 ], [ 108.5083178, -6.4724712 ], [ 108.5084465, -6.4725138 ], [ 108.508704, -6.4725751 ], [ 108.5091734, -6.4727697 ], [ 108.509801, -6.4730868 ], [ 108.5105655, -6.4735079 ], [ 108.5113808, -6.473921 ], [ 108.5119763, -6.4742195 ], [ 108.5125825, -6.474486 ], [ 108.5131752, -6.4747578 ], [ 108.5138109, -6.4750377 ], [ 108.5143554, -6.4752429 ], [ 108.5151279, -6.4755387 ], [ 108.515726, -6.4757279 ], [ 108.5162222, -6.4758612 ], [ 108.5169196, -6.4760264 ], [ 108.5173058, -6.476141 ], [ 108.5176223, -6.4762583 ], [ 108.518317, -6.4765141 ], [ 108.5191029, -6.4767913 ], [ 108.5196635, -6.4769565 ], [ 108.5200712, -6.4770685 ], [ 108.5204172, -6.4771298 ], [ 108.5207632, -6.4771911 ], [ 108.5210529, -6.477271 ], [ 108.5214445, -6.4774203 ], [ 108.5219461, -6.4776042 ], [ 108.5227051, -6.4778573 ], [ 108.5235554, -6.4781532 ], [ 108.5241348, -6.4783504 ], [ 108.5247678, -6.4785503 ], [ 108.5252398, -6.4786702 ], [ 108.5255778, -6.4787315 ], [ 108.5260311, -6.4788168 ], [ 108.5264415, -6.47891 ], [ 108.5271201, -6.4790566 ], [ 108.5277665, -6.4792299 ], [ 108.528327, -6.4793898 ], [ 108.5290325, -6.479579 ], [ 108.5300624, -6.4798188 ], [ 108.5313284, -6.480112 ], [ 108.5320258, -6.4802959 ], [ 108.5323745, -6.4804238 ], [ 108.5326642, -6.4805144 ], [ 108.5328157, -6.4805384 ], [ 108.5329445, -6.4805317 ], [ 108.5331027, -6.4805118 ], [ 108.5331845, -6.4805224 ], [ 108.5333575, -6.4805677 ], [ 108.5339838, -6.4807676 ], [ 108.5351264, -6.4812153 ], [ 108.5362986, -6.4816338 ], [ 108.5369986, -6.4818709 ], [ 108.5373634, -6.4819802 ], [ 108.5374747, -6.4819869 ], [ 108.5375471, -6.4819735 ], [ 108.5377966, -6.4818083 ], [ 108.5378449, -6.481811 ], [ 108.5379092, -6.4818416 ], [ 108.5379548, -6.4819149 ], [ 108.5380273, -6.4819975 ], [ 108.5380916, -6.4820348 ], [ 108.538215, -6.4820668 ], [ 108.5383491, -6.4821015 ], [ 108.5384966, -6.4821574 ], [ 108.5387287, -6.4822774 ], [ 108.5389768, -6.4824133 ], [ 108.5394287, -6.4826305 ], [ 108.5397935, -6.4828783 ], [ 108.5403568, -6.4832275 ], [ 108.5411212, -6.4836779 ], [ 108.5414055, -6.4838964 ], [ 108.541781, -6.4841496 ], [ 108.5422343, -6.4844454 ], [ 108.5429773, -6.4849038 ], [ 108.5435298, -6.4851916 ], [ 108.5436773, -6.4852849 ], [ 108.5437578, -6.4854021 ], [ 108.5437605, -6.4854848 ], [ 108.5437256, -6.485554 ], [ 108.543672, -6.4855674 ], [ 108.5435727, -6.485562 ], [ 108.5431194, -6.4854874 ], [ 108.5425562, -6.4854101 ], [ 108.5417032, -6.4853462 ], [ 108.5411346, -6.4853782 ], [ 108.5407698, -6.4854848 ], [ 108.5404345, -6.4856367 ], [ 108.54022, -6.4857832 ], [ 108.5400872, -6.4859858 ], [ 108.5400577, -6.4862776 ], [ 108.5400389, -6.4864682 ], [ 108.5400148, -6.4865041 ], [ 108.5399625, -6.4865215 ], [ 108.5398377, -6.4865255 ], [ 108.538899, -6.4865135 ], [ 108.5388252, -6.4865228 ], [ 108.5388038, -6.4865428 ], [ 108.5386884, -6.4871158 ], [ 108.5383236, -6.4888374 ], [ 108.5381681, -6.4898661 ], [ 108.5380447, -6.4909028 ], [ 108.5378998, -6.4917049 ], [ 108.537755, -6.4922646 ], [ 108.5376102, -6.4927096 ], [ 108.5375351, -6.4930907 ], [ 108.5374197, -6.4935918 ], [ 108.5373339, -6.4938796 ], [ 108.5372293, -6.4943166 ], [ 108.5371461, -6.4948283 ], [ 108.5370871, -6.4951268 ], [ 108.537012, -6.4955265 ], [ 108.5369689, -6.4958393 ], [ 108.5368994, -6.4965499 ], [ 108.5368377, -6.4973334 ], [ 108.5368699, -6.4981289 ], [ 108.5368766, -6.4990123 ], [ 108.5368726, -6.4998358 ], [ 108.5368994, -6.5007419 ], [ 108.5369316, -6.5012136 ], [ 108.5369627, -6.501771 ], [ 108.5369879, -6.5022209 ], [ 108.5371273, -6.5038493 ], [ 108.5371877, -6.5050298 ], [ 108.5372829, -6.5061224 ], [ 108.5376209, -6.508393 ], [ 108.5380393, -6.5104876 ], [ 108.5383773, -6.5123104 ], [ 108.5387206, -6.5137814 ], [ 108.5389352, -6.5146768 ], [ 108.5393777, -6.5160839 ], [ 108.5394126, -6.5162224 ], [ 108.5395682, -6.5172191 ], [ 108.5400617, -6.5190952 ], [ 108.5404801, -6.5206674 ], [ 108.5407162, -6.5216641 ], [ 108.5410649, -6.5230445 ], [ 108.5413974, -6.5241477 ], [ 108.5416442, -6.5251444 ], [ 108.5419768, -6.5261304 ], [ 108.542304, -6.5272229 ], [ 108.5427117, -6.5283049 ], [ 108.5429102, -6.5289657 ], [ 108.5431248, -6.5298238 ], [ 108.5433125, -6.5308311 ], [ 108.5434145, -6.5316039 ], [ 108.5435647, -6.5326858 ], [ 108.5437256, -6.5335705 ], [ 108.5438812, -6.5346631 ], [ 108.5439563, -6.5354945 ], [ 108.5439992, -6.5363739 ], [ 108.5440099, -6.5367203 ], [ 108.5440341, -6.5372799 ], [ 108.5440743, -6.5376636 ], [ 108.5441159, -6.5379754 ], [ 108.5441534, -6.5382885 ], [ 108.5441776, -6.538563 ], [ 108.5441802, -6.5386309 ], [ 108.5441695, -6.5386656 ], [ 108.544132, -6.5387575 ], [ 108.5440703, -6.5388961 ], [ 108.5438409, -6.5391346 ], [ 108.5436881, -6.5392545 ], [ 108.5434467, -6.5393691 ], [ 108.5432026, -6.539465 ], [ 108.5430819, -6.5395849 ], [ 108.5429826, -6.5397421 ], [ 108.5429102, -6.5399526 ], [ 108.5428727, -6.5402591 ], [ 108.5428807, -6.5405282 ], [ 108.54298, -6.5409466 ], [ 108.5431194, -6.541365 ], [ 108.5433099, -6.5417887 ], [ 108.5433823, -6.5421511 ], [ 108.5434306, -6.5430038 ], [ 108.5434037, -6.5441976 ], [ 108.5435539, -6.5459883 ], [ 108.5436961, -6.5472887 ], [ 108.5439509, -6.5486583 ], [ 108.5442299, -6.5501559 ], [ 108.5444927, -6.5516481 ], [ 108.544718, -6.5526714 ], [ 108.545115, -6.5539451 ], [ 108.5454637, -6.5550749 ], [ 108.545748, -6.5563113 ], [ 108.5459357, -6.5573452 ], [ 108.5460001, -6.5584324 ], [ 108.5459304, -6.5592105 ], [ 108.5457748, -6.5599672 ], [ 108.5456434, -6.5604469 ], [ 108.5454798, -6.5607799 ], [ 108.5453832, -6.5609318 ], [ 108.5452893, -6.5610198 ], [ 108.5451445, -6.5611796 ], [ 108.5449997, -6.5614994 ], [ 108.5448816, -6.5617126 ], [ 108.5447891, -6.5618485 ], [ 108.5447395, -6.5618858 ], [ 108.5446389, -6.5619204 ], [ 108.544541, -6.5619684 ], [ 108.5444713, -6.562031 ], [ 108.544376, -6.5621722 ], [ 108.5442822, -6.5623694 ], [ 108.5441762, -6.5626225 ], [ 108.5440877, -6.5628997 ], [ 108.5439818, -6.56327 ], [ 108.5439026, -6.5636577 ], [ 108.5438436, -6.5640867 ], [ 108.5437202, -6.5647716 ], [ 108.5436505, -6.5652405 ], [ 108.5436317, -6.5656029 ], [ 108.543629, -6.5660452 ], [ 108.543613, -6.5666874 ], [ 108.543562, -6.5672736 ], [ 108.5433957, -6.5682968 ], [ 108.5433072, -6.5692374 ], [ 108.5431838, -6.5700528 ], [ 108.5431167, -6.5707616 ], [ 108.5430282, -6.571553 ], [ 108.543055, -6.5723044 ], [ 108.5430604, -6.5732956 ], [ 108.543098, -6.5739671 ], [ 108.5431087, -6.5748304 ], [ 108.543098, -6.5759495 ], [ 108.5431087, -6.5775589 ], [ 108.5431623, -6.5795626 ], [ 108.5431945, -6.580799 ], [ 108.5436344, -6.5847212 ], [ 108.5441494, -6.5877267 ], [ 108.5444927, -6.5897091 ], [ 108.5446107, -6.5904658 ], [ 108.5447287, -6.5915743 ], [ 108.5452974, -6.5945478 ], [ 108.5459304, -6.5979157 ], [ 108.546853, -6.6025838 ], [ 108.5476202, -6.6057597 ], [ 108.5484409, -6.608957 ], [ 108.5495353, -6.6129216 ], [ 108.5505867, -6.6160975 ], [ 108.551327, -6.6179732 ], [ 108.5519063, -6.619412 ], [ 108.5523301, -6.6208294 ], [ 108.5525501, -6.6217992 ], [ 108.5526359, -6.6223587 ], [ 108.5526359, -6.6228116 ], [ 108.5524964, -6.6231686 ], [ 108.5522819, -6.6233978 ], [ 108.551901, -6.6236749 ], [ 108.5516113, -6.6239839 ], [ 108.551563, -6.6242663 ], [ 108.5516113, -6.6245647 ], [ 108.5517991, -6.6249324 ], [ 108.5520995, -6.6255825 ], [ 108.5525769, -6.6267068 ], [ 108.5528451, -6.6275274 ], [ 108.5534191, -6.6294883 ], [ 108.5539287, -6.6307406 ], [ 108.5544759, -6.6321686 ], [ 108.5551196, -6.6337565 ], [ 108.5559457, -6.6359465 ], [ 108.5565788, -6.6371614 ], [ 108.5572761, -6.6384189 ], [ 108.5580218, -6.6398416 ], [ 108.558526, -6.6408913 ], [ 108.5588211, -6.641552 ], [ 108.5591698, -6.6420582 ], [ 108.5594192, -6.642346 ], [ 108.5597974, -6.6426763 ], [ 108.5602909, -6.6430573 ], [ 108.5605645, -6.6432598 ], [ 108.5606933, -6.643417 ], [ 108.5607147, -6.6435662 ], [ 108.5606343, -6.6437793 ], [ 108.5604948, -6.6439978 ], [ 108.5584778, -6.6455217 ], [ 108.5583544, -6.6457402 ], [ 108.5583276, -6.6459266 ], [ 108.5583222, -6.6463316 ], [ 108.5583007, -6.6466939 ], [ 108.5581344, -6.6475305 ], [ 108.5579842, -6.6480313 ], [ 108.5576838, -6.6487986 ], [ 108.5573405, -6.6499868 ], [ 108.557142, -6.6507861 ], [ 108.5569704, -6.6519264 ], [ 108.5569113, -6.6531146 ], [ 108.5568845, -6.654452 ], [ 108.5567987, -6.6554537 ], [ 108.5567397, -6.656514 ], [ 108.556788, -6.6577875 ], [ 108.5568255, -6.6589011 ], [ 108.5567558, -6.6595085 ], [ 108.5566699, -6.6601532 ], [ 108.5565573, -6.6606381 ], [ 108.5565144, -6.6609524 ], [ 108.556568, -6.6615705 ], [ 108.5567075, -6.6621939 ], [ 108.5569382, -6.6633181 ], [ 108.5571206, -6.6646662 ], [ 108.5573083, -6.6661154 ], [ 108.5574478, -6.6672237 ], [ 108.5576516, -6.6683959 ], [ 108.5580862, -6.6697439 ], [ 108.5583007, -6.6704445 ], [ 108.5583973, -6.6708415 ], [ 108.5584965, -6.6713077 ], [ 108.5585797, -6.6717952 ], [ 108.5586145, -6.6722268 ], [ 108.5586226, -6.6727063 ], [ 108.5586977, -6.673383 ], [ 108.5586601, -6.6739744 ], [ 108.558585, -6.674667 ], [ 108.5586119, -6.6752052 ], [ 108.5587513, -6.6758552 ], [ 108.5590088, -6.677363 ], [ 108.5592663, -6.6792065 ], [ 108.5598242, -6.6815402 ], [ 108.560248, -6.6831972 ], [ 108.560763, -6.6855948 ], [ 108.5614496, -6.6879604 ], [ 108.5617232, -6.6887755 ], [ 108.5619003, -6.6894042 ], [ 108.5620344, -6.6897212 ], [ 108.562206, -6.6899637 ], [ 108.5623455, -6.6900436 ], [ 108.5625118, -6.6900942 ], [ 108.5627237, -6.6901848 ], [ 108.5628471, -6.6902647 ], [ 108.5629275, -6.6903739 ], [ 108.5629678, -6.6905111 ], [ 108.5629584, -6.6906443 ], [ 108.5629074, -6.6907495 ], [ 108.5628149, -6.6908468 ], [ 108.5626996, -6.6909706 ], [ 108.5626772, -6.690998 ], [ 108.5624367, -6.691293 ], [ 108.5623482, -6.6914848 ], [ 108.5623455, -6.6916233 ], [ 108.5624662, -6.6920282 ], [ 108.562662, -6.6925237 ], [ 108.562949, -6.6933309 ], [ 108.563346, -6.6943405 ], [ 108.563751, -6.6952622 ], [ 108.5642526, -6.696469 ], [ 108.5642837, -6.6965466 ], [ 108.564287, -6.696555 ], [ 108.5642904, -6.6965634 ], [ 108.5645851, -6.6973001 ], [ 108.5648105, -6.6979368 ], [ 108.5651833, -6.6988585 ], [ 108.5656768, -6.7000173 ], [ 108.5657921, -6.7003876 ], [ 108.5658967, -6.7007491 ], [ 108.565937, -6.7008884 ], [ 108.5660148, -6.7012773 ], [ 108.5661007, -6.7016131 ], [ 108.5661891, -6.7017914 ], [ 108.5664171, -6.7022576 ], [ 108.5669374, -6.7032193 ], [ 108.5673639, -6.704069 ], [ 108.5675248, -6.7043821 ], [ 108.5675834, -6.7044998 ], [ 108.5676603, -6.704735 ], [ 108.5677502, -6.7049788 ], [ 108.5678145, -6.70508 ], [ 108.5678776, -6.7051279 ], [ 108.5679996, -6.7051825 ], [ 108.5680908, -6.7051945 ], [ 108.5681302, -6.7051894 ], [ 108.5682034, -6.7051799 ], [ 108.5683104, -6.705136 ], [ 108.5683335, -6.7051266 ], [ 108.5683966, -6.7050147 ], [ 108.5685267, -6.7046378 ], [ 108.5685441, -6.7046138 ], [ 108.5685964, -6.7045925 ], [ 108.5686863, -6.7046148 ], [ 108.5688029, -6.7046877 ], [ 108.5688124, -6.7047209 ], [ 108.5688016, -6.704767 ], [ 108.5687064, -6.7049673 ], [ 108.5685629, -6.7053117 ], [ 108.5684998, -6.7055315 ], [ 108.5684663, -6.7057166 ], [ 108.5684355, -6.7058751 ], [ 108.5684314, -6.7059457 ], [ 108.5684583, -6.705991 ], [ 108.5685213, -6.7060243 ], [ 108.5686809, -6.7060563 ], [ 108.568933, -6.7060803 ], [ 108.5690041, -6.7060603 ], [ 108.5690671, -6.7060123 ], [ 108.5692307, -6.7058299 ], [ 108.5694748, -6.7055049 ], [ 108.569625, -6.7052971 ], [ 108.5698771, -6.7049721 ], [ 108.5699335, -6.7048336 ], [ 108.5699925, -6.704711 ], [ 108.5702071, -6.7044687 ], [ 108.5702487, -6.7044161 ], [ 108.570709, -6.704086 ], [ 108.5715817, -6.703455 ], [ 108.5731897, -6.7026012 ], [ 108.5733264, -6.7026199 ], [ 108.5753434, -6.7053584 ], [ 108.5753957, -6.7055475 ], [ 108.5753113, -6.7057226 ], [ 108.5752288, -6.7058205 ], [ 108.5748768, -6.7060596 ], [ 108.5747246, -6.7062361 ], [ 108.5741607, -6.7066344 ], [ 108.5741056, -6.7067795 ], [ 108.5741177, -6.7069301 ], [ 108.5742478, -6.7071032 ], [ 108.5742009, -6.7071618 ], [ 108.5742076, -6.7072031 ], [ 108.5743229, -6.7073256 ], [ 108.5743457, -6.7073629 ], [ 108.5740293, -6.7075427 ], [ 108.5739722, -6.7075487 ], [ 108.5728598, -6.7073775 ], [ 108.5728035, -6.706946 ], [ 108.5733855, -6.7066823 ], [ 108.5725413, -6.7053444 ], [ 108.5724876, -6.7052491 ], [ 108.572438, -6.7051379 ], [ 108.5723803, -6.7049774 ], [ 108.5721557, -6.7051253 ], [ 108.5720752, -6.7050253 ], [ 108.5717869, -6.7052065 ], [ 108.5718432, -6.7053131 ], [ 108.5717775, -6.7053664 ], [ 108.5716876, -6.7052685 ], [ 108.5714141, -6.7054516 ], [ 108.571463, -6.7055601 ], [ 108.571396, -6.7056061 ], [ 108.5713067, -6.7055089 ], [ 108.5710295, -6.7056828 ], [ 108.5710265, -6.7057007 ], [ 108.5710493, -6.7057473 ], [ 108.5710975, -6.7058258 ], [ 108.5709782, -6.7059218 ], [ 108.5712934, -6.7063999 ], [ 108.5715348, -6.7067356 ], [ 108.5714858, -6.7068062 ], [ 108.5714878, -6.7068255 ], [ 108.5714985, -6.7068428 ], [ 108.5719907, -6.7071112 ], [ 108.572206, -6.7072231 ], [ 108.5722214, -6.7072497 ], [ 108.5722328, -6.7072797 ], [ 108.5722281, -6.707303 ], [ 108.572204, -6.7073183 ], [ 108.5721637, -6.7073216 ], [ 108.5720484, -6.707315 ], [ 108.5718911, -6.7073011 ], [ 108.5710328, -6.7071239 ], [ 108.5709657, -6.7074009 ], [ 108.5718442, -6.7075834 ], [ 108.5718426, -6.7075921 ], [ 108.5718406, -6.7076069 ], [ 108.5718293, -6.7076643 ], [ 108.571828, -6.7076713 ], [ 108.5709389, -6.7074875 ], [ 108.5708705, -6.7077526 ], [ 108.5716732, -6.707929 ], [ 108.5716692, -6.7079475 ], [ 108.571658, -6.7079923 ], [ 108.5716094, -6.7082281 ], [ 108.5718968, -6.7082939 ], [ 108.5718741, -6.7084657 ], [ 108.5719572, -6.7084791 ], [ 108.5719813, -6.7083725 ], [ 108.5721195, -6.7083938 ], [ 108.5718244, -6.709799 ], [ 108.5716715, -6.7107473 ], [ 108.5715187, -6.7114879 ], [ 108.5714945, -6.7115265 ], [ 108.571457, -6.7115425 ], [ 108.5713926, -6.7115398 ], [ 108.5705973, -6.7113986 ], [ 108.5698718, -6.7112428 ], [ 108.5695191, -6.7111815 ], [ 108.5691959, -6.7111149 ], [ 108.5690899, -6.7115385 ], [ 108.5690282, -6.7118275 ], [ 108.568992, -6.712026 ], [ 108.5689558, -6.7122484 ], [ 108.5693099, -6.7123137 ], [ 108.5692817, -6.7124881 ], [ 108.5698959, -6.7126173 ], [ 108.5699254, -6.7125161 ], [ 108.5701789, -6.7125587 ], [ 108.5701655, -6.7126706 ], [ 108.5706711, -6.7127745 ], [ 108.5706845, -6.7126719 ], [ 108.5710251, -6.7127372 ], [ 108.5710131, -6.7128424 ], [ 108.5715213, -6.7129556 ], [ 108.5715576, -6.7128318 ], [ 108.5718459, -6.7129024 ], [ 108.5718137, -6.7130036 ], [ 108.5718378, -6.7130489 ], [ 108.5720551, -6.7131155 ], [ 108.5718016, -6.7137881 ], [ 108.5716434, -6.7142329 ], [ 108.5707301, -6.7140371 ], [ 108.5700146, -6.7139113 ], [ 108.5698463, -6.7138813 ], [ 108.5697672, -6.7138653 ], [ 108.5697122, -6.7138553 ], [ 108.569629, -6.7138613 ], [ 108.5695238, -6.7138773 ], [ 108.569452, -6.7138587 ], [ 108.5694118, -6.7138693 ], [ 108.5693863, -6.7138906 ], [ 108.5693803, -6.7139299 ], [ 108.5693843, -6.7139579 ], [ 108.5694158, -6.7139999 ], [ 108.5694695, -6.7140664 ], [ 108.5694185, -6.7141583 ], [ 108.5695244, -6.7142809 ], [ 108.5694762, -6.7143328 ], [ 108.5696277, -6.7145513 ], [ 108.5709775, -6.7159664 ], [ 108.5710198, -6.7159205 ], [ 108.5709829, -6.7158772 ], [ 108.5713644, -6.7154263 ], [ 108.5716327, -6.7156354 ], [ 108.5711874, -6.7161502 ], [ 108.5713725, -6.716306 ], [ 108.571866, -6.71571 ], [ 108.5720243, -6.7158359 ], [ 108.5721262, -6.7159131 ], [ 108.5721208, -6.7159464 ], [ 108.5721154, -6.7160084 ], [ 108.5720913, -6.7161136 ], [ 108.5720591, -6.7162201 ], [ 108.5717158, -6.716645 ], [ 108.5712732, -6.7171771 ], [ 108.5712672, -6.7171964 ], [ 108.5712712, -6.7172157 ], [ 108.5713014, -6.717241 ], [ 108.5713349, -6.7172617 ], [ 108.5713886, -6.7172697 ], [ 108.5714228, -6.7172497 ], [ 108.5716742, -6.7168927 ], [ 108.572149, -6.7163893 ], [ 108.5722321, -6.71632 ], [ 108.5722844, -6.7163067 ], [ 108.5724588, -6.7162881 ], [ 108.5733157, -6.7160057 ], [ 108.5736068, -6.7159165 ], [ 108.5735756, -6.7158002 ], [ 108.573356, -6.7152252 ], [ 108.5733211, -6.7151939 ], [ 108.5732849, -6.7151832 ], [ 108.5732494, -6.7151899 ], [ 108.5726653, -6.7154023 ], [ 108.5724212, -6.7154723 ], [ 108.5723475, -6.7155009 ], [ 108.5722167, -6.7155702 ], [ 108.5719948, -6.715377 ], [ 108.5720216, -6.7152545 ], [ 108.5720538, -6.715144 ], [ 108.5720685, -6.7149815 ], [ 108.5720658, -6.7146951 ], [ 108.5720886, -6.7144274 ], [ 108.572098, -6.7143089 ], [ 108.5721557, -6.7141117 ], [ 108.5721973, -6.7139626 ], [ 108.5722831, -6.7137122 ], [ 108.5723247, -6.7134924 ], [ 108.5723434, -6.7134551 ], [ 108.5723609, -6.7134498 ], [ 108.5726895, -6.7133472 ], [ 108.5728222, -6.7132886 ], [ 108.5730113, -6.713202 ], [ 108.5731329, -6.7131455 ], [ 108.5733845, -6.7130286 ], [ 108.5733928, -6.7130009 ], [ 108.5734093, -6.7129663 ], [ 108.573411, -6.7129496 ], [ 108.57314, -6.7119514 ], [ 108.5730911, -6.7117449 ], [ 108.5730851, -6.7116743 ], [ 108.5734152, -6.7108544 ], [ 108.5734867, -6.7106075 ], [ 108.5735126, -6.7105663 ], [ 108.5735761, -6.7105304 ], [ 108.5736741, -6.7104645 ], [ 108.5736856, -6.7104765 ], [ 108.5736932, -6.7104844 ], [ 108.5736398, -6.7105556 ], [ 108.5736219, -6.7106226 ], [ 108.5734936, -6.7107762 ], [ 108.5732862, -6.7113554 ], [ 108.5732536, -6.7114524 ], [ 108.5732582, -6.7115862 ], [ 108.5733037, -6.7119207 ], [ 108.573474, -6.7125427 ], [ 108.573647, -6.7131607 ], [ 108.5738347, -6.713824 ], [ 108.5739461, -6.7142396 ], [ 108.5740295, -6.7145447 ], [ 108.5740668, -6.7147497 ], [ 108.574158, -6.7151506 ], [ 108.5742518, -6.7155768 ], [ 108.5744342, -6.716027 ], [ 108.5746247, -6.7164239 ], [ 108.5747319, -6.716613 ], [ 108.5748151, -6.7167449 ], [ 108.5748177, -6.7167902 ], [ 108.5748043, -6.7168275 ], [ 108.5747534, -6.7168554 ], [ 108.5746702, -6.7168768 ], [ 108.5746059, -6.7169061 ], [ 108.5745288, -6.7169267 ], [ 108.5744812, -6.7169414 ], [ 108.5743504, -6.716966 ], [ 108.5743952, -6.7171855 ], [ 108.5744383, -6.7173962 ], [ 108.5744946, -6.7178371 ], [ 108.5745361, -6.7178464 ], [ 108.5745697, -6.7180488 ], [ 108.5745978, -6.7182446 ], [ 108.5747494, -6.7182153 ], [ 108.5749049, -6.7181674 ], [ 108.5749492, -6.7182512 ], [ 108.5753971, -6.7193301 ], [ 108.5756399, -6.7197909 ], [ 108.5757136, -6.7199601 ], [ 108.5758196, -6.720096 ], [ 108.5759309, -6.7201519 ], [ 108.5759612, -6.7201599 ], [ 108.5760342, -6.7201232 ], [ 108.5760022, -6.7200463 ], [ 108.5763745, -6.719867 ], [ 108.5764543, -6.7199558 ], [ 108.576461, -6.7199806 ], [ 108.5764588, -6.7200701 ], [ 108.5761984, -6.7201852 ], [ 108.5762103, -6.720213 ], [ 108.5762246, -6.7202464 ], [ 108.5760746, -6.7203144 ], [ 108.5760865, -6.720381 ], [ 108.5761173, -6.7205661 ], [ 108.5761777, -6.7207446 ], [ 108.5762957, -6.7209896 ], [ 108.5764566, -6.7212494 ], [ 108.5765451, -6.7213759 ], [ 108.5766081, -6.7214398 ], [ 108.5766752, -6.7214625 ], [ 108.5767315, -6.7214665 ], [ 108.5767905, -6.7214878 ], [ 108.5768522, -6.721549 ], [ 108.5768978, -6.7216662 ], [ 108.577044, -6.7218527 ], [ 108.5771419, -6.721926 ], [ 108.5772479, -6.7219779 ], [ 108.5782671, -6.7214398 ], [ 108.5782738, -6.7214585 ], [ 108.5773525, -6.7219486 ], [ 108.5773431, -6.7220059 ], [ 108.5773337, -6.7221244 ], [ 108.5773417, -6.7222083 ], [ 108.5773565, -6.7222669 ], [ 108.577386, -6.7223229 ], [ 108.5774463, -6.7223628 ], [ 108.5774544, -6.7224947 ], [ 108.5774544, -6.7226159 ], [ 108.5774678, -6.7227238 ], [ 108.5774893, -6.722821 ], [ 108.5775107, -6.7229262 ], [ 108.5775469, -6.7230354 ], [ 108.5775946, -6.7231543 ], [ 108.5776019, -6.7231726 ], [ 108.5776971, -6.7233005 ], [ 108.5777441, -6.7233644 ], [ 108.577787, -6.723381 ], [ 108.5778386, -6.723381 ], [ 108.577897, -6.7233724 ], [ 108.5779761, -6.7235389 ], [ 108.5778654, -6.7236111 ], [ 108.5778068, -6.7236424 ], [ 108.5778621, -6.7237826 ], [ 108.5779741, -6.7239438 ], [ 108.5781142, -6.7241529 ], [ 108.5782128, -6.7240949 ], [ 108.5782316, -6.7240989 ], [ 108.5782564, -6.7241156 ], [ 108.5782711, -6.7241416 ], [ 108.5783127, -6.7243313 ], [ 108.5783502, -6.7244359 ], [ 108.5783878, -6.7245072 ], [ 108.57842, -6.7245857 ], [ 108.5784535, -6.7246723 ], [ 108.5784709, -6.7247063 ], [ 108.5784971, -6.7247389 ], [ 108.5785729, -6.7247642 ], [ 108.5786185, -6.7247675 ], [ 108.5786922, -6.7247815 ], [ 108.5787653, -6.7248235 ], [ 108.5788351, -6.7248668 ], [ 108.579036, -6.7252259 ], [ 108.5789665, -6.725303 ], [ 108.5789353, -6.7253476 ], [ 108.5789259, -6.7253922 ], [ 108.5789319, -6.7254361 ], [ 108.5789531, -6.7254881 ], [ 108.5790054, -6.725532 ], [ 108.5790617, -6.7255633 ], [ 108.5791529, -6.7256173 ], [ 108.5792575, -6.7257693 ], [ 108.5793588, -6.7259323 ], [ 108.5794982, -6.7258783 ], [ 108.5795707, -6.725847 ], [ 108.5796545, -6.7259749 ], [ 108.5797544, -6.7260908 ], [ 108.5799314, -6.7262879 ], [ 108.5801876, -6.7264011 ], [ 108.5804652, -6.7264317 ], [ 108.5805939, -6.7264197 ], [ 108.5807481, -6.7264211 ], [ 108.5808769, -6.7264357 ], [ 108.5810432, -6.726509 ], [ 108.5813999, -6.7266848 ], [ 108.581579, -6.7267487 ], [ 108.5816869, -6.726782 ], [ 108.5817761, -6.7267973 ], [ 108.5818499, -6.7268 ], [ 108.5819183, -6.7267787 ], [ 108.5819726, -6.7267314 ], [ 108.5820309, -6.7267087 ], [ 108.5820604, -6.7267101 ], [ 108.5821194, -6.7267247 ], [ 108.5823628, -6.7268579 ], [ 108.582493, -6.7269474 ], [ 108.5825023, -6.7269538 ], [ 108.5827719, -6.727091 ], [ 108.5828336, -6.7271376 ], [ 108.5828899, -6.7271869 ], [ 108.582906, -6.7272828 ], [ 108.5829046, -6.7275425 ], [ 108.5828993, -6.7277263 ], [ 108.5829221, -6.7278715 ], [ 108.5829905, -6.7280166 ], [ 108.5831004, -6.7282138 ], [ 108.5832372, -6.7284295 ], [ 108.5833311, -6.7287039 ], [ 108.5834438, -6.7289756 ], [ 108.5835966, -6.7293165 ], [ 108.5838434, -6.7295962 ], [ 108.5839802, -6.7296881 ], [ 108.5840781, -6.7297081 ], [ 108.5842659, -6.7297041 ], [ 108.5844094, -6.7296775 ], [ 108.5845783, -6.7296122 ], [ 108.5846186, -6.7295976 ], [ 108.5846481, -6.7295982 ], [ 108.5848774, -6.7298426 ], [ 108.5850357, -6.7299851 ], [ 108.585552, -6.7303634 ], [ 108.5856707, -6.7304053 ], [ 108.5857518, -6.7304113 ], [ 108.5858276, -6.730388 ], [ 108.5888712, -6.7283509 ], [ 108.5889463, -6.728275 ], [ 108.589, -6.7281858 ], [ 108.5890308, -6.7280712 ], [ 108.5890499, -6.7279213 ], [ 108.5890614, -6.7276858 ], [ 108.5891311, -6.726705 ], [ 108.5891848, -6.7267096 ], [ 108.5891166, -6.7277463 ], [ 108.5891086, -6.727986 ], [ 108.5890958, -6.7281125 ], [ 108.5890576, -6.7282044 ], [ 108.5889906, -6.728309 ], [ 108.5889175, -6.7283936 ], [ 108.5858417, -6.7304313 ], [ 108.5846101, -6.73124 ], [ 108.5844893, -6.7310446 ], [ 108.5843242, -6.7311356 ], [ 108.5844501, -6.7313537 ], [ 108.5843788, -6.7313921 ], [ 108.5842476, -6.7311872 ], [ 108.5841231, -6.7312786 ], [ 108.584258, -6.7315039 ], [ 108.5842198, -6.7315298 ], [ 108.5841368, -6.7314426 ], [ 108.5838546, -6.7316412 ], [ 108.583968, -6.7317598 ], [ 108.5839626, -6.7318095 ], [ 108.5838921, -6.7318672 ], [ 108.5838335, -6.7317972 ], [ 108.5837423, -6.7318725 ], [ 108.5837999, -6.7319626 ], [ 108.5837417, -6.7320039 ], [ 108.5834931, -6.7317117 ], [ 108.5830436, -6.7321147 ], [ 108.5832202, -6.7323037 ], [ 108.5831822, -6.7323532 ], [ 108.5827876, -6.7324889 ], [ 108.5821307, -6.7329031 ], [ 108.583311, -6.7345987 ], [ 108.5846092, -6.7338489 ], [ 108.5846494, -6.7337823 ], [ 108.5846722, -6.7337263 ], [ 108.5851362, -6.7321108 ], [ 108.5851838, -6.7320282 ], [ 108.5852355, -6.7319669 ], [ 108.585619, -6.73165 ], [ 108.5858209, -6.7315081 ], [ 108.5898804, -6.7288026 ], [ 108.58998, -6.7286634 ], [ 108.5900711, -6.7285074 ], [ 108.5901356, -6.728336 ], [ 108.5901945, -6.7281507 ], [ 108.5902219, -6.7269779 ], [ 108.5902962, -6.7269804 ], [ 108.5902679, -6.7281667 ], [ 108.5902199, -6.7283624 ], [ 108.5901524, -6.7285357 ], [ 108.5900511, -6.7287091 ], [ 108.5899413, -6.7288629 ], [ 108.5858517, -6.7315687 ], [ 108.5857344, -6.7316753 ], [ 108.5856552, -6.7317658 ], [ 108.5856217, -6.7318631 ], [ 108.5856284, -6.7319656 ], [ 108.5856579, -6.7320895 ], [ 108.5857759, -6.7323212 ], [ 108.5858363, -6.7324571 ], [ 108.585841, -6.7325829 ], [ 108.5858182, -6.7326469 ], [ 108.5857699, -6.7326988 ], [ 108.5856948, -6.7327428 ], [ 108.585664, -6.7327701 ], [ 108.5856499, -6.732816 ], [ 108.5856552, -6.7329019 ], [ 108.5856687, -6.7330484 ], [ 108.5856971, -6.7331822 ], [ 108.5858108, -6.7334533 ], [ 108.5859476, -6.733741 ], [ 108.5861742, -6.7341352 ], [ 108.5866892, -6.7350728 ], [ 108.5867697, -6.7352486 ], [ 108.5867643, -6.7353898 ], [ 108.586708, -6.7354697 ], [ 108.5861447, -6.7358267 ], [ 108.5860991, -6.7358986 ], [ 108.5860938, -6.7360744 ], [ 108.5861421, -6.7363834 ], [ 108.5862118, -6.7366657 ], [ 108.5863781, -6.7371132 ], [ 108.5866249, -6.7375234 ], [ 108.5870379, -6.7382852 ], [ 108.5875905, -6.7392175 ], [ 108.5883415, -6.740315 ], [ 108.5892427, -6.7413804 ], [ 108.5898328, -6.7421689 ], [ 108.5904014, -6.7428614 ], [ 108.5909888, -6.7433604 ], [ 108.5912919, -6.7436179 ], [ 108.5917157, -6.7439002 ], [ 108.5920805, -6.7441293 ], [ 108.5924023, -6.7442998 ], [ 108.5927457, -6.7444596 ], [ 108.5929978, -6.7445182 ], [ 108.5933304, -6.7445369 ], [ 108.5940197, -6.7443904 ], [ 108.594178, -6.7443744 ], [ 108.594355, -6.7444063 ], [ 108.5944703, -6.7444623 ], [ 108.5947439, -6.7446194 ], [ 108.594996, -6.7448219 ], [ 108.5951087, -6.7449764 ], [ 108.5951945, -6.7450962 ], [ 108.5952938, -6.7451841 ], [ 108.5953984, -6.7452267 ], [ 108.5956693, -6.7453067 ], [ 108.5958973, -6.7453919 ], [ 108.5961494, -6.7455837 ], [ 108.5962701, -6.7457834 ], [ 108.5963023, -6.7459939 ] ] } },
{ "type": "Feature", "properties": { "FID": 704884 }, "geometry": { "type": "LineString", "coordinates": [ [ 108.5963023, -6.7459939 ], [ 108.5962513, -6.7463668 ], [ 108.5961735, -6.7466065 ], [ 108.5961011, -6.7468622 ], [ 108.5960153, -6.747038 ], [ 108.5959375, -6.7471446 ], [ 108.5957846, -6.747371 ], [ 108.5957041, -6.7475095 ], [ 108.5956344, -6.7477545 ], [ 108.5956022, -6.7480023 ], [ 108.5955995, -6.748186 ], [ 108.5956237, -6.7483032 ], [ 108.5957363, -6.7484657 ], [ 108.5957766, -6.7486069 ], [ 108.5957819, -6.7488653 ], [ 108.5958463, -6.7493793 ], [ 108.5959482, -6.7500905 ], [ 108.5961413, -6.7508763 ], [ 108.596195, -6.7512678 ], [ 108.5962808, -6.7524532 ], [ 108.5962915, -6.7527515 ], [ 108.5963398, -6.7529219 ], [ 108.5964069, -6.7530152 ], [ 108.5964194, -6.7530284 ], [ 108.5964927, -6.7531057 ], [ 108.5966241, -6.753127 ], [ 108.5969889, -6.7530898 ], [ 108.597182, -6.7530471 ], [ 108.5972571, -6.7530365 ], [ 108.5973188, -6.7530498 ], [ 108.5973296, -6.7530898 ], [ 108.5973027, -6.7531737 ], [ 108.5972196, -6.7533508 ], [ 108.5971552, -6.7535799 ], [ 108.5971257, -6.7538942 ], [ 108.597123, -6.754283 ], [ 108.5971713, -6.7547758 ], [ 108.5972732, -6.7550635 ], [ 108.5973564, -6.7552686 ], [ 108.5973993, -6.7555056 ], [ 108.5974073, -6.755724 ], [ 108.5973805, -6.7559798 ], [ 108.5973564, -6.7561849 ], [ 108.5973537, -6.7563127 ], [ 108.5973939, -6.7564326 ], [ 108.5974717, -6.7565471 ], [ 108.5976273, -6.7567176 ], [ 108.597756, -6.7569067 ], [ 108.5979089, -6.7571331 ], [ 108.5979894, -6.7573488 ], [ 108.5980564, -6.7576738 ], [ 108.5981047, -6.7579535 ], [ 108.5981771, -6.7580653 ], [ 108.5982898, -6.7581612 ], [ 108.5984185, -6.7581959 ], [ 108.5985365, -6.7582624 ], [ 108.5986304, -6.7583637 ], [ 108.5987323, -6.7585528 ], [ 108.5989523, -6.758907 ], [ 108.5994512, -6.7597487 ], [ 108.5997677, -6.7601589 ], [ 108.6006421, -6.7611018 ], [ 108.6017203, -6.7622258 ], [ 108.602879, -6.7631154 ], [ 108.6036676, -6.7636215 ], [ 108.6044776, -6.7641542 ], [ 108.6052018, -6.764655 ], [ 108.605867, -6.7650705 ], [ 108.6068058, -6.7655765 ], [ 108.607825, -6.7660453 ], [ 108.6083776, -6.766317 ], [ 108.6086565, -6.7664662 ], [ 108.6089784, -6.7666846 ], [ 108.6093593, -6.7670362 ], [ 108.6097455, -6.7673185 ], [ 108.6101264, -6.7676221 ], [ 108.6106199, -6.7678459 ], [ 108.6111242, -6.7680217 ], [ 108.6117518, -6.7680856 ], [ 108.6121058, -6.7679631 ], [ 108.6126476, -6.7677127 ], [ 108.6131144, -6.7675902 ], [ 108.6135811, -6.7675422 ], [ 108.6141658, -6.7674037 ], [ 108.614831, -6.7672013 ], [ 108.6154157, -6.7670095 ], [ 108.6156625, -6.7667911 ], [ 108.6159468, -6.766317 ], [ 108.6165422, -6.765177 ], [ 108.6167782, -6.7647349 ], [ 108.6169499, -6.7644419 ], [ 108.6171591, -6.7642821 ], [ 108.6174381, -6.7641915 ], [ 108.6175313, -6.7642098 ], [ 108.6176214, -6.7642275 ], [ 108.6177224, -6.7642474 ], [ 108.6179209, -6.764306 ], [ 108.618122, -6.7643913 ], [ 108.618468, -6.7645751 ], [ 108.6186933, -6.7647509 ], [ 108.6188301, -6.7649213 ], [ 108.6189455, -6.7651664 ], [ 108.6190796, -6.7655046 ], [ 108.6192405, -6.7658536 ], [ 108.619439, -6.7662371 ], [ 108.6196375, -6.7664981 ], [ 108.6198521, -6.7667192 ], [ 108.6200988, -6.7669083 ], [ 108.6204797, -6.7672013 ], [ 108.620823, -6.7674357 ], [ 108.6213648, -6.7677606 ], [ 108.6221158, -6.7682081 ], [ 108.6228937, -6.7685437 ], [ 108.6237788, -6.7688687 ], [ 108.624621, -6.7690871 ], [ 108.6255169, -6.7692629 ], [ 108.6261874, -6.769396 ], [ 108.6266971, -6.7694813 ], [ 108.6270887, -6.7694227 ], [ 108.6274266, -6.7692948 ], [ 108.6276948, -6.7692416 ], [ 108.6281347, -6.7691989 ], [ 108.6287302, -6.7691244 ], [ 108.6293364, -6.7689805 ], [ 108.629787, -6.7687781 ], [ 108.6301571, -6.7685277 ], [ 108.630282, -6.768306 ], [ 108.6303023, -6.7681076 ], [ 108.6302278, -6.7676345 ], [ 108.630149, -6.7675941 ], [ 108.6300669, -6.7675737 ], [ 108.6299701, -6.767476 ], [ 108.6299456, -6.7673879 ], [ 108.6299609, -6.767252 ], [ 108.6300048, -6.767148 ], [ 108.6300927, -6.7670741 ], [ 108.6300827, -6.766648 ], [ 108.6298605, -6.7651372 ], [ 108.6296667, -6.7651024 ], [ 108.6295902, -6.7649118 ], [ 108.6293988, -6.7648959 ], [ 108.6293218, -6.7643297 ], [ 108.6294813, -6.7643058 ], [ 108.629609, -6.7642467 ], [ 108.6297086, -6.7641532 ], [ 108.6291056, -6.7599903 ], [ 108.6290556, -6.7599138 ], [ 108.6290012, -6.7598515 ], [ 108.628675, -6.759627 ], [ 108.6288468, -6.7593964 ], [ 108.6291386, -6.7596015 ], [ 108.6292051, -6.759678 ], [ 108.6293005, -6.7601264 ], [ 108.6299608, -6.7643808 ], [ 108.630491, -6.7680703 ], [ 108.6306333, -6.7680476 ], [ 108.6309321, -6.7680819 ], [ 108.6315143, -6.768011 ], [ 108.6321527, -6.7680909 ], [ 108.6330807, -6.7680909 ], [ 108.6336923, -6.7679311 ], [ 108.6343789, -6.7676221 ], [ 108.6348617, -6.7674144 ], [ 108.6357951, -6.7669776 ], [ 108.6370075, -6.7663277 ], [ 108.6389708, -6.7652037 ], [ 108.640945, -6.7641276 ], [ 108.6417282, -6.7635842 ], [ 108.6421627, -6.7629663 ], [ 108.642565, -6.7624868 ], [ 108.6431122, -6.7619382 ], [ 108.6440456, -6.7612563 ], [ 108.6452579, -6.7604466 ], [ 108.6459178, -6.7598925 ], [ 108.6466634, -6.759248 ], [ 108.6474627, -6.7584702 ], [ 108.6486375, -6.7574367 ], [ 108.6489701, -6.7570052 ], [ 108.6494583, -6.7562861 ], [ 108.6499464, -6.7554124 ], [ 108.6503541, -6.7544535 ], [ 108.6504936, -6.7538302 ], [ 108.6505634, -6.7531856 ], [ 108.6505526, -6.7524185 ], [ 108.6504936, -6.752035 ], [ 108.6503488, -6.751694 ], [ 108.649925, -6.7512892 ], [ 108.6494207, -6.7509162 ], [ 108.649013, -6.7506126 ], [ 108.6488789, -6.7503942 ], [ 108.6487985, -6.7499467 ], [ 108.6488199, -6.7493181 ], [ 108.6489487, -6.7489292 ], [ 108.6491847, -6.748551 ], [ 108.6496568, -6.7481248 ], [ 108.6500215, -6.747901 ], [ 108.6506706, -6.7476347 ], [ 108.6517435, -6.7472564 ], [ 108.6524355, -6.7470061 ], [ 108.6527252, -6.7469448 ], [ 108.6529452, -6.7469235 ], [ 108.6530578, -6.7470061 ], [ 108.6531141, -6.7470913 ], [ 108.6531517, -6.7472804 ], [ 108.6532161, -6.7478824 ], [ 108.653326, -6.7484444 ], [ 108.6535084, -6.749398 ], [ 108.6536211, -6.7501172 ], [ 108.6538517, -6.7506925 ], [ 108.6541629, -6.7512039 ], [ 108.6545705, -6.7516833 ], [ 108.6552089, -6.7523866 ], [ 108.6559009, -6.753175 ], [ 108.6565339, -6.7537929 ], [ 108.6571991, -6.7545281 ], [ 108.6581111, -6.7553485 ], [ 108.6604071, -6.7575646 ], [ 108.6618125, -6.7588857 ], [ 108.6632824, -6.7599938 ], [ 108.6658251, -6.7618156 ], [ 108.6677778, -6.7630835 ], [ 108.6689472, -6.763744 ], [ 108.6699128, -6.7642981 ], [ 108.6705029, -6.7646496 ], [ 108.6712915, -6.7650172 ], [ 108.6720318, -6.7653209 ], [ 108.6728096, -6.7655393 ], [ 108.6733514, -6.7655446 ], [ 108.6738557, -6.7653581 ], [ 108.6745906, -6.765177 ], [ 108.6749661, -6.7651823 ], [ 108.6754757, -6.7654061 ], [ 108.6759371, -6.7658109 ], [ 108.6761677, -6.7661732 ], [ 108.6762053, -6.7665834 ], [ 108.6761087, -6.76718 ], [ 108.6760604, -6.767766 ], [ 108.6760229, -6.7682401 ], [ 108.676157, -6.768613 ], [ 108.6764252, -6.76889 ], [ 108.6769456, -6.7692416 ], [ 108.6772621, -6.7693534 ], [ 108.6775249, -6.7694653 ], [ 108.677659, -6.7696358 ], [ 108.6776537, -6.7698062 ], [ 108.6775303, -6.7702643 ], [ 108.6772942, -6.7708077 ], [ 108.677144, -6.7713617 ], [ 108.6770582, -6.7718624 ], [ 108.6770153, -6.7725603 ], [ 108.6771762, -6.7728639 ], [ 108.6774498, -6.7732475 ], [ 108.6784208, -6.7739293 ], [ 108.6788875, -6.7743555 ], [ 108.6790055, -6.7747497 ], [ 108.6788928, -6.7751385 ], [ 108.6786085, -6.7756712 ], [ 108.6779433, -6.7763264 ], [ 108.6773908, -6.7766674 ], [ 108.6768114, -6.7772959 ], [ 108.6764467, -6.7779778 ], [ 108.6762857, -6.7785637 ], [ 108.6762428, -6.7796931 ], [ 108.6765325, -6.7814616 ], [ 108.6768651, -6.7839652 ], [ 108.6771869, -6.7857337 ], [ 108.6775517, -6.7881628 ], [ 108.6782598, -6.7905065 ], [ 108.6789465, -6.7925307 ], [ 108.6801374, -6.7946614 ], [ 108.6809206, -6.7957907 ], [ 108.6817038, -6.7967708 ], [ 108.6827874, -6.7978362 ], [ 108.6843002, -6.7991678 ], [ 108.685298, -6.7998177 ], [ 108.6863065, -6.8000947 ], [ 108.6877334, -6.8004249 ], [ 108.6885703, -6.8005954 ], [ 108.6891389, -6.8007712 ], [ 108.6897612, -6.8010854 ], [ 108.6912739, -6.8018045 ], [ 108.6930925, -6.8026142 ], [ 108.6948413, -6.8033226 ], [ 108.6955119, -6.8035694 ], [ 108.6957532, -6.8036582 ], [ 108.696633, -6.8040258 ], [ 108.6970568, -6.8042655 ], [ 108.6974108, -6.8045744 ], [ 108.6983603, -6.8055811 ], [ 108.6988538, -6.8061458 ], [ 108.6993045, -6.8065985 ], [ 108.7001037, -6.8070832 ], [ 108.7007421, -6.8072963 ], [ 108.7014234, -6.8075253 ], [ 108.7022924, -6.8078077 ], [ 108.7031937, -6.8081699 ], [ 108.7040412, -6.8085534 ], [ 108.7051409, -6.8089742 ], [ 108.7059671, -6.8092618 ], [ 108.7066805, -6.8094802 ], [ 108.7076783, -6.8098317 ], [ 108.7086224, -6.8100342 ], [ 108.7100065, -6.8102046 ], [ 108.7120879, -6.8104603 ], [ 108.7133646, -6.8105775 ], [ 108.7144804, -6.8105668 ], [ 108.7157679, -6.8106041 ], [ 108.7164223, -6.8105402 ], [ 108.71683, -6.8104816 ], [ 108.717227, -6.810407 ], [ 108.7175032, -6.8103245 ], [ 108.7177929, -6.8102792 ], [ 108.718316, -6.8102366 ], [ 108.7185861, -6.8101896 ], [ 108.7188929, -6.8101207 ], [ 108.7193727, -6.8100129 ], [ 108.7205583, -6.8098424 ], [ 108.7215668, -6.8096347 ], [ 108.7223339, -6.8094376 ], [ 108.7230474, -6.8092192 ], [ 108.7235892, -6.809086 ], [ 108.7241524, -6.8089209 ], [ 108.7243268, -6.8088437 ], [ 108.724418, -6.8087451 ], [ 108.7244287, -6.8085773 ], [ 108.7244582, -6.8074987 ], [ 108.7245172, -6.8072723 ], [ 108.7246165, -6.8071525 ], [ 108.7247854, -6.8070566 ], [ 108.725051, -6.8069953 ], [ 108.7254024, -6.8070087 ], [ 108.725802, -6.8071179 ], [ 108.7261748, -6.8072004 ], [ 108.7266174, -6.8072803 ], [ 108.7272692, -6.8074135 ], [ 108.7280846, -6.8075733 ], [ 108.7283419, -6.8076166 ], [ 108.7287176, -6.8076798 ], [ 108.7288945, -6.8076991 ], [ 108.729586, -6.8046452 ], [ 108.7295895, -6.8046373 ], [ 108.7295952, -6.8046308 ], [ 108.7296025, -6.8046263 ], [ 108.7296109, -6.8046241 ], [ 108.7296195, -6.8046246 ], [ 108.7296277, -6.8046276 ], [ 108.7296345, -6.8046329 ], [ 108.7296395, -6.80464 ], [ 108.729642, -6.8046483 ], [ 108.729642, -6.8046569 ], [ 108.728971, -6.8077155 ], [ 108.7292837, -6.8077825 ], [ 108.7295914, -6.8078483 ], [ 108.73, -6.8057176 ], [ 108.7299247, -6.8056251 ], [ 108.7300896, -6.805444 ], [ 108.7302385, -6.8047151 ], [ 108.730284, -6.8047248 ], [ 108.7301499, -6.8054201 ], [ 108.7304195, -6.8053749 ], [ 108.7310361, -6.8054365 ], [ 108.7316724, -6.8054774 ], [ 108.7317378, -6.8054749 ], [ 108.731818, -6.805449 ], [ 108.7318905, -6.8054649 ], [ 108.7319356, -6.8055108 ], [ 108.7319925, -6.8055479 ], [ 108.7320872, -6.8055493 ], [ 108.7321907, -6.8055332 ], [ 108.7322555, -6.8055687 ], [ 108.7323144, -6.8056451 ], [ 108.7323286, -6.8057991 ], [ 108.732364, -6.8058255 ], [ 108.7324005, -6.8058528 ], [ 108.7321132, -6.8071738 ], [ 108.7319604, -6.8078316 ], [ 108.7318718, -6.8082977 ], [ 108.7319496, -6.808343 ], [ 108.7327355, -6.8087411 ], [ 108.7329506, -6.8088202 ], [ 108.7330976, -6.8088743 ], [ 108.7334369, -6.8089875 ], [ 108.7338513, -6.8091633 ], [ 108.7344602, -6.8094935 ], [ 108.7356055, -6.8102046 ], [ 108.7377566, -6.8113338 ], [ 108.7388295, -6.8119411 ], [ 108.7396234, -6.8123406 ], [ 108.7404174, -6.8126602 ], [ 108.7406998, -6.8127727 ], [ 108.7410377, -6.8129074 ], [ 108.7412327, -6.8129851 ], [ 108.7420213, -6.8132301 ], [ 108.7430459, -6.8135017 ], [ 108.7439042, -6.8136615 ], [ 108.7448323, -6.8138054 ], [ 108.7462109, -6.8140024 ], [ 108.7474233, -6.8141303 ], [ 108.7482601, -6.8142475 ], [ 108.7492096, -6.8143433 ], [ 108.7499499, -6.8143274 ], [ 108.7502995, -6.814262 ], [ 108.7506044, -6.8142049 ], [ 108.7517255, -6.8139865 ], [ 108.7524439, -6.813866 ], [ 108.7529004, -6.8137894 ], [ 108.7542736, -6.8134804 ], [ 108.7549504, -6.8132952 ], [ 108.7554785, -6.8131506 ], [ 108.7565122, -6.8127794 ], [ 108.7584902, -6.8122523 ], [ 108.7586735, -6.8121986 ], [ 108.7599492, -6.8117493 ], [ 108.7613493, -6.811206 ], [ 108.7625295, -6.8107426 ], [ 108.7639511, -6.8102366 ], [ 108.7657589, -6.8094909 ], [ 108.7672073, -6.8088783 ], [ 108.7681729, -6.8083563 ], [ 108.7688756, -6.8078822 ], [ 108.7695354, -6.8074241 ], [ 108.7701362, -6.8071312 ], [ 108.7709677, -6.8068063 ], [ 108.7717509, -6.8064014 ], [ 108.7725288, -6.805954 ], [ 108.7736446, -6.8052242 ], [ 108.7749803, -6.8043986 ], [ 108.7762034, -6.8037488 ], [ 108.7779093, -6.8027207 ], [ 108.7796313, -6.8016501 ], [ 108.7812942, -6.800638 ], [ 108.7827319, -6.7996526 ], [ 108.784427, -6.7984807 ], [ 108.7859666, -6.7973621 ], [ 108.7874687, -6.7963766 ], [ 108.7890512, -6.7952527 ], [ 108.7908053, -6.7939956 ], [ 108.792007, -6.7931486 ], [ 108.7930477, -6.7924508 ], [ 108.7937611, -6.7920247 ], [ 108.7946141, -6.7915506 ], [ 108.7956011, -6.7908954 ], [ 108.7963521, -6.7902455 ], [ 108.7972212, -6.7894039 ], [ 108.7978166, -6.788802 ], [ 108.7984711, -6.7881361 ], [ 108.799426, -6.7871507 ], [ 108.8002843, -6.7863037 ], [ 108.8012713, -6.7854621 ], [ 108.8021243, -6.7847216 ], [ 108.802886, -6.783912 ], [ 108.8038999, -6.7828306 ], [ 108.8044792, -6.7821008 ], [ 108.8051015, -6.7812219 ], [ 108.8057399, -6.780295 ], [ 108.80633, -6.7793415 ], [ 108.8069951, -6.7783187 ], [ 108.807494, -6.7775197 ], [ 108.807832, -6.7768964 ], [ 108.808009, -6.7763744 ], [ 108.8081163, -6.7760228 ], [ 108.8081995, -6.775839 ], [ 108.8083041, -6.7757538 ], [ 108.8085669, -6.7755887 ], [ 108.8086662, -6.7754688 ], [ 108.8086903, -6.7753569 ], [ 108.8086769, -6.7750879 ], [ 108.808583, -6.774739 ], [ 108.8085696, -6.7746698 ], [ 108.8085763, -6.7746391 ], [ 108.8086259, -6.7746098 ], [ 108.8091838, -6.7745393 ], [ 108.8096639, -6.7743741 ], [ 108.8098758, -6.7742969 ], [ 108.8099858, -6.7742037 ], [ 108.8100529, -6.7740865 ], [ 108.810077, -6.773916 ], [ 108.809841, -6.773354 ], [ 108.8097578, -6.7731795 ], [ 108.8097417, -6.7730956 ], [ 108.8097645, -6.7729465 ], [ 108.8097632, -6.7726761 ], [ 108.8097404, -6.7725177 ], [ 108.809737, -6.7724797 ], [ 108.8097464, -6.7724531 ], [ 108.8097679, -6.7724324 ], [ 108.8100274, -6.7723685 ], [ 108.8100891, -6.7723405 ], [ 108.8101427, -6.772278 ], [ 108.8101575, -6.7721887 ], [ 108.8102996, -6.7713511 ], [ 108.8103908, -6.7707704 ], [ 108.8103855, -6.7701791 ], [ 108.810246, -6.7696144 ], [ 108.8094735, -6.7686662 ], [ 108.8079285, -6.7673025 ], [ 108.8067108, -6.7658482 ], [ 108.8062549, -6.7651717 ], [ 108.8060135, -6.76433 ], [ 108.8058633, -6.7639784 ], [ 108.8056219, -6.7636322 ], [ 108.8052624, -6.7633605 ], [ 108.8045865, -6.7627905 ], [ 108.8037872, -6.761805 ], [ 108.8033044, -6.7610166 ], [ 108.8032508, -6.760388 ], [ 108.8033412, -6.7599808 ], [ 108.8033903, -6.7597594 ], [ 108.8036048, -6.7592906 ], [ 108.8040984, -6.7589283 ], [ 108.8065016, -6.7580866 ], [ 108.808583, -6.7576285 ], [ 108.810364, -6.7572343 ], [ 108.8110936, -6.7568401 ], [ 108.8115549, -6.7562328 ], [ 108.8123569, -6.7547705 ], [ 108.8125473, -6.7543576 ], [ 108.8126385, -6.7542937 ], [ 108.8127485, -6.7542724 ], [ 108.813529, -6.7542511 ], [ 108.815031, -6.7539581 ], [ 108.8164043, -6.7534627 ], [ 108.8181156, -6.7526742 ], [ 108.8197625, -6.7515875 ], [ 108.8207495, -6.7506925 ], [ 108.8217044, -6.7497016 ], [ 108.8225949, -6.7487001 ], [ 108.8231742, -6.7474003 ], [ 108.8236248, -6.745866 ], [ 108.8238072, -6.7448645 ], [ 108.8238287, -6.7433622 ], [ 108.8238501, -6.7416788 ], [ 108.8238823, -6.7405387 ], [ 108.8239145, -6.7400166 ], [ 108.824068, -6.7394895 ], [ 108.824172, -6.7391323 ], [ 108.8244388, -6.7388039 ], [ 108.8246655, -6.738525 ], [ 108.8250518, -6.7383971 ], [ 108.8256097, -6.7383225 ], [ 108.8272834, -6.7390151 ], [ 108.8283884, -6.7394306 ], [ 108.83003, -6.7397076 ], [ 108.8313711, -6.7396437 ], [ 108.8324225, -6.7394093 ], [ 108.8338065, -6.7389831 ], [ 108.8356733, -6.738152 ], [ 108.8374436, -6.7374595 ], [ 108.8386774, -6.7368415 ], [ 108.8396537, -6.7359465 ], [ 108.8401741, -6.7354244 ], [ 108.8405657, -6.7348864 ], [ 108.8406775, -6.7345247 ], [ 108.8406096, -6.7343862 ], [ 108.8408445, -6.7339809 ], [ 108.8409547, -6.733918 ], [ 108.8410597, -6.7339733 ], [ 108.8415383, -6.733811 ], [ 108.8415517, -6.7337543 ], [ 108.8418892, -6.733566 ], [ 108.8420091, -6.7335264 ], [ 108.8421181, -6.7334904 ], [ 108.8420962, -6.7332419 ], [ 108.8421193, -6.7330157 ], [ 108.842171, -6.7329371 ], [ 108.8422689, -6.7329249 ], [ 108.842431, -6.7330344 ], [ 108.8425865, -6.7336719 ], [ 108.842555, -6.7337474 ], [ 108.8426829, -6.7338593 ], [ 108.8428826, -6.7341111 ], [ 108.8429674, -6.7341292 ], [ 108.8430464, -6.7342301 ], [ 108.8430017, -6.7343364 ], [ 108.8430411, -6.7344927 ], [ 108.8431619, -6.7346518 ], [ 108.8433937, -6.7347732 ], [ 108.8435489, -6.7348171 ], [ 108.8436574, -6.7347721 ], [ 108.8437791, -6.7347469 ], [ 108.8438736, -6.7348068 ], [ 108.8438732, -6.734926 ], [ 108.8438614, -6.7350452 ], [ 108.8443804, -6.7355819 ], [ 108.8444918, -6.7355557 ], [ 108.8447417, -6.7357644 ], [ 108.8448697, -6.7360005 ], [ 108.8447473, -6.7363185 ], [ 108.8447208, -6.7365777 ], [ 108.844918, -6.7370653 ], [ 108.8450577, -6.7377476 ], [ 108.8449821, -6.7378512 ], [ 108.8449297, -6.7379231 ], [ 108.8447913, -6.7379605 ], [ 108.8445125, -6.7378349 ], [ 108.844342, -6.7377965 ], [ 108.8441926, -6.7378892 ], [ 108.844161, -6.7380871 ], [ 108.8441924, -6.7382843 ], [ 108.8443416, -6.7384931 ], [ 108.8446718, -6.7385082 ], [ 108.844837, -6.7386366 ], [ 108.8449075, -6.7387273 ], [ 108.8448698, -6.7388583 ], [ 108.8446931, -6.7389458 ], [ 108.8443938, -6.7389261 ], [ 108.843721, -6.7388791 ], [ 108.843254, -6.7391475 ], [ 108.8424754, -6.7402617 ], [ 108.84258, -6.741398 ], [ 108.8420879, -6.7420291 ], [ 108.8419017, -6.7424435 ], [ 108.841833, -6.7429065 ], [ 108.842019, -6.7436612 ], [ 108.8422442, -6.744037 ], [ 108.8422548, -6.7443263 ], [ 108.8422186, -6.7445463 ], [ 108.8426602, -6.7449574 ], [ 108.8425582, -6.7455563 ], [ 108.8437788, -6.7458218 ], [ 108.8438843, -6.7459805 ], [ 108.8433295, -6.7473471 ], [ 108.8443125, -6.7478306 ], [ 108.8453137, -6.7481095 ], [ 108.8453034, -6.7481548 ], [ 108.8452801, -6.7482974 ], [ 108.8452629, -6.7484288 ], [ 108.845729, -6.7485365 ], [ 108.845753, -6.748585 ], [ 108.8455973, -6.7499061 ], [ 108.8476223, -6.7502381 ], [ 108.8476973, -6.7503163 ], [ 108.8474265, -6.7518961 ], [ 108.8473261, -6.7519706 ], [ 108.8457797, -6.7520858 ], [ 108.8457924, -6.7525236 ], [ 108.8471774, -6.7542526 ], [ 108.8471017, -6.7544181 ], [ 108.848066, -6.7559383 ], [ 108.8474575, -6.7567048 ], [ 108.8470732, -6.7570216 ], [ 108.8467065, -6.757375 ], [ 108.8456949, -6.75865 ], [ 108.8442421, -6.7581017 ], [ 108.8444514, -6.7592556 ], [ 108.8442801, -6.7593125 ], [ 108.8402038, -6.7584693 ], [ 108.8399387, -6.7597156 ], [ 108.8398, -6.7597506 ], [ 108.8388212, -6.7594118 ], [ 108.8366248, -6.7584544 ], [ 108.8366117, -6.7576936 ], [ 108.8353761, -6.7573427 ], [ 108.8345069, -6.7586235 ], [ 108.8340991, -6.7591572 ], [ 108.8338545, -6.7597217 ], [ 108.8330126, -6.7635522 ], [ 108.8325405, -6.7673025 ], [ 108.8327765, -6.7695399 ], [ 108.8335061, -6.7720542 ], [ 108.8348365, -6.7751012 ], [ 108.8364243, -6.7783826 ], [ 108.837583, -6.78111 ], [ 108.8378835, -6.7832834 ], [ 108.8377976, -6.784647 ], [ 108.8367891, -6.7873105 ], [ 108.8364672, -6.7891429 ], [ 108.8373899, -6.7915719 ], [ 108.8387632, -6.7932339 ], [ 108.8412738, -6.794981 ], [ 108.8447928, -6.7964938 ], [ 108.8473677, -6.79741 ], [ 108.8515734, -6.7989654 ], [ 108.8556289, -6.8008404 ], [ 108.859384, -6.8027687 ], [ 108.8611221, -6.8037488 ], [ 108.8628495, -6.804878 ], [ 108.8651132, -6.8066997 ], [ 108.8664436, -6.8073069 ], [ 108.8674629, -6.8075094 ], [ 108.8688791, -6.8077118 ], [ 108.8707191, -6.8079621 ], [ 108.8726342, -6.8083083 ], [ 108.8737285, -6.8085534 ], [ 108.8761747, -6.8091073 ], [ 108.8774192, -6.8095335 ], [ 108.8785458, -6.8101194 ], [ 108.8794684, -6.8105775 ], [ 108.8809061, -6.8111847 ], [ 108.88376, -6.812218 ], [ 108.8850474, -6.8128253 ], [ 108.8863456, -6.8134112 ], [ 108.8871932, -6.8136456 ], [ 108.8878369, -6.8136456 ], [ 108.8888454, -6.8135603 ], [ 108.8899827, -6.8132727 ], [ 108.8916886, -6.8129744 ], [ 108.8921928, -6.8129531 ], [ 108.8930404, -6.8130916 ], [ 108.895272, -6.8137308 ], [ 108.8966024, -6.8140717 ], [ 108.8988769, -6.8147748 ], [ 108.9003038, -6.815137 ], [ 108.9020526, -6.8156164 ], [ 108.9038014, -6.8162129 ], [ 108.9048743, -6.8164473 ], [ 108.9079642, -6.8161384 ], [ 108.9123416, -6.8155844 ], [ 108.9135861, -6.8155844 ], [ 108.9139938, -6.8156909 ], [ 108.9143801, -6.8158507 ], [ 108.9152062, -6.8163195 ], [ 108.9157855, -6.8166604 ], [ 108.9171588, -6.8175233 ], [ 108.9195943, -6.8189294 ], [ 108.9226413, -6.8203569 ], [ 108.9255488, -6.8216246 ], [ 108.9270508, -6.8223277 ], [ 108.9279145, -6.8226526 ], [ 108.9281505, -6.8228471 ], [ 108.9283356, -6.8230681 ], [ 108.9284402, -6.8234356 ], [ 108.9285824, -6.8241174 ], [ 108.9287621, -6.824445 ], [ 108.9289579, -6.8246181 ], [ 108.9292932, -6.8247646 ], [ 108.929733, -6.8247832 ], [ 108.9299074, -6.8246554 ], [ 108.9300603, -6.824453 ], [ 108.9301836, -6.8242452 ], [ 108.9303553, -6.8240828 ], [ 108.9305913, -6.8239763 ], [ 108.9307657, -6.823947 ], [ 108.9313209, -6.8240961 ], [ 108.9320558, -6.8243358 ], [ 108.9327961, -6.8245222 ], [ 108.9337403, -6.8246447 ], [ 108.9347112, -6.8247033 ], [ 108.9360094, -6.8248312 ], [ 108.9374632, -6.8248205 ], [ 108.9393943, -6.8247619 ], [ 108.9408266, -6.824714 ], [ 108.941524, -6.8246714 ], [ 108.942908, -6.8244796 ], [ 108.9444798, -6.8242346 ], [ 108.9454561, -6.8240535 ], [ 108.9462072, -6.8237925 ], [ 108.9471674, -6.8232332 ], [ 108.9478218, -6.8226047 ], [ 108.9486265, -6.822104 ], [ 108.9502895, -6.8214648 ], [ 108.9549887, -6.820048 ], [ 108.9562011, -6.8196006 ], [ 108.9569092, -6.8191958 ], [ 108.9581537, -6.8185246 ], [ 108.9589691, -6.8181731 ], [ 108.9597952, -6.8179174 ], [ 108.9603853, -6.8177044 ], [ 108.9607823, -6.8175339 ], [ 108.9613509, -6.8172463 ], [ 108.9629602, -6.8161703 ], [ 108.9649987, -6.8147109 ], [ 108.9661789, -6.813539 ], [ 108.9671981, -6.8121541 ], [ 108.9677453, -6.8110888 ], [ 108.9682495, -6.8099489 ], [ 108.9686358, -6.8089262 ], [ 108.9688504, -6.8079568 ], [ 108.9690328, -6.8071045 ], [ 108.9691293, -6.806199 ], [ 108.9693117, -6.8056557 ], [ 108.969537, -6.8054959 ], [ 108.9699983, -6.8053468 ], [ 108.9706314, -6.8052828 ], [ 108.9718866, -6.8053254 ], [ 108.9741075, -6.8057409 ], [ 108.9757729, -6.8061035 ], [ 108.9784291, -6.8065964 ], [ 108.9806843, -6.8063801 ], [ 108.9828944, -6.8056131 ], [ 108.9847827, -6.8047821 ], [ 108.987422, -6.8035037 ], [ 108.9907694, -6.802204 ], [ 108.992958, -6.8012878 ], [ 108.9941275, -6.8007019 ], [ 108.9948785, -6.7999242 ], [ 108.9953828, -6.7991146 ], [ 108.9958978, -6.798486 ], [ 108.99652, -6.7981664 ], [ 108.9968955, -6.7981558 ], [ 108.9975071, -6.7984434 ], [ 108.9980972, -6.7989867 ], [ 108.9988267, -6.7996898 ], [ 109.0014124, -6.8013518 ], [ 109.0044379, -6.8032267 ], [ 109.0063691, -6.8036529 ], [ 109.0080857, -6.8029711 ], [ 109.0094375, -6.8017566 ], [ 109.0112829, -6.7977722 ], [ 109.0129566, -6.7924455 ], [ 109.013772, -6.7911884 ], [ 109.0154886, -6.7895903 ], [ 109.0170336, -6.7890363 ], [ 109.020338, -6.7892281 ], [ 109.0244579, -6.7902508 ], [ 109.0298223, -6.7919128 ], [ 109.0315389, -6.7917849 ], [ 109.0332555, -6.7905918 ], [ 109.0348434, -6.7888872 ], [ 109.0371394, -6.7865434 ], [ 109.0382337, -6.786032 ], [ 109.0398001, -6.7857763 ], [ 109.0423322, -6.7858189 ], [ 109.0495205, -6.7866073 ], [ 109.0505504, -6.7862664 ], [ 109.0512371, -6.7855206 ], [ 109.0523743, -6.7833473 ], [ 109.0530181, -6.7809608 ], [ 109.0530395, -6.7793841 ], [ 109.0526318, -6.7779991 ], [ 109.0511083, -6.776401 ], [ 109.0504432, -6.7756552 ], [ 109.0504002, -6.7751438 ], [ 109.0505719, -6.7739719 ], [ 109.0515589, -6.7713937 ], [ 109.0519881, -6.7705839 ], [ 109.0524387, -6.7704348 ], [ 109.0532756, -6.7703709 ], [ 109.0540266, -6.7708396 ], [ 109.0551853, -6.7716493 ], [ 109.0563011, -6.7717559 ], [ 109.0571809, -6.7715641 ], [ 109.0582108, -6.7710101 ], [ 109.0608501, -6.7689432 ], [ 109.0619874, -6.7676008 ], [ 109.0624594, -6.7666846 ], [ 109.0626633, -6.7659814 ], [ 109.0626633, -6.7653422 ], [ 109.0623844, -6.764607 ], [ 109.0621161, -6.7640743 ], [ 109.0620839, -6.7637334 ], [ 109.0622449, -6.7633711 ], [ 109.0625131, -6.7631474 ], [ 109.0636289, -6.7621246 ], [ 109.0641439, -6.761251 ], [ 109.0645838, -6.7603134 ], [ 109.0652597, -6.7585022 ], [ 109.0655815, -6.7574367 ], [ 109.0657103, -6.7567442 ], [ 109.0656352, -6.7558386 ], [ 109.0654743, -6.754592 ], [ 109.0653026, -6.7535053 ], [ 109.0652865, -6.7528713 ], [ 109.0654099, -6.7526103 ], [ 109.0656674, -6.7524345 ], [ 109.0660536, -6.7524185 ], [ 109.0667295, -6.7525251 ], [ 109.0670943, -6.7529726 ], [ 109.0673518, -6.7538675 ], [ 109.0677273, -6.7559984 ], [ 109.0680385, -6.7589496 ], [ 109.0680706, -6.7605265 ], [ 109.0681457, -6.7614321 ], [ 109.0683818, -6.7625295 ], [ 109.0688646, -6.7637014 ], [ 109.0693688, -6.7646709 ], [ 109.0697014, -6.7653794 ], [ 109.069798, -6.7656937 ], [ 109.0697658, -6.7658429 ], [ 109.06968, -6.7659654 ], [ 109.0695351, -6.766032 ], [ 109.0691623, -6.766088 ], [ 109.0684676, -6.7661306 ], [ 109.0681243, -6.7661039 ], [ 109.0676308, -6.7660666 ], [ 109.0674484, -6.7661359 ], [ 109.0672284, -6.7663756 ], [ 109.0670943, -6.7667698 ], [ 109.0665793, -6.7682081 ], [ 109.066515, -6.7695612 ], [ 109.0664291, -6.7743981 ], [ 109.066354, -6.7759429 ], [ 109.0664399, -6.7774451 ], [ 109.0666544, -6.7786383 ], [ 109.067105, -6.7794054 ], [ 109.0680814, -6.7802044 ], [ 109.0691328, -6.7804921 ], [ 109.0697122, -6.780311 ], [ 109.0704846, -6.7795332 ], [ 109.0713644, -6.7777434 ], [ 109.0725231, -6.7754208 ], [ 109.0730166, -6.774494 ], [ 109.073714, -6.7738015 ], [ 109.074744, -6.7729598 ], [ 109.0762889, -6.7721927 ], [ 109.0769219, -6.7717346 ], [ 109.0776729, -6.7708716 ], [ 109.0784562, -6.7698169 ], [ 109.0787727, -6.7696784 ], [ 109.0790677, -6.7696464 ], [ 109.0794593, -6.769737 ], [ 109.0801245, -6.7701471 ], [ 109.0803122, -6.7704082 ], [ 109.0804088, -6.7707438 ], [ 109.0802693, -6.7717133 ], [ 109.080103, -6.7724857 ], [ 109.0798509, -6.7732208 ], [ 109.0794057, -6.7740731 ], [ 109.0790999, -6.7747177 ], [ 109.0790892, -6.7750693 ], [ 109.0791535, -6.775325 ], [ 109.0795076, -6.7754795 ], [ 109.080044, -6.7756073 ], [ 109.0806609, -6.7756872 ], [ 109.0810552, -6.7756686 ], [ 109.081412, -6.7755407 ], [ 109.0826967, -6.7751066 ], [ 109.0833834, -6.7748589 ], [ 109.0840137, -6.7745685 ], [ 109.0845904, -6.7742596 ], [ 109.0847272, -6.7742156 ], [ 109.0848573, -6.7742116 ], [ 109.0849082, -6.7742263 ], [ 109.084927, -6.7742556 ], [ 109.0849216, -6.7742942 ], [ 109.0848733, -6.7743475 ], [ 109.0846413, -6.7744913 ], [ 109.0842994, -6.7747723 ], [ 109.0840325, -6.7749814 ], [ 109.0838876, -6.7751572 ], [ 109.0838689, -6.7752158 ], [ 109.0838769, -6.7752877 ], [ 109.0839748, -6.7753463 ], [ 109.0840808, -6.7753756 ], [ 109.0844429, -6.7753756 ], [ 109.0849404, -6.7753023 ], [ 109.0851416, -6.7753623 ], [ 109.0852314, -6.7754222 ], [ 109.0852502, -6.7754848 ], [ 109.0852381, -6.7755434 ], [ 109.0851979, -6.7755993 ], [ 109.0850839, -6.7756686 ], [ 109.0845877, -6.7760228 ], [ 109.0842444, -6.7763611 ], [ 109.0840727, -6.7765821 ], [ 109.0839976, -6.7767686 ], [ 109.0840325, -6.7769337 ], [ 109.0841183, -6.7771308 ], [ 109.0843114, -6.7775064 ], [ 109.0846145, -6.7778766 ], [ 109.0855533, -6.7787395 ], [ 109.0863097, -6.7792403 ], [ 109.0875542, -6.7797463 ], [ 109.0882301, -6.7800553 ], [ 109.0888256, -6.7804601 ], [ 109.0889436, -6.7805827 ], [ 109.0890133, -6.7808703 ], [ 109.0889597, -6.7811207 ], [ 109.088906, -6.7813071 ], [ 109.0887129, -6.7814882 ], [ 109.0882623, -6.781696 ], [ 109.0877044, -6.7821914 ], [ 109.0875435, -6.7824471 ], [ 109.0874255, -6.7828359 ], [ 109.087396, -6.783603 ], [ 109.0873289, -6.784181 ], [ 109.0869293, -6.7848415 ], [ 109.0868461, -6.7849267 ], [ 109.0867576, -6.7849347 ], [ 109.086661, -6.7848894 ], [ 109.0864196, -6.7847643 ], [ 109.0860575, -6.7845672 ], [ 109.0857357, -6.7842795 ], [ 109.085446, -6.7839652 ], [ 109.0849847, -6.7836403 ], [ 109.0843087, -6.7833367 ], [ 109.0839386, -6.7832408 ], [ 109.0833914, -6.7832354 ], [ 109.0823722, -6.7833846 ], [ 109.0812027, -6.7836882 ], [ 109.0806502, -6.7839759 ], [ 109.0802157, -6.7842902 ], [ 109.0793896, -6.784988 ], [ 109.0781879, -6.7863729 ], [ 109.0769863, -6.7884824 ], [ 109.0762138, -6.790123 ], [ 109.0759778, -6.7911031 ], [ 109.0758276, -6.7921046 ], [ 109.0758061, -6.7939157 ], [ 109.0761709, -6.7949597 ], [ 109.0765786, -6.7954391 ], [ 109.0775013, -6.7960357 ], [ 109.0796471, -6.7969945 ], [ 109.080559, -6.7976124 ], [ 109.0809774, -6.7981345 ], [ 109.0809989, -6.7986565 ], [ 109.0808487, -6.7993489 ], [ 109.0804303, -6.7999775 ], [ 109.0791857, -6.8010641 ], [ 109.0785313, -6.8015755 ] ] } }
]
}
