{
"type": "FeatureCollection",
"name": "mangrove_pekalongan_jateng_2020",
"crs": { "type": "name", "properties": { "name": "urn:ogc:def:crs:OGC:1.3:CRS84" } },
"features": [
{ "type": "Feature", "properties": { "PXLVAL": 1 }, "geometry": { "type": "Polygon", "coordinates": [ [ [ 109.62377777777715, -6.84111111111027 ], [ 109.624444444443824, -6.84111111111027 ], [ 109.624444444443824, -6.841333333332492 ], [ 109.624666666666045, -6.841333333332492 ], [ 109.624666666666045, -6.841777777776936 ], [ 109.624222222221604, -6.841777777776936 ], [ 109.624222222221604, -6.841555555554714 ], [ 109.62377777777715, -6.841555555554714 ], [ 109.62377777777715, -6.84111111111027 ] ] ] } },
{ "type": "Feature", "properties": { "PXLVAL": 1 }, "geometry": { "type": "Polygon", "coordinates": [ [ [ 109.618444444443824, -6.841555555554714 ], [ 109.618888888888264, -6.841555555554714 ], [ 109.618888888888264, -6.841777777776936 ], [ 109.618666666666044, -6.841777777776936 ], [ 109.618666666666044, -6.841999999999158 ], [ 109.618222222221604, -6.841999999999158 ], [ 109.618222222221604, -6.841777777776936 ], [ 109.618444444443824, -6.841777777776936 ], [ 109.618444444443824, -6.841555555554714 ] ] ] } },
{ "type": "Feature", "properties": { "PXLVAL": 1 }, "geometry": { "type": "Polygon", "coordinates": [ [ [ 109.619555555554939, -6.841777777776936 ], [ 109.619777777777159, -6.841777777776936 ], [ 109.619777777777159, -6.841999999999158 ], [ 109.619555555554939, -6.841999999999158 ], [ 109.619555555554939, -6.841777777776936 ] ] ] } },
{ "type": "Feature", "properties": { "PXLVAL": 1 }, "geometry": { "type": "Polygon", "coordinates": [ [ [ 109.619999999999379, -6.841777777776936 ], [ 109.62066666666604, -6.841777777776936 ], [ 109.62066666666604, -6.841999999999158 ], [ 109.620222222221599, -6.841999999999158 ], [ 109.620222222221599, -6.84222222222138 ], [ 109.619999999999379, -6.84222222222138 ], [ 109.619999999999379, -6.841777777776936 ] ] ] } },
{ "type": "Feature", "properties": { "PXLVAL": 1 }, "geometry": { "type": "Polygon", "coordinates": [ [ [ 109.617777777777164, -6.841999999999158 ], [ 109.617999999999384, -6.841999999999158 ], [ 109.617999999999384, -6.84222222222138 ], [ 109.617777777777164, -6.84222222222138 ], [ 109.617777777777164, -6.841999999999158 ] ] ] } },
{ "type": "Feature", "properties": { "PXLVAL": 1 }, "geometry": { "type": "Polygon", "coordinates": [ [ [ 109.621111111110494, -6.841777777776936 ], [ 109.621555555554934, -6.841777777776936 ], [ 109.621555555554934, -6.842444444443602 ], [ 109.621999999999375, -6.842444444443602 ], [ 109.621999999999375, -6.842666666665824 ], [ 109.621333333332714, -6.842666666665824 ], [ 109.621333333332714, -6.84222222222138 ], [ 109.62066666666604, -6.84222222222138 ], [ 109.62066666666604, -6.841999999999158 ], [ 109.621111111110494, -6.841999999999158 ], [ 109.621111111110494, -6.841777777776936 ] ] ] } },
{ "type": "Feature", "properties": { "PXLVAL": 1 }, "geometry": { "type": "Polygon", "coordinates": [ [ [ 109.618222222221604, -6.842444444443602 ], [ 109.618666666666044, -6.842444444443602 ], [ 109.618666666666044, -6.842666666665824 ], [ 109.619111111110499, -6.842666666665824 ], [ 109.619111111110499, -6.843111111110268 ], [ 109.618666666666044, -6.843111111110268 ], [ 109.618666666666044, -6.842888888888046 ], [ 109.618444444443824, -6.842888888888046 ], [ 109.618444444443824, -6.842666666665824 ], [ 109.618222222221604, -6.842666666665824 ], [ 109.618222222221604, -6.842444444443602 ] ] ] } },
{ "type": "Feature", "properties": { "PXLVAL": 1 }, "geometry": { "type": "Polygon", "coordinates": [ [ [ 109.615999999999389, -6.842666666665824 ], [ 109.616222222221609, -6.842666666665824 ], [ 109.616222222221609, -6.842888888888046 ], [ 109.615999999999389, -6.842888888888046 ], [ 109.615999999999389, -6.842666666665824 ] ] ] } },
{ "type": "Feature", "properties": { "PXLVAL": 1 }, "geometry": { "type": "Polygon", "coordinates": [ [ [ 109.612444444443838, -6.8444444444436 ], [ 109.612888888888278, -6.8444444444436 ], [ 109.612888888888278, -6.844666666665822 ], [ 109.612444444443838, -6.844666666665822 ], [ 109.612444444443838, -6.8444444444436 ] ] ] } },
{ "type": "Feature", "properties": { "PXLVAL": 1 }, "geometry": { "type": "Polygon", "coordinates": [ [ [ 109.587777777777191, -6.8444444444436 ], [ 109.588666666666072, -6.8444444444436 ], [ 109.588666666666072, -6.845111111110266 ], [ 109.588222222221631, -6.845111111110266 ], [ 109.588222222221631, -6.84555555555471 ], [ 109.588444444443851, -6.84555555555471 ], [ 109.588444444443851, -6.845777777776932 ], [ 109.587999999999411, -6.845777777776932 ], [ 109.587999999999411, -6.844888888888044 ], [ 109.587777777777191, -6.844888888888044 ], [ 109.587777777777191, -6.8444444444436 ] ] ] } },
{ "type": "Feature", "properties": { "PXLVAL": 1 }, "geometry": { "type": "Polygon", "coordinates": [ [ [ 109.616222222221609, -6.841777777776936 ], [ 109.617111111110489, -6.841777777776936 ], [ 109.617111111110489, -6.841999999999158 ], [ 109.617333333332709, -6.841999999999158 ], [ 109.617333333332709, -6.842444444443602 ], [ 109.617777777777164, -6.842444444443602 ], [ 109.617777777777164, -6.842666666665824 ], [ 109.617999999999384, -6.842666666665824 ], [ 109.617999999999384, -6.843111111110268 ], [ 109.618222222221604, -6.843111111110268 ], [ 109.618222222221604, -6.84333333333249 ], [ 109.617999999999384, -6.84333333333249 ], [ 109.617999999999384, -6.843555555554712 ], [ 109.618222222221604, -6.843555555554712 ], [ 109.618222222221604, -6.843777777776934 ], [ 109.618444444443824, -6.843777777776934 ], [ 109.618444444443824, -6.843999999999156 ], [ 109.617999999999384, -6.843999999999156 ], [ 109.617999999999384, -6.844222222221378 ], [ 109.618444444443824, -6.844222222221378 ], [ 109.618444444443824, -6.8444444444436 ], [ 109.618888888888264, -6.8444444444436 ], [ 109.618888888888264, -6.844666666665822 ], [ 109.619999999999379, -6.844666666665822 ], [ 109.619999999999379, -6.8444444444436 ], [ 109.619555555554939, -6.8444444444436 ], [ 109.619555555554939, -6.844222222221378 ], [ 109.619333333332719, -6.844222222221378 ], [ 109.619333333332719, -6.843777777776934 ], [ 109.619555555554939, -6.843777777776934 ], [ 109.619555555554939, -6.843111111110268 ], [ 109.619999999999379, -6.843111111110268 ], [ 109.619999999999379, -6.842888888888046 ], [ 109.621111111110494, -6.842888888888046 ], [ 109.621111111110494, -6.843111111110268 ], [ 109.621333333332714, -6.843111111110268 ], [ 109.621333333332714, -6.84333333333249 ], [ 109.621555555554934, -6.84333333333249 ], [ 109.621555555554934, -6.844222222221378 ], [ 109.621333333332714, -6.844222222221378 ], [ 109.621333333332714, -6.84555555555471 ], [ 109.621111111110494, -6.84555555555471 ], [ 109.621111111110494, -6.845777777776932 ], [ 109.620888888888274, -6.845777777776932 ], [ 109.620888888888274, -6.845999999999154 ], [ 109.620222222221599, -6.845999999999154 ], [ 109.620222222221599, -6.846444444443598 ], [ 109.619999999999379, -6.846444444443598 ], [ 109.619999999999379, -6.845777777776932 ], [ 109.619555555554939, -6.845777777776932 ], [ 109.619555555554939, -6.84555555555471 ], [ 109.619111111110499, -6.84555555555471 ], [ 109.619111111110499, -6.845111111110266 ], [ 109.618666666666044, -6.845111111110266 ], [ 109.618666666666044, -6.845333333332488 ], [ 109.618444444443824, -6.845333333332488 ], [ 109.618444444443824, -6.84555555555471 ], [ 109.618222222221604, -6.84555555555471 ], [ 109.618222222221604, -6.845777777776932 ], [ 109.617555555554944, -6.845777777776932 ], [ 109.617555555554944, -6.84555555555471 ], [ 109.617111111110489, -6.84555555555471 ], [ 109.617111111110489, -6.845333333332488 ], [ 109.616666666666049, -6.845333333332488 ], [ 109.616666666666049, -6.845111111110266 ], [ 109.616444444443829, -6.845111111110266 ], [ 109.616444444443829, -6.844888888888044 ], [ 109.616222222221609, -6.844888888888044 ], [ 109.616222222221609, -6.844666666665822 ], [ 109.616888888888269, -6.844666666665822 ], [ 109.616888888888269, -6.8444444444436 ], [ 109.616666666666049, -6.8444444444436 ], [ 109.616666666666049, -6.844222222221378 ], [ 109.616222222221609, -6.844222222221378 ], [ 109.616222222221609, -6.8444444444436 ], [ 109.615999999999389, -6.8444444444436 ], [ 109.615999999999389, -6.843999999999156 ], [ 109.616444444443829, -6.843999999999156 ], [ 109.616444444443829, -6.843777777776934 ], [ 109.615111111110494, -6.843777777776934 ], [ 109.615111111110494, -6.843555555554712 ], [ 109.614222222221613, -6.843555555554712 ], [ 109.614222222221613, -6.84333333333249 ], [ 109.613555555554939, -6.84333333333249 ], [ 109.613555555554939, -6.843111111110268 ], [ 109.613111111110499, -6.843111111110268 ], [ 109.613111111110499, -6.842666666665824 ], [ 109.613999999999379, -6.842666666665824 ], [ 109.613999999999379, -6.842888888888046 ], [ 109.614444444443834, -6.842888888888046 ], [ 109.614444444443834, -6.843111111110268 ], [ 109.615555555554934, -6.843111111110268 ], [ 109.615555555554934, -6.842888888888046 ], [ 109.615999999999389, -6.842888888888046 ], [ 109.615999999999389, -6.84333333333249 ], [ 109.616444444443829, -6.84333333333249 ], [ 109.616444444443829, -6.843555555554712 ], [ 109.617111111110489, -6.843555555554712 ], [ 109.617111111110489, -6.84333333333249 ], [ 109.617555555554944, -6.84333333333249 ], [ 109.617555555554944, -6.843111111110268 ], [ 109.617333333332709, -6.843111111110268 ], [ 109.617333333332709, -6.842666666665824 ], [ 109.617111111110489, -6.842666666665824 ], [ 109.617111111110489, -6.842444444443602 ], [ 109.616666666666049, -6.842444444443602 ], [ 109.616666666666049, -6.84222222222138 ], [ 109.616222222221609, -6.84222222222138 ], [ 109.616222222221609, -6.841777777776936 ] ], [ [ 109.617333333332709, -6.843555555554712 ], [ 109.617333333332709, -6.843777777776934 ], [ 109.617555555554944, -6.843777777776934 ], [ 109.617555555554944, -6.843555555554712 ], [ 109.617333333332709, -6.843555555554712 ] ], [ [ 109.617777777777164, -6.843777777776934 ], [ 109.617777777777164, -6.843999999999156 ], [ 109.617999999999384, -6.843999999999156 ], [ 109.617999999999384, -6.843777777776934 ], [ 109.617777777777164, -6.843777777776934 ] ], [ [ 109.62044444444382, -6.8444444444436 ], [ 109.62044444444382, -6.844888888888044 ], [ 109.619999999999379, -6.844888888888044 ], [ 109.619999999999379, -6.845111111110266 ], [ 109.62066666666604, -6.845111111110266 ], [ 109.62066666666604, -6.8444444444436 ], [ 109.62044444444382, -6.8444444444436 ] ], [ [ 109.617999999999384, -6.845333333332488 ], [ 109.617999999999384, -6.84555555555471 ], [ 109.618222222221604, -6.84555555555471 ], [ 109.618222222221604, -6.845333333332488 ], [ 109.617999999999384, -6.845333333332488 ] ] ] } },
{ "type": "Feature", "properties": { "PXLVAL": 1 }, "geometry": { "type": "Polygon", "coordinates": [ [ [ 109.586222222221636, -6.84555555555471 ], [ 109.586444444443856, -6.84555555555471 ], [ 109.586444444443856, -6.845777777776932 ], [ 109.586666666666076, -6.845777777776932 ], [ 109.586666666666076, -6.84555555555471 ], [ 109.587111111110531, -6.84555555555471 ], [ 109.587111111110531, -6.845999999999154 ], [ 109.587777777777191, -6.845999999999154 ], [ 109.587777777777191, -6.846222222221376 ], [ 109.587333333332751, -6.846222222221376 ], [ 109.587333333332751, -6.846444444443598 ], [ 109.586222222221636, -6.846444444443598 ], [ 109.586222222221636, -6.846222222221376 ], [ 109.585999999999416, -6.846222222221376 ], [ 109.585999999999416, -6.845777777776932 ], [ 109.586222222221636, -6.845777777776932 ], [ 109.586222222221636, -6.84555555555471 ] ], [ [ 109.586666666666076, -6.845999999999154 ], [ 109.586666666666076, -6.846222222221376 ], [ 109.587111111110531, -6.846222222221376 ], [ 109.587111111110531, -6.845999999999154 ], [ 109.586666666666076, -6.845999999999154 ] ] ] } },
{ "type": "Feature", "properties": { "PXLVAL": 1 }, "geometry": { "type": "Polygon", "coordinates": [ [ [ 109.619555555554939, -6.846444444443598 ], [ 109.619999999999379, -6.846444444443598 ], [ 109.619999999999379, -6.847111111110264 ], [ 109.619333333332719, -6.847111111110264 ], [ 109.619333333332719, -6.846888888888042 ], [ 109.619777777777159, -6.846888888888042 ], [ 109.619777777777159, -6.84666666666582 ], [ 109.619555555554939, -6.84666666666582 ], [ 109.619555555554939, -6.846444444443598 ] ] ] } },
{ "type": "Feature", "properties": { "PXLVAL": 1 }, "geometry": { "type": "Polygon", "coordinates": [ [ [ 109.621333333332714, -6.846888888888042 ], [ 109.621555555554934, -6.846888888888042 ], [ 109.621555555554934, -6.847111111110264 ], [ 109.621333333332714, -6.847111111110264 ], [ 109.621333333332714, -6.846888888888042 ] ] ] } },
{ "type": "Feature", "properties": { "PXLVAL": 1 }, "geometry": { "type": "Polygon", "coordinates": [ [ [ 109.616444444443829, -6.847111111110264 ], [ 109.616666666666049, -6.847111111110264 ], [ 109.616666666666049, -6.847333333332486 ], [ 109.616444444443829, -6.847333333332486 ], [ 109.616444444443829, -6.847111111110264 ] ] ] } },
{ "type": "Feature", "properties": { "PXLVAL": 1 }, "geometry": { "type": "Polygon", "coordinates": [ [ [ 109.621555555554934, -6.845999999999154 ], [ 109.621999999999375, -6.845999999999154 ], [ 109.621999999999375, -6.846222222221376 ], [ 109.621777777777154, -6.846222222221376 ], [ 109.621777777777154, -6.846444444443598 ], [ 109.622444444443829, -6.846444444443598 ], [ 109.622444444443829, -6.84666666666582 ], [ 109.62377777777715, -6.84666666666582 ], [ 109.62377777777715, -6.847111111110264 ], [ 109.624444444443824, -6.847111111110264 ], [ 109.624444444443824, -6.847555555554708 ], [ 109.62399999999937, -6.847555555554708 ], [ 109.62399999999937, -6.847333333332486 ], [ 109.62355555555493, -6.847333333332486 ], [ 109.62355555555493, -6.847555555554708 ], [ 109.62333333333271, -6.847555555554708 ], [ 109.62333333333271, -6.84777777777693 ], [ 109.622888888888269, -6.84777777777693 ], [ 109.622888888888269, -6.847555555554708 ], [ 109.622222222221595, -6.847555555554708 ], [ 109.622222222221595, -6.847333333332486 ], [ 109.621999999999375, -6.847333333332486 ], [ 109.621999999999375, -6.847555555554708 ], [ 109.621555555554934, -6.847555555554708 ], [ 109.621555555554934, -6.847333333332486 ], [ 109.621777777777154, -6.847333333332486 ], [ 109.621777777777154, -6.847111111110264 ], [ 109.621999999999375, -6.847111111110264 ], [ 109.621999999999375, -6.846888888888042 ], [ 109.621777777777154, -6.846888888888042 ], [ 109.621777777777154, -6.84666666666582 ], [ 109.621555555554934, -6.84666666666582 ], [ 109.621555555554934, -6.845999999999154 ] ], [ [ 109.621999999999375, -6.84666666666582 ], [ 109.621999999999375, -6.846888888888042 ], [ 109.622222222221595, -6.846888888888042 ], [ 109.622222222221595, -6.84666666666582 ], [ 109.621999999999375, -6.84666666666582 ] ] ] } },
{ "type": "Feature", "properties": { "PXLVAL": 1 }, "geometry": { "type": "Polygon", "coordinates": [ [ [ 109.622444444443829, -6.84777777777693 ], [ 109.622666666666049, -6.84777777777693 ], [ 109.622666666666049, -6.848222222221374 ], [ 109.622444444443829, -6.848222222221374 ], [ 109.622444444443829, -6.84777777777693 ] ] ] } },
{ "type": "Feature", "properties": { "PXLVAL": 1 }, "geometry": { "type": "Polygon", "coordinates": [ [ [ 109.615555555554934, -6.847999999999152 ], [ 109.615999999999389, -6.847999999999152 ], [ 109.615999999999389, -6.848222222221374 ], [ 109.615777777777168, -6.848222222221374 ], [ 109.615777777777168, -6.848444444443596 ], [ 109.615555555554934, -6.848444444443596 ], [ 109.615555555554934, -6.847999999999152 ] ] ] } },
{ "type": "Feature", "properties": { "PXLVAL": 1 }, "geometry": { "type": "Polygon", "coordinates": [ [ [ 109.581555555554971, -6.848222222221374 ], [ 109.581999999999411, -6.848222222221374 ], [ 109.581999999999411, -6.848444444443596 ], [ 109.582222222221645, -6.848444444443596 ], [ 109.582222222221645, -6.848666666665818 ], [ 109.581777777777191, -6.848666666665818 ], [ 109.581777777777191, -6.848444444443596 ], [ 109.581555555554971, -6.848444444443596 ], [ 109.581555555554971, -6.848222222221374 ] ] ] } },
{ "type": "Feature", "properties": { "PXLVAL": 1 }, "geometry": { "type": "Polygon", "coordinates": [ [ [ 109.615777777777168, -6.848444444443596 ], [ 109.615999999999389, -6.848444444443596 ], [ 109.615999999999389, -6.848666666665818 ], [ 109.616666666666049, -6.848666666665818 ], [ 109.616666666666049, -6.849111111110262 ], [ 109.616444444443829, -6.849111111110262 ], [ 109.616444444443829, -6.84888888888804 ], [ 109.615777777777168, -6.84888888888804 ], [ 109.615777777777168, -6.848444444443596 ] ] ] } },
{ "type": "Feature", "properties": { "PXLVAL": 1 }, "geometry": { "type": "Polygon", "coordinates": [ [ [ 109.585111111110521, -6.848444444443596 ], [ 109.585555555554976, -6.848444444443596 ], [ 109.585555555554976, -6.84888888888804 ], [ 109.585333333332741, -6.84888888888804 ], [ 109.585333333332741, -6.849111111110262 ], [ 109.585111111110521, -6.849111111110262 ], [ 109.585111111110521, -6.84888888888804 ], [ 109.584666666666081, -6.84888888888804 ], [ 109.584666666666081, -6.848666666665818 ], [ 109.585111111110521, -6.848666666665818 ], [ 109.585111111110521, -6.848444444443596 ] ] ] } },
{ "type": "Feature", "properties": { "PXLVAL": 1 }, "geometry": { "type": "Polygon", "coordinates": [ [ [ 109.614444444443834, -6.843999999999156 ], [ 109.615555555554934, -6.843999999999156 ], [ 109.615555555554934, -6.8444444444436 ], [ 109.615111111110494, -6.8444444444436 ], [ 109.615111111110494, -6.844888888888044 ], [ 109.614888888888274, -6.844888888888044 ], [ 109.614888888888274, -6.845111111110266 ], [ 109.614666666666054, -6.845111111110266 ], [ 109.614666666666054, -6.845777777776932 ], [ 109.614888888888274, -6.845777777776932 ], [ 109.614888888888274, -6.845999999999154 ], [ 109.615111111110494, -6.845999999999154 ], [ 109.615111111110494, -6.845777777776932 ], [ 109.616444444443829, -6.845777777776932 ], [ 109.616444444443829, -6.845999999999154 ], [ 109.617555555554944, -6.845999999999154 ], [ 109.617555555554944, -6.846222222221376 ], [ 109.617777777777164, -6.846222222221376 ], [ 109.617777777777164, -6.84666666666582 ], [ 109.617555555554944, -6.84666666666582 ], [ 109.617555555554944, -6.847111111110264 ], [ 109.617777777777164, -6.847111111110264 ], [ 109.617777777777164, -6.847333333332486 ], [ 109.617999999999384, -6.847333333332486 ], [ 109.617999999999384, -6.84777777777693 ], [ 109.618222222221604, -6.84777777777693 ], [ 109.618222222221604, -6.848222222221374 ], [ 109.619333333332719, -6.848222222221374 ], [ 109.619333333332719, -6.84777777777693 ], [ 109.619555555554939, -6.84777777777693 ], [ 109.619555555554939, -6.847555555554708 ], [ 109.619999999999379, -6.847555555554708 ], [ 109.619999999999379, -6.847111111110264 ], [ 109.620222222221599, -6.847111111110264 ], [ 109.620222222221599, -6.847999999999152 ], [ 109.619999999999379, -6.847999999999152 ], [ 109.619999999999379, -6.848222222221374 ], [ 109.619777777777159, -6.848222222221374 ], [ 109.619777777777159, -6.848444444443596 ], [ 109.618666666666044, -6.848444444443596 ], [ 109.618666666666044, -6.848666666665818 ], [ 109.619333333332719, -6.848666666665818 ], [ 109.619333333332719, -6.84888888888804 ], [ 109.620222222221599, -6.84888888888804 ], [ 109.620222222221599, -6.849111111110262 ], [ 109.619999999999379, -6.849111111110262 ], [ 109.619999999999379, -6.849333333332484 ], [ 109.620222222221599, -6.849333333332484 ], [ 109.620222222221599, -6.849555555554706 ], [ 109.619111111110499, -6.849555555554706 ], [ 109.619111111110499, -6.849333333332484 ], [ 109.617999999999384, -6.849333333332484 ], [ 109.617999999999384, -6.849111111110262 ], [ 109.617777777777164, -6.849111111110262 ], [ 109.617777777777164, -6.84888888888804 ], [ 109.617555555554944, -6.84888888888804 ], [ 109.617555555554944, -6.848666666665818 ], [ 109.617333333332709, -6.848666666665818 ], [ 109.617333333332709, -6.848444444443596 ], [ 109.616888888888269, -6.848444444443596 ], [ 109.616888888888269, -6.848222222221374 ], [ 109.616666666666049, -6.848222222221374 ], [ 109.616666666666049, -6.84777777777693 ], [ 109.615999999999389, -6.84777777777693 ], [ 109.615999999999389, -6.847555555554708 ], [ 109.616222222221609, -6.847555555554708 ], [ 109.616222222221609, -6.847333333332486 ], [ 109.616444444443829, -6.847333333332486 ], [ 109.616444444443829, -6.847555555554708 ], [ 109.617555555554944, -6.847555555554708 ], [ 109.617555555554944, -6.847333333332486 ], [ 109.617111111110489, -6.847333333332486 ], [ 109.617111111110489, -6.847111111110264 ], [ 109.616888888888269, -6.847111111110264 ], [ 109.616888888888269, -6.846888888888042 ], [ 109.616444444443829, -6.846888888888042 ], [ 109.616444444443829, -6.84666666666582 ], [ 109.616222222221609, -6.84666666666582 ], [ 109.616222222221609, -6.846888888888042 ], [ 109.615777777777168, -6.846888888888042 ], [ 109.615777777777168, -6.847111111110264 ], [ 109.615333333332714, -6.847111111110264 ], [ 109.615333333332714, -6.846444444443598 ], [ 109.615555555554934, -6.846444444443598 ], [ 109.615555555554934, -6.84666666666582 ], [ 109.615999999999389, -6.84666666666582 ], [ 109.615999999999389, -6.845999999999154 ], [ 109.615333333332714, -6.845999999999154 ], [ 109.615333333332714, -6.846222222221376 ], [ 109.614444444443834, -6.846222222221376 ], [ 109.614444444443834, -6.845999999999154 ], [ 109.614222222221613, -6.845999999999154 ], [ 109.614222222221613, -6.845777777776932 ], [ 109.613999999999379, -6.845777777776932 ], [ 109.613999999999379, -6.846222222221376 ], [ 109.614222222221613, -6.846222222221376 ], [ 109.614222222221613, -6.846444444443598 ], [ 109.613999999999379, -6.846444444443598 ], [ 109.613999999999379, -6.84666666666582 ], [ 109.614222222221613, -6.84666666666582 ], [ 109.614222222221613, -6.846888888888042 ], [ 109.613999999999379, -6.846888888888042 ], [ 109.613999999999379, -6.847555555554708 ], [ 109.614222222221613, -6.847555555554708 ], [ 109.614222222221613, -6.84777777777693 ], [ 109.613777777777159, -6.84777777777693 ], [ 109.613777777777159, -6.847555555554708 ], [ 109.613555555554939, -6.847555555554708 ], [ 109.613555555554939, -6.847111111110264 ], [ 109.613333333332719, -6.847111111110264 ], [ 109.613333333332719, -6.846888888888042 ], [ 109.613777777777159, -6.846888888888042 ], [ 109.613777777777159, -6.84666666666582 ], [ 109.613333333332719, -6.84666666666582 ], [ 109.613333333332719, -6.846222222221376 ], [ 109.613111111110499, -6.846222222221376 ], [ 109.613111111110499, -6.845999999999154 ], [ 109.613777777777159, -6.845999999999154 ], [ 109.613777777777159, -6.84555555555471 ], [ 109.612888888888278, -6.84555555555471 ], [ 109.612888888888278, -6.845777777776932 ], [ 109.612666666666058, -6.845777777776932 ], [ 109.612666666666058, -6.844888888888044 ], [ 109.613111111110499, -6.844888888888044 ], [ 109.613111111110499, -6.845111111110266 ], [ 109.613555555554939, -6.845111111110266 ], [ 109.613555555554939, -6.845333333332488 ], [ 109.614444444443834, -6.845333333332488 ], [ 109.614444444443834, -6.843999999999156 ] ], [ [ 109.616666666666049, -6.846444444443598 ], [ 109.616666666666049, -6.84666666666582 ], [ 109.617333333332709, -6.84666666666582 ], [ 109.617333333332709, -6.846444444443598 ], [ 109.616666666666049, -6.846444444443598 ] ], [ [ 109.617333333332709, -6.84777777777693 ], [ 109.617333333332709, -6.848222222221374 ], [ 109.617555555554944, -6.848222222221374 ], [ 109.617555555554944, -6.84777777777693 ], [ 109.617333333332709, -6.84777777777693 ] ], [ [ 109.617777777777164, -6.848444444443596 ], [ 109.617777777777164, -6.848666666665818 ], [ 109.618222222221604, -6.848666666665818 ], [ 109.618222222221604, -6.848444444443596 ], [ 109.617777777777164, -6.848444444443596 ] ], [ [ 109.619333333332719, -6.849111111110262 ], [ 109.619333333332719, -6.849333333332484 ], [ 109.619555555554939, -6.849333333332484 ], [ 109.619555555554939, -6.849111111110262 ], [ 109.619333333332719, -6.849111111110262 ] ] ] } },
{ "type": "Feature", "properties": { "PXLVAL": 1 }, "geometry": { "type": "Polygon", "coordinates": [ [ [ 109.621111111110494, -6.848222222221374 ], [ 109.621555555554934, -6.848222222221374 ], [ 109.621555555554934, -6.848444444443596 ], [ 109.621333333332714, -6.848444444443596 ], [ 109.621333333332714, -6.849333333332484 ], [ 109.621999999999375, -6.849333333332484 ], [ 109.621999999999375, -6.849555555554706 ], [ 109.62066666666604, -6.849555555554706 ], [ 109.62066666666604, -6.848666666665818 ], [ 109.621111111110494, -6.848666666665818 ], [ 109.621111111110494, -6.848222222221374 ] ] ] } },
{ "type": "Feature", "properties": { "PXLVAL": 1 }, "geometry": { "type": "Polygon", "coordinates": [ [ [ 109.616888888888269, -6.84888888888804 ], [ 109.617333333332709, -6.84888888888804 ], [ 109.617333333332709, -6.849333333332484 ], [ 109.617111111110489, -6.849333333332484 ], [ 109.617111111110489, -6.849111111110262 ], [ 109.616888888888269, -6.849111111110262 ], [ 109.616888888888269, -6.84888888888804 ] ] ] } },
{ "type": "Feature", "properties": { "PXLVAL": 1 }, "geometry": { "type": "Polygon", "coordinates": [ [ [ 109.622444444443829, -6.848444444443596 ], [ 109.622666666666049, -6.848444444443596 ], [ 109.622666666666049, -6.849111111110262 ], [ 109.622444444443829, -6.849111111110262 ], [ 109.622444444443829, -6.849333333332484 ], [ 109.621999999999375, -6.849333333332484 ], [ 109.621999999999375, -6.849111111110262 ], [ 109.622222222221595, -6.849111111110262 ], [ 109.622222222221595, -6.848666666665818 ], [ 109.622444444443829, -6.848666666665818 ], [ 109.622444444443829, -6.848444444443596 ] ] ] } },
{ "type": "Feature", "properties": { "PXLVAL": 1 }, "geometry": { "type": "Polygon", "coordinates": [ [ [ 109.662222222221558, -6.850222222221372 ], [ 109.662444444443778, -6.850222222221372 ], [ 109.662444444443778, -6.850444444443594 ], [ 109.662666666665999, -6.850444444443594 ], [ 109.662666666665999, -6.850666666665816 ], [ 109.663333333332673, -6.850666666665816 ], [ 109.663333333332673, -6.850888888888038 ], [ 109.662444444443778, -6.850888888888038 ], [ 109.662444444443778, -6.850666666665816 ], [ 109.661999999999338, -6.850666666665816 ], [ 109.661999999999338, -6.850444444443594 ], [ 109.662222222221558, -6.850444444443594 ], [ 109.662222222221558, -6.850222222221372 ] ] ] } },
{ "type": "Feature", "properties": { "PXLVAL": 1 }, "geometry": { "type": "Polygon", "coordinates": [ [ [ 109.616222222221609, -6.85444444444359 ], [ 109.616444444443829, -6.85444444444359 ], [ 109.616444444443829, -6.854666666665812 ], [ 109.616666666666049, -6.854666666665812 ], [ 109.616666666666049, -6.854888888888034 ], [ 109.616444444443829, -6.854888888888034 ], [ 109.616444444443829, -6.8555555555547 ], [ 109.616222222221609, -6.8555555555547 ], [ 109.616222222221609, -6.85444444444359 ] ] ] } },
{ "type": "Feature", "properties": { "PXLVAL": 1 }, "geometry": { "type": "Polygon", "coordinates": [ [ [ 109.618222222221604, -6.85444444444359 ], [ 109.618444444443824, -6.85444444444359 ], [ 109.618444444443824, -6.854666666665812 ], [ 109.618666666666044, -6.854666666665812 ], [ 109.618666666666044, -6.854888888888034 ], [ 109.617999999999384, -6.854888888888034 ], [ 109.617999999999384, -6.855111111110256 ], [ 109.618222222221604, -6.855111111110256 ], [ 109.618222222221604, -6.855333333332478 ], [ 109.617999999999384, -6.855333333332478 ], [ 109.617999999999384, -6.8555555555547 ], [ 109.617333333332709, -6.8555555555547 ], [ 109.617333333332709, -6.855333333332478 ], [ 109.616666666666049, -6.855333333332478 ], [ 109.616666666666049, -6.855111111110256 ], [ 109.617555555554944, -6.855111111110256 ], [ 109.617555555554944, -6.854888888888034 ], [ 109.617111111110489, -6.854888888888034 ], [ 109.617111111110489, -6.854666666665812 ], [ 109.618222222221604, -6.854666666665812 ], [ 109.618222222221604, -6.85444444444359 ] ] ] } },
{ "type": "Feature", "properties": { "PXLVAL": 1 }, "geometry": { "type": "Polygon", "coordinates": [ [ [ 109.599777777777177, -6.858444444443586 ], [ 109.600222222221618, -6.858444444443586 ], [ 109.600222222221618, -6.858666666665808 ], [ 109.599999999999397, -6.858666666665808 ], [ 109.599999999999397, -6.85888888888803 ], [ 109.599777777777177, -6.85888888888803 ], [ 109.599777777777177, -6.859111111110252 ], [ 109.599999999999397, -6.859111111110252 ], [ 109.599999999999397, -6.859777777776918 ], [ 109.600222222221618, -6.859777777776918 ], [ 109.600222222221618, -6.85999999999914 ], [ 109.599555555554957, -6.85999999999914 ], [ 109.599555555554957, -6.859777777776918 ], [ 109.599333333332737, -6.859777777776918 ], [ 109.599333333332737, -6.860222222221362 ], [ 109.598444444443842, -6.860222222221362 ], [ 109.598444444443842, -6.859777777776918 ], [ 109.598666666666062, -6.859777777776918 ], [ 109.598666666666062, -6.85999999999914 ], [ 109.598888888888297, -6.85999999999914 ], [ 109.598888888888297, -6.859777777776918 ], [ 109.599111111110517, -6.859777777776918 ], [ 109.599111111110517, -6.859555555554696 ], [ 109.597999999999402, -6.859555555554696 ], [ 109.597999999999402, -6.859333333332474 ], [ 109.597777777777182, -6.859333333332474 ], [ 109.597777777777182, -6.859555555554696 ], [ 109.597555555554962, -6.859555555554696 ], [ 109.597555555554962, -6.859777777776918 ], [ 109.597333333332742, -6.859777777776918 ], [ 109.597333333332742, -6.859555555554696 ], [ 109.597111111110507, -6.859555555554696 ], [ 109.597111111110507, -6.859111111110252 ], [ 109.598666666666062, -6.859111111110252 ], [ 109.598666666666062, -6.85888888888803 ], [ 109.599111111110517, -6.85888888888803 ], [ 109.599111111110517, -6.858666666665808 ], [ 109.599333333332737, -6.858666666665808 ], [ 109.599333333332737, -6.85888888888803 ], [ 109.599555555554957, -6.85888888888803 ], [ 109.599555555554957, -6.858666666665808 ], [ 109.599777777777177, -6.858666666665808 ], [ 109.599777777777177, -6.858444444443586 ] ], [ [ 109.598666666666062, -6.859111111110252 ], [ 109.598666666666062, -6.859333333332474 ], [ 109.598888888888297, -6.859333333332474 ], [ 109.598888888888297, -6.859111111110252 ], [ 109.598666666666062, -6.859111111110252 ] ], [ [ 109.599333333332737, -6.859111111110252 ], [ 109.599333333332737, -6.859333333332474 ], [ 109.599555555554957, -6.859333333332474 ], [ 109.599555555554957, -6.859111111110252 ], [ 109.599333333332737, -6.859111111110252 ] ] ] } },
{ "type": "Feature", "properties": { "PXLVAL": 1 }, "geometry": { "type": "Polygon", "coordinates": [ [ [ 109.596222222221627, -6.859777777776918 ], [ 109.596444444443847, -6.859777777776918 ], [ 109.596444444443847, -6.85999999999914 ], [ 109.596666666666067, -6.85999999999914 ], [ 109.596666666666067, -6.860222222221362 ], [ 109.596888888888287, -6.860222222221362 ], [ 109.596888888888287, -6.860444444443584 ], [ 109.596666666666067, -6.860444444443584 ], [ 109.596666666666067, -6.860888888888028 ], [ 109.596444444443847, -6.860888888888028 ], [ 109.596444444443847, -6.86111111111025 ], [ 109.595333333332732, -6.86111111111025 ], [ 109.595333333332732, -6.861333333332472 ], [ 109.595111111110512, -6.861333333332472 ], [ 109.595111111110512, -6.860666666665806 ], [ 109.595999999999407, -6.860666666665806 ], [ 109.595999999999407, -6.85999999999914 ], [ 109.596222222221627, -6.85999999999914 ], [ 109.596222222221627, -6.859777777776918 ] ] ] } },
{ "type": "Feature", "properties": { "PXLVAL": 1 }, "geometry": { "type": "Polygon", "coordinates": [ [ [ 109.668888888888219, -6.860888888888028 ], [ 109.669111111110439, -6.860888888888028 ], [ 109.669111111110439, -6.86111111111025 ], [ 109.669333333332659, -6.86111111111025 ], [ 109.669333333332659, -6.861333333332472 ], [ 109.668888888888219, -6.861333333332472 ], [ 109.668888888888219, -6.860888888888028 ] ] ] } },
{ "type": "Feature", "properties": { "PXLVAL": 1 }, "geometry": { "type": "Polygon", "coordinates": [ [ [ 109.672222222221549, -6.86111111111025 ], [ 109.67266666666599, -6.86111111111025 ], [ 109.67266666666599, -6.861333333332472 ], [ 109.67288888888821, -6.861333333332472 ], [ 109.67288888888821, -6.861555555554694 ], [ 109.672222222221549, -6.861555555554694 ], [ 109.672222222221549, -6.86111111111025 ] ] ] } },
{ "type": "Feature", "properties": { "PXLVAL": 1 }, "geometry": { "type": "Polygon", "coordinates": [ [ [ 109.605555555554943, -6.860888888888028 ], [ 109.605777777777178, -6.860888888888028 ], [ 109.605777777777178, -6.86111111111025 ], [ 109.606444444443838, -6.86111111111025 ], [ 109.606444444443838, -6.861777777776916 ], [ 109.605777777777178, -6.861777777776916 ], [ 109.605777777777178, -6.861555555554694 ], [ 109.605333333332723, -6.861555555554694 ], [ 109.605333333332723, -6.861333333332472 ], [ 109.605555555554943, -6.861333333332472 ], [ 109.605555555554943, -6.860888888888028 ] ] ] } },
{ "type": "Feature", "properties": { "PXLVAL": 1 }, "geometry": { "type": "Polygon", "coordinates": [ [ [ 109.669111111110439, -6.861555555554694 ], [ 109.670222222221554, -6.861555555554694 ], [ 109.670222222221554, -6.861777777776916 ], [ 109.670666666665994, -6.861777777776916 ], [ 109.670666666665994, -6.861999999999138 ], [ 109.670444444443774, -6.861999999999138 ], [ 109.670444444443774, -6.86222222222136 ], [ 109.670666666665994, -6.86222222222136 ], [ 109.670666666665994, -6.862444444443582 ], [ 109.670222222221554, -6.862444444443582 ], [ 109.670222222221554, -6.86222222222136 ], [ 109.669777777777114, -6.86222222222136 ], [ 109.669777777777114, -6.862444444443582 ], [ 109.669555555554879, -6.862444444443582 ], [ 109.669555555554879, -6.861999999999138 ], [ 109.669333333332659, -6.861999999999138 ], [ 109.669333333332659, -6.861777777776916 ], [ 109.669111111110439, -6.861777777776916 ], [ 109.669111111110439, -6.861555555554694 ] ] ] } },
{ "type": "Feature", "properties": { "PXLVAL": 1 }, "geometry": { "type": "Polygon", "coordinates": [ [ [ 109.671111111110434, -6.861777777776916 ], [ 109.671333333332669, -6.861777777776916 ], [ 109.671333333332669, -6.861999999999138 ], [ 109.671555555554889, -6.861999999999138 ], [ 109.671555555554889, -6.861777777776916 ], [ 109.671777777777109, -6.861777777776916 ], [ 109.671777777777109, -6.86222222222136 ], [ 109.671111111110434, -6.86222222222136 ], [ 109.671111111110434, -6.861777777776916 ] ] ] } },
{ "type": "Feature", "properties": { "PXLVAL": 1 }, "geometry": { "type": "Polygon", "coordinates": [ [ [ 109.606666666666058, -6.86222222222136 ], [ 109.606888888888278, -6.86222222222136 ], [ 109.606888888888278, -6.862666666665804 ], [ 109.606666666666058, -6.862666666665804 ], [ 109.606666666666058, -6.86222222222136 ] ] ] } },
{ "type": "Feature", "properties": { "PXLVAL": 1 }, "geometry": { "type": "Polygon", "coordinates": [ [ [ 109.667999999999338, -6.861999999999138 ], [ 109.668444444443779, -6.861999999999138 ], [ 109.668444444443779, -6.862444444443582 ], [ 109.668222222221559, -6.862444444443582 ], [ 109.668222222221559, -6.862888888888026 ], [ 109.667999999999338, -6.862888888888026 ], [ 109.667999999999338, -6.862666666665804 ], [ 109.667777777777104, -6.862666666665804 ], [ 109.667777777777104, -6.862444444443582 ], [ 109.667555555554884, -6.862444444443582 ], [ 109.667555555554884, -6.86222222222136 ], [ 109.667999999999338, -6.86222222222136 ], [ 109.667999999999338, -6.861999999999138 ] ] ] } },
{ "type": "Feature", "properties": { "PXLVAL": 1 }, "geometry": { "type": "Polygon", "coordinates": [ [ [ 109.637333333332691, -6.862666666665804 ], [ 109.637777777777146, -6.862666666665804 ], [ 109.637777777777146, -6.862888888888026 ], [ 109.637555555554911, -6.862888888888026 ], [ 109.637555555554911, -6.863111111110248 ], [ 109.637333333332691, -6.863111111110248 ], [ 109.637333333332691, -6.862666666665804 ] ] ] } },
{ "type": "Feature", "properties": { "PXLVAL": 1 }, "geometry": { "type": "Polygon", "coordinates": [ [ [ 109.669111111110439, -6.862666666665804 ], [ 109.669999999999334, -6.862666666665804 ], [ 109.669999999999334, -6.862888888888026 ], [ 109.669111111110439, -6.862888888888026 ], [ 109.669111111110439, -6.862666666665804 ] ] ] } },
{ "type": "Feature", "properties": { "PXLVAL": 1 }, "geometry": { "type": "Polygon", "coordinates": [ [ [ 109.656666666666013, -6.862888888888026 ], [ 109.656888888888233, -6.862888888888026 ], [ 109.656888888888233, -6.863111111110248 ], [ 109.657333333332673, -6.863111111110248 ], [ 109.657333333332673, -6.86333333333247 ], [ 109.656666666666013, -6.86333333333247 ], [ 109.656666666666013, -6.862888888888026 ] ] ] } },
{ "type": "Feature", "properties": { "PXLVAL": 1 }, "geometry": { "type": "Polygon", "coordinates": [ [ [ 109.604444444443843, -6.863111111110248 ], [ 109.604666666666063, -6.863111111110248 ], [ 109.604666666666063, -6.86333333333247 ], [ 109.604444444443843, -6.86333333333247 ], [ 109.604444444443843, -6.863111111110248 ] ] ] } },
{ "type": "Feature", "properties": { "PXLVAL": 1 }, "geometry": { "type": "Polygon", "coordinates": [ [ [ 109.637555555554911, -6.86111111111025 ], [ 109.637999999999366, -6.86111111111025 ], [ 109.637999999999366, -6.861555555554694 ], [ 109.638222222221586, -6.861555555554694 ], [ 109.638222222221586, -6.861333333332472 ], [ 109.639111111110466, -6.861333333332472 ], [ 109.639111111110466, -6.861555555554694 ], [ 109.639333333332701, -6.861555555554694 ], [ 109.639333333332701, -6.861777777776916 ], [ 109.639111111110466, -6.861777777776916 ], [ 109.639111111110466, -6.862444444443582 ], [ 109.638666666666026, -6.862444444443582 ], [ 109.638666666666026, -6.862666666665804 ], [ 109.638444444443806, -6.862666666665804 ], [ 109.638444444443806, -6.863111111110248 ], [ 109.638222222221586, -6.863111111110248 ], [ 109.638222222221586, -6.86333333333247 ], [ 109.638444444443806, -6.86333333333247 ], [ 109.638444444443806, -6.863555555554692 ], [ 109.637555555554911, -6.863555555554692 ], [ 109.637555555554911, -6.863111111110248 ], [ 109.637777777777146, -6.863111111110248 ], [ 109.637777777777146, -6.862888888888026 ], [ 109.637999999999366, -6.862888888888026 ], [ 109.637999999999366, -6.862666666665804 ], [ 109.637777777777146, -6.862666666665804 ], [ 109.637777777777146, -6.862444444443582 ], [ 109.637555555554911, -6.862444444443582 ], [ 109.637555555554911, -6.86222222222136 ], [ 109.638222222221586, -6.86222222222136 ], [ 109.638222222221586, -6.861999999999138 ], [ 109.637777777777146, -6.861999999999138 ], [ 109.637777777777146, -6.861777777776916 ], [ 109.637333333332691, -6.861777777776916 ], [ 109.637333333332691, -6.861999999999138 ], [ 109.637111111110471, -6.861999999999138 ], [ 109.637111111110471, -6.861555555554694 ], [ 109.637333333332691, -6.861555555554694 ], [ 109.637333333332691, -6.861333333332472 ], [ 109.637555555554911, -6.861333333332472 ], [ 109.637555555554911, -6.86111111111025 ] ], [ [ 109.638666666666026, -6.861777777776916 ], [ 109.638666666666026, -6.861999999999138 ], [ 109.638888888888246, -6.861999999999138 ], [ 109.638888888888246, -6.861777777776916 ], [ 109.638666666666026, -6.861777777776916 ] ], [ [ 109.638444444443806, -6.861999999999138 ], [ 109.638444444443806, -6.86222222222136 ], [ 109.638666666666026, -6.86222222222136 ], [ 109.638666666666026, -6.861999999999138 ], [ 109.638444444443806, -6.861999999999138 ] ], [ [ 109.638222222221586, -6.86222222222136 ], [ 109.638222222221586, -6.862444444443582 ], [ 109.638444444443806, -6.862444444443582 ], [ 109.638444444443806, -6.86222222222136 ], [ 109.638222222221586, -6.86222222222136 ] ] ] } },
{ "type": "Feature", "properties": { "PXLVAL": 1 }, "geometry": { "type": "Polygon", "coordinates": [ [ [ 109.606444444443838, -6.863555555554692 ], [ 109.606888888888278, -6.863555555554692 ], [ 109.606888888888278, -6.863777777776914 ], [ 109.606444444443838, -6.863777777776914 ], [ 109.606444444443838, -6.863555555554692 ] ] ] } },
{ "type": "Feature", "properties": { "PXLVAL": 1 }, "geometry": { "type": "Polygon", "coordinates": [ [ [ 109.656444444443792, -6.863555555554692 ], [ 109.657111111110453, -6.863555555554692 ], [ 109.657111111110453, -6.864222222221358 ], [ 109.656666666666013, -6.864222222221358 ], [ 109.656666666666013, -6.863777777776914 ], [ 109.656444444443792, -6.863777777776914 ], [ 109.656444444443792, -6.863555555554692 ] ] ] } },
{ "type": "Feature", "properties": { "PXLVAL": 1 }, "geometry": { "type": "Polygon", "coordinates": [ [ [ 109.604222222221622, -6.863999999999136 ], [ 109.604444444443843, -6.863999999999136 ], [ 109.604444444443843, -6.864222222221358 ], [ 109.604222222221622, -6.864222222221358 ], [ 109.604222222221622, -6.863999999999136 ] ] ] } },
{ "type": "Feature", "properties": { "PXLVAL": 1 }, "geometry": { "type": "Polygon", "coordinates": [ [ [ 109.636888888888251, -6.863777777776914 ], [ 109.637111111110471, -6.863777777776914 ], [ 109.637111111110471, -6.863999999999136 ], [ 109.637333333332691, -6.863999999999136 ], [ 109.637333333332691, -6.86444444444358 ], [ 109.636666666666031, -6.86444444444358 ], [ 109.636666666666031, -6.865111111110246 ], [ 109.636444444443811, -6.865111111110246 ], [ 109.636444444443811, -6.864666666665802 ], [ 109.636222222221591, -6.864666666665802 ], [ 109.636222222221591, -6.864888888888024 ], [ 109.63599999999937, -6.864888888888024 ], [ 109.63599999999937, -6.865111111110246 ], [ 109.635777777777136, -6.865111111110246 ], [ 109.635777777777136, -6.864888888888024 ], [ 109.635555555554916, -6.864888888888024 ], [ 109.635555555554916, -6.864666666665802 ], [ 109.635111111110476, -6.864666666665802 ], [ 109.635111111110476, -6.86444444444358 ], [ 109.636222222221591, -6.86444444444358 ], [ 109.636222222221591, -6.864222222221358 ], [ 109.636666666666031, -6.864222222221358 ], [ 109.636666666666031, -6.863999999999136 ], [ 109.636888888888251, -6.863999999999136 ], [ 109.636888888888251, -6.863777777776914 ] ] ] } },
{ "type": "Feature", "properties": { "PXLVAL": 1 }, "geometry": { "type": "Polygon", "coordinates": [ [ [ 109.655111111110458, -6.864666666665802 ], [ 109.655333333332678, -6.864666666665802 ], [ 109.655333333332678, -6.864888888888024 ], [ 109.655999999999338, -6.864888888888024 ], [ 109.655999999999338, -6.865111111110246 ], [ 109.655777777777118, -6.865111111110246 ], [ 109.655777777777118, -6.865333333332468 ], [ 109.655999999999338, -6.865333333332468 ], [ 109.655999999999338, -6.86555555555469 ], [ 109.655777777777118, -6.86555555555469 ], [ 109.655777777777118, -6.865777777776912 ], [ 109.655555555554898, -6.865777777776912 ], [ 109.655555555554898, -6.86555555555469 ], [ 109.655333333332678, -6.86555555555469 ], [ 109.655333333332678, -6.865111111110246 ], [ 109.655111111110458, -6.865111111110246 ], [ 109.655111111110458, -6.864666666665802 ] ] ] } },
{ "type": "Feature", "properties": { "PXLVAL": 1 }, "geometry": { "type": "Polygon", "coordinates": [ [ [ 109.605333333332723, -6.865111111110246 ], [ 109.605555555554943, -6.865111111110246 ], [ 109.605555555554943, -6.86555555555469 ], [ 109.605333333332723, -6.86555555555469 ], [ 109.605333333332723, -6.865111111110246 ] ] ] } },
{ "type": "Feature", "properties": { "PXLVAL": 1 }, "geometry": { "type": "Polygon", "coordinates": [ [ [ 109.641555555554916, -6.865111111110246 ], [ 109.642222222221577, -6.865111111110246 ], [ 109.642222222221577, -6.865333333332468 ], [ 109.641777777777136, -6.865333333332468 ], [ 109.641777777777136, -6.86555555555469 ], [ 109.641555555554916, -6.86555555555469 ], [ 109.641555555554916, -6.865777777776912 ], [ 109.641333333332696, -6.865777777776912 ], [ 109.641333333332696, -6.865333333332468 ], [ 109.641555555554916, -6.865333333332468 ], [ 109.641555555554916, -6.865111111110246 ] ] ] } },
{ "type": "Feature", "properties": { "PXLVAL": 1 }, "geometry": { "type": "Polygon", "coordinates": [ [ [ 109.655999999999338, -6.865777777776912 ], [ 109.656444444443792, -6.865777777776912 ], [ 109.656444444443792, -6.866222222221356 ], [ 109.655999999999338, -6.866222222221356 ], [ 109.655999999999338, -6.865777777776912 ] ] ] } },
{ "type": "Feature", "properties": { "PXLVAL": 1 }, "geometry": { "type": "Polygon", "coordinates": [ [ [ 109.603999999999402, -6.865999999999134 ], [ 109.604222222221622, -6.865999999999134 ], [ 109.604222222221622, -6.866222222221356 ], [ 109.603999999999402, -6.866222222221356 ], [ 109.603999999999402, -6.865999999999134 ] ] ] } },
{ "type": "Feature", "properties": { "PXLVAL": 1 }, "geometry": { "type": "Polygon", "coordinates": [ [ [ 109.640444444443801, -6.866222222221356 ], [ 109.641111111110476, -6.866222222221356 ], [ 109.641111111110476, -6.866444444443578 ], [ 109.641555555554916, -6.866444444443578 ], [ 109.641555555554916, -6.8666666666658 ], [ 109.640888888888242, -6.8666666666658 ], [ 109.640888888888242, -6.866888888888022 ], [ 109.641111111110476, -6.866888888888022 ], [ 109.641111111110476, -6.867111111110244 ], [ 109.640888888888242, -6.867111111110244 ], [ 109.640888888888242, -6.867333333332466 ], [ 109.640666666666021, -6.867333333332466 ], [ 109.640666666666021, -6.866444444443578 ], [ 109.640444444443801, -6.866444444443578 ], [ 109.640444444443801, -6.866222222221356 ] ] ] } }
]
}
