{
"type": "FeatureCollection",
"name": "mangrove_jepara_kontrol_2020",
"crs": { "type": "name", "properties": { "name": "urn:ogc:def:crs:OGC:1.3:CRS84" } },
"features": [
{ "type": "Feature", "properties": { "PXLVAL": 1 }, "geometry": { "type": "Polygon", "coordinates": [ [ [ 110.683333333332655, -6.509333333332824 ], [ 110.683555555554875, -6.509333333332824 ], [ 110.683555555554875, -6.509555555555046 ], [ 110.684222222221536, -6.509555555555046 ], [ 110.684222222221536, -6.510666666666156 ], [ 110.683999999999315, -6.510666666666156 ], [ 110.683999999999315, -6.50999999999949 ], [ 110.683777777777095, -6.50999999999949 ], [ 110.683777777777095, -6.509777777777268 ], [ 110.683555555554875, -6.509777777777268 ], [ 110.683555555554875, -6.50999999999949 ], [ 110.683333333332655, -6.50999999999949 ], [ 110.683333333332655, -6.509333333332824 ] ] ] } },
{ "type": "Feature", "properties": { "PXLVAL": 1 }, "geometry": { "type": "Polygon", "coordinates": [ [ [ 110.681333333332645, -6.509111111110602 ], [ 110.68199999999932, -6.509111111110602 ], [ 110.68199999999932, -6.509555555555046 ], [ 110.68244444444376, -6.509555555555046 ], [ 110.68244444444376, -6.509777777777268 ], [ 110.68266666666598, -6.509777777777268 ], [ 110.68266666666598, -6.509555555555046 ], [ 110.682888888888201, -6.509555555555046 ], [ 110.682888888888201, -6.50999999999949 ], [ 110.68199999999932, -6.50999999999949 ], [ 110.68199999999932, -6.509777777777268 ], [ 110.68155555555488, -6.509777777777268 ], [ 110.68155555555488, -6.50999999999949 ], [ 110.6817777777771, -6.50999999999949 ], [ 110.6817777777771, -6.510444444443934 ], [ 110.681111111110425, -6.510444444443934 ], [ 110.681111111110425, -6.509555555555046 ], [ 110.681333333332645, -6.509555555555046 ], [ 110.681333333332645, -6.509111111110602 ] ] ] } },
{ "type": "Feature", "properties": { "PXLVAL": 1 }, "geometry": { "type": "Polygon", "coordinates": [ [ [ 110.676888888888215, -6.50999999999949 ], [ 110.677555555554875, -6.50999999999949 ], [ 110.677555555554875, -6.510222222221712 ], [ 110.677111111110435, -6.510222222221712 ], [ 110.677111111110435, -6.510444444443934 ], [ 110.677555555554875, -6.510444444443934 ], [ 110.677555555554875, -6.510666666666156 ], [ 110.677999999999315, -6.510666666666156 ], [ 110.677999999999315, -6.511333333332822 ], [ 110.677777777777095, -6.511333333332822 ], [ 110.677777777777095, -6.511999999999488 ], [ 110.677555555554875, -6.511999999999488 ], [ 110.677555555554875, -6.51222222222171 ], [ 110.676666666665994, -6.51222222222171 ], [ 110.676666666665994, -6.511777777777266 ], [ 110.676888888888215, -6.511777777777266 ], [ 110.676888888888215, -6.511555555555044 ], [ 110.676444444443774, -6.511555555555044 ], [ 110.676444444443774, -6.511333333332822 ], [ 110.6757777777771, -6.511333333332822 ], [ 110.6757777777771, -6.511999999999488 ], [ 110.675333333332659, -6.511999999999488 ], [ 110.675333333332659, -6.511333333332822 ], [ 110.67555555555488, -6.511333333332822 ], [ 110.67555555555488, -6.5111111111106 ], [ 110.676666666665994, -6.5111111111106 ], [ 110.676666666665994, -6.510222222221712 ], [ 110.676888888888215, -6.510222222221712 ], [ 110.676888888888215, -6.50999999999949 ] ], [ [ 110.677111111110435, -6.510888888888378 ], [ 110.677111111110435, -6.5111111111106 ], [ 110.677333333332655, -6.5111111111106 ], [ 110.677333333332655, -6.510888888888378 ], [ 110.677111111110435, -6.510888888888378 ] ] ] } }
]
}
