{
"type": "FeatureCollection",
"name": "mangrove_cirebon_jabar_2020",
"crs": { "type": "name", "properties": { "name": "urn:ogc:def:crs:OGC:1.3:CRS84" } },
"features": [
{ "type": "Feature", "properties": { "PXLVAL": 1 }, "geometry": { "type": "Polygon", "coordinates": [ [ [ 108.653111111110462, -6.751333333332582 ], [ 108.653333333332682, -6.751333333332582 ], [ 108.653333333332682, -6.752444444443692 ], [ 108.653111111110462, -6.752444444443692 ], [ 108.653111111110462, -6.752666666665914 ], [ 108.652888888888242, -6.752666666665914 ], [ 108.652888888888242, -6.751999999999248 ], [ 108.653111111110462, -6.751999999999248 ], [ 108.653111111110462, -6.751777777777026 ], [ 108.652888888888242, -6.751777777777026 ], [ 108.652888888888242, -6.751555555554804 ], [ 108.653111111110462, -6.751555555554804 ], [ 108.653111111110462, -6.751333333332582 ] ] ] } },
{ "type": "Feature", "properties": { "PXLVAL": 1 }, "geometry": { "type": "Polygon", "coordinates": [ [ [ 108.653333333332682, -6.752666666665914 ], [ 108.653555555554902, -6.752666666665914 ], [ 108.653555555554902, -6.753111111110358 ], [ 108.653111111110462, -6.753111111110358 ], [ 108.653111111110462, -6.752888888888136 ], [ 108.653333333332682, -6.752888888888136 ], [ 108.653333333332682, -6.752666666665914 ] ] ] } },
{ "type": "Feature", "properties": { "PXLVAL": 1 }, "geometry": { "type": "Polygon", "coordinates": [ [ [ 108.659111111110448, -6.758666666665908 ], [ 108.659777777777123, -6.758666666665908 ], [ 108.659777777777123, -6.75888888888813 ], [ 108.660222222221563, -6.75888888888813 ], [ 108.660222222221563, -6.759111111110352 ], [ 108.659999999999343, -6.759111111110352 ], [ 108.659999999999343, -6.759555555554796 ], [ 108.659555555554903, -6.759555555554796 ], [ 108.659555555554903, -6.759111111110352 ], [ 108.659111111110448, -6.759111111110352 ], [ 108.659111111110448, -6.758666666665908 ] ] ] } },
{ "type": "Feature", "properties": { "PXLVAL": 1 }, "geometry": { "type": "Polygon", "coordinates": [ [ [ 108.603333333332728, -6.764666666665902 ], [ 108.604444444443843, -6.764666666665902 ], [ 108.604444444443843, -6.764888888888124 ], [ 108.604222222221622, -6.764888888888124 ], [ 108.604222222221622, -6.765111111110346 ], [ 108.603999999999402, -6.765111111110346 ], [ 108.603999999999402, -6.76555555555479 ], [ 108.603555555554948, -6.76555555555479 ], [ 108.603555555554948, -6.765333333332568 ], [ 108.603333333332728, -6.765333333332568 ], [ 108.603333333332728, -6.764666666665902 ] ] ] } },
{ "type": "Feature", "properties": { "PXLVAL": 1 }, "geometry": { "type": "Polygon", "coordinates": [ [ [ 108.604444444443843, -6.76555555555479 ], [ 108.604666666666063, -6.76555555555479 ], [ 108.604666666666063, -6.766222222221456 ], [ 108.604444444443843, -6.766222222221456 ], [ 108.604444444443843, -6.76555555555479 ] ] ] } },
{ "type": "Feature", "properties": { "PXLVAL": 1 }, "geometry": { "type": "Polygon", "coordinates": [ [ [ 108.637999999999366, -6.767999999999232 ], [ 108.638444444443806, -6.767999999999232 ], [ 108.638444444443806, -6.768222222221454 ], [ 108.638222222221586, -6.768222222221454 ], [ 108.638222222221586, -6.768444444443676 ], [ 108.637999999999366, -6.768444444443676 ], [ 108.637999999999366, -6.767999999999232 ] ] ] } },
{ "type": "Feature", "properties": { "PXLVAL": 1 }, "geometry": { "type": "Polygon", "coordinates": [ [ [ 108.637333333332691, -6.768666666665898 ], [ 108.637777777777146, -6.768666666665898 ], [ 108.637777777777146, -6.76888888888812 ], [ 108.637555555554911, -6.76888888888812 ], [ 108.637555555554911, -6.769111111110342 ], [ 108.637333333332691, -6.769111111110342 ], [ 108.637333333332691, -6.768666666665898 ] ] ] } },
{ "type": "Feature", "properties": { "PXLVAL": 1 }, "geometry": { "type": "Polygon", "coordinates": [ [ [ 108.700666666665967, -6.807999999999192 ], [ 108.700888888888187, -6.807999999999192 ], [ 108.700888888888187, -6.808222222221414 ], [ 108.701111111110407, -6.808222222221414 ], [ 108.701111111110407, -6.808666666665858 ], [ 108.700222222221527, -6.808666666665858 ], [ 108.700222222221527, -6.808222222221414 ], [ 108.700666666665967, -6.808222222221414 ], [ 108.700666666665967, -6.807999999999192 ] ] ] } },
{ "type": "Feature", "properties": { "PXLVAL": 1 }, "geometry": { "type": "Polygon", "coordinates": [ [ [ 108.701777777777082, -6.808444444443636 ], [ 108.702444444443742, -6.808444444443636 ], [ 108.702444444443742, -6.80888888888808 ], [ 108.701999999999302, -6.80888888888808 ], [ 108.701999999999302, -6.808666666665858 ], [ 108.701777777777082, -6.808666666665858 ], [ 108.701777777777082, -6.808444444443636 ] ] ] } },
{ "type": "Feature", "properties": { "PXLVAL": 1 }, "geometry": { "type": "Polygon", "coordinates": [ [ [ 108.704222222221517, -6.80888888888808 ], [ 108.704444444443737, -6.80888888888808 ], [ 108.704444444443737, -6.809111111110302 ], [ 108.704222222221517, -6.809111111110302 ], [ 108.704222222221517, -6.80888888888808 ] ] ] } },
{ "type": "Feature", "properties": { "PXLVAL": 1 }, "geometry": { "type": "Polygon", "coordinates": [ [ [ 108.702888888888182, -6.809111111110302 ], [ 108.703333333332637, -6.809111111110302 ], [ 108.703333333332637, -6.809555555554746 ], [ 108.703111111110402, -6.809555555554746 ], [ 108.703111111110402, -6.809333333332524 ], [ 108.702888888888182, -6.809333333332524 ], [ 108.702888888888182, -6.809111111110302 ] ] ] } },
{ "type": "Feature", "properties": { "PXLVAL": 1 }, "geometry": { "type": "Polygon", "coordinates": [ [ [ 108.715111111110403, -6.810444444443634 ], [ 108.715555555554843, -6.810444444443634 ], [ 108.715555555554843, -6.810666666665856 ], [ 108.715111111110403, -6.810666666665856 ], [ 108.715111111110403, -6.810444444443634 ] ] ] } },
{ "type": "Feature", "properties": { "PXLVAL": 1 }, "geometry": { "type": "Polygon", "coordinates": [ [ [ 108.714666666665948, -6.810666666665856 ], [ 108.714888888888169, -6.810666666665856 ], [ 108.714888888888169, -6.810888888888078 ], [ 108.714666666665948, -6.810888888888078 ], [ 108.714666666665948, -6.810666666665856 ] ] ] } },
{ "type": "Feature", "properties": { "PXLVAL": 1 }, "geometry": { "type": "Polygon", "coordinates": [ [ [ 108.717333333332618, -6.810222222221412 ], [ 108.717777777777059, -6.810222222221412 ], [ 108.717777777777059, -6.810666666665856 ], [ 108.717555555554839, -6.810666666665856 ], [ 108.717555555554839, -6.810888888888078 ], [ 108.715555555554843, -6.810888888888078 ], [ 108.715555555554843, -6.810666666665856 ], [ 108.716222222221504, -6.810666666665856 ], [ 108.716222222221504, -6.810444444443634 ], [ 108.716444444443724, -6.810444444443634 ], [ 108.716444444443724, -6.810666666665856 ], [ 108.717111111110398, -6.810666666665856 ], [ 108.717111111110398, -6.810444444443634 ], [ 108.717333333332618, -6.810444444443634 ], [ 108.717333333332618, -6.810222222221412 ] ] ] } }
]
}
