{
"type": "FeatureCollection",
"name": "mangrove_cirebon_jabar_1996",
"crs": { "type": "name", "properties": { "name": "urn:ogc:def:crs:OGC:1.3:CRS84" } },
"features": [
{ "type": "Feature", "properties": { "PXLVAL": 1 }, "geometry": { "type": "Polygon", "coordinates": [ [ [ 108.652888888888242, -6.753111111110358 ], [ 108.653111111110462, -6.753111111110358 ], [ 108.653111111110462, -6.75333333333258 ], [ 108.652888888888242, -6.75333333333258 ], [ 108.652888888888242, -6.753111111110358 ] ] ] } },
{ "type": "Feature", "properties": { "PXLVAL": 1 }, "geometry": { "type": "Polygon", "coordinates": [ [ [ 108.653333333332682, -6.75333333333258 ], [ 108.653555555554902, -6.75333333333258 ], [ 108.653555555554902, -6.753555555554802 ], [ 108.653333333332682, -6.753555555554802 ], [ 108.653333333332682, -6.75333333333258 ] ] ] } },
{ "type": "Feature", "properties": { "PXLVAL": 1 }, "geometry": { "type": "Polygon", "coordinates": [ [ [ 108.653555555554902, -6.753555555554802 ], [ 108.653777777777123, -6.753555555554802 ], [ 108.653777777777123, -6.753777777777024 ], [ 108.654222222221563, -6.753777777777024 ], [ 108.654222222221563, -6.753999999999246 ], [ 108.653999999999343, -6.753999999999246 ], [ 108.653999999999343, -6.754222222221468 ], [ 108.653777777777123, -6.754222222221468 ], [ 108.653777777777123, -6.753999999999246 ], [ 108.653555555554902, -6.753999999999246 ], [ 108.653555555554902, -6.753555555554802 ] ] ] } },
{ "type": "Feature", "properties": { "PXLVAL": 1 }, "geometry": { "type": "Polygon", "coordinates": [ [ [ 108.659555555554903, -6.759555555554796 ], [ 108.659999999999343, -6.759555555554796 ], [ 108.659999999999343, -6.759777777777018 ], [ 108.659555555554903, -6.759777777777018 ], [ 108.659555555554903, -6.759555555554796 ] ] ] } },
{ "type": "Feature", "properties": { "PXLVAL": 1 }, "geometry": { "type": "Polygon", "coordinates": [ [ [ 108.603777777777168, -6.764666666665902 ], [ 108.603999999999402, -6.764666666665902 ], [ 108.603999999999402, -6.764888888888124 ], [ 108.603777777777168, -6.764888888888124 ], [ 108.603777777777168, -6.764666666665902 ] ] ] } },
{ "type": "Feature", "properties": { "PXLVAL": 1 }, "geometry": { "type": "Polygon", "coordinates": [ [ [ 108.603999999999402, -6.764888888888124 ], [ 108.604666666666063, -6.764888888888124 ], [ 108.604666666666063, -6.766222222221456 ], [ 108.604444444443843, -6.766222222221456 ], [ 108.604444444443843, -6.765777777777012 ], [ 108.603999999999402, -6.765777777777012 ], [ 108.603999999999402, -6.76555555555479 ], [ 108.603555555554948, -6.76555555555479 ], [ 108.603555555554948, -6.765333333332568 ], [ 108.603999999999402, -6.765333333332568 ], [ 108.603999999999402, -6.764888888888124 ] ] ] } },
{ "type": "Feature", "properties": { "PXLVAL": 1 }, "geometry": { "type": "Polygon", "coordinates": [ [ [ 108.640222222221581, -6.7666666666659 ], [ 108.640444444443801, -6.7666666666659 ], [ 108.640444444443801, -6.766888888888122 ], [ 108.640666666666021, -6.766888888888122 ], [ 108.640666666666021, -6.767111111110344 ], [ 108.640444444443801, -6.767111111110344 ], [ 108.640444444443801, -6.767333333332566 ], [ 108.640222222221581, -6.767333333332566 ], [ 108.640222222221581, -6.767111111110344 ], [ 108.639999999999361, -6.767111111110344 ], [ 108.639999999999361, -6.766888888888122 ], [ 108.640222222221581, -6.766888888888122 ], [ 108.640222222221581, -6.7666666666659 ] ] ] } },
{ "type": "Feature", "properties": { "PXLVAL": 1 }, "geometry": { "type": "Polygon", "coordinates": [ [ [ 108.639333333332701, -6.767333333332566 ], [ 108.640222222221581, -6.767333333332566 ], [ 108.640222222221581, -6.767555555554788 ], [ 108.639999999999361, -6.767555555554788 ], [ 108.639999999999361, -6.76777777777701 ], [ 108.639777777777141, -6.76777777777701 ], [ 108.639777777777141, -6.767555555554788 ], [ 108.639555555554921, -6.767555555554788 ], [ 108.639555555554921, -6.76777777777701 ], [ 108.639111111110466, -6.76777777777701 ], [ 108.639111111110466, -6.767555555554788 ], [ 108.639333333332701, -6.767555555554788 ], [ 108.639333333332701, -6.767333333332566 ] ] ] } },
{ "type": "Feature", "properties": { "PXLVAL": 1 }, "geometry": { "type": "Polygon", "coordinates": [ [ [ 108.638222222221586, -6.768222222221454 ], [ 108.638444444443806, -6.768222222221454 ], [ 108.638444444443806, -6.768666666665898 ], [ 108.638222222221586, -6.768666666665898 ], [ 108.638222222221586, -6.768222222221454 ] ] ] } },
{ "type": "Feature", "properties": { "PXLVAL": 1 }, "geometry": { "type": "Polygon", "coordinates": [ [ [ 108.637777777777146, -6.768666666665898 ], [ 108.637999999999366, -6.768666666665898 ], [ 108.637999999999366, -6.76888888888812 ], [ 108.637777777777146, -6.76888888888812 ], [ 108.637777777777146, -6.768666666665898 ] ] ] } },
{ "type": "Feature", "properties": { "PXLVAL": 1 }, "geometry": { "type": "Polygon", "coordinates": [ [ [ 108.700666666665967, -6.808222222221414 ], [ 108.700888888888187, -6.808222222221414 ], [ 108.700888888888187, -6.808666666665858 ], [ 108.700666666665967, -6.808666666665858 ], [ 108.700666666665967, -6.808222222221414 ] ] ] } },
{ "type": "Feature", "properties": { "PXLVAL": 1 }, "geometry": { "type": "Polygon", "coordinates": [ [ [ 108.699999999999307, -6.808666666665858 ], [ 108.700222222221527, -6.808666666665858 ], [ 108.700222222221527, -6.80888888888808 ], [ 108.699999999999307, -6.80888888888808 ], [ 108.699999999999307, -6.808666666665858 ] ] ] } },
{ "type": "Feature", "properties": { "PXLVAL": 1 }, "geometry": { "type": "Polygon", "coordinates": [ [ [ 108.701555555554847, -6.808666666665858 ], [ 108.701777777777082, -6.808666666665858 ], [ 108.701777777777082, -6.80888888888808 ], [ 108.702444444443742, -6.80888888888808 ], [ 108.702444444443742, -6.809111111110302 ], [ 108.701333333332627, -6.809111111110302 ], [ 108.701333333332627, -6.80888888888808 ], [ 108.701555555554847, -6.80888888888808 ], [ 108.701555555554847, -6.808666666665858 ] ] ] } },
{ "type": "Feature", "properties": { "PXLVAL": 1 }, "geometry": { "type": "Polygon", "coordinates": [ [ [ 108.702444444443742, -6.809111111110302 ], [ 108.702666666665962, -6.809111111110302 ], [ 108.702666666665962, -6.809333333332524 ], [ 108.702444444443742, -6.809333333332524 ], [ 108.702444444443742, -6.809111111110302 ] ] ] } },
{ "type": "Feature", "properties": { "PXLVAL": 1 }, "geometry": { "type": "Polygon", "coordinates": [ [ [ 108.703555555554857, -6.809333333332524 ], [ 108.703999999999297, -6.809333333332524 ], [ 108.703999999999297, -6.809555555554746 ], [ 108.703777777777077, -6.809555555554746 ], [ 108.703777777777077, -6.809777777776968 ], [ 108.703111111110402, -6.809777777776968 ], [ 108.703111111110402, -6.809555555554746 ], [ 108.703555555554857, -6.809555555554746 ], [ 108.703555555554857, -6.809333333332524 ] ] ] } }
]
}
